street_num,street_name,zip,emissions,property_type,system_size,cost,cost_reduced,break_even,energy_production,savings,emissions_reduction,trees
85,ADAMS STREET,11201,947326.34,Multifamily Housing,9,67500,15410,8,10241,2151,7051,19
107,ADAMS STREET,11201,2506898.43,Other,52.1,312600,64553,6,59924,12584,41258,110
175,ADAMS STREET,11201,12052495.49,Multifamily Housing,300.87,1654785,517540,8,357095,74990,245862,656
122,ASHLAND PLACE,11201,2003825.59,Multifamily Housing,53.39,320340,67165,6,61407,12896,42279,113
161,ASHLAND PLACE,11201,2417677.35,Other,140.1,805575,230932,8,159424,33479,109764,293
124,ATLANTIC AVENUE,11201,293633.69,Multifamily Housing,52.57,315420,65504,6,62394,13103,42959,115
378,BALTIC STREET,11201,296587.88,Other,6.8,51000,11643,8,7488,1573,5156,14
53,BOERUM PLACE,11201,794016.88,Multifamily Housing,25.66,166790,35276,7,27629,5802,19023,51
49,BOND STREET,11201,127118.54,Other,276.16,1518880,471672,8,324389,60000,223343,596
110,BRIDGE STREET,11201,222821.21,Warehouse (Unrefrigerated),76.84,461040,114651,7,85558,17967,58907,157
197,BRIDGE STREET,11201,442467.76,Multifamily Housing,3.91,31280,7355,9,4354,914,2997,8
140,CADMAN PLAZA WEST,11201,3943981.68,Multifamily Housing,55.8,334800,72045,6,65545,13764,45128,120
51,CLARK STREET,11201,4650629.37,Residence Hall/Dormitory,61.66,369960,83912,7,67902,14259,46751,125
52,CLARK STREET,11201,1443630.98,Multifamily Housing,21.96,142740,30190,7,24989,5248,17205,46
79,CLARK STREET,11201,4077438.52,Multifamily Housing,105.23,605073,163262,7,118457,24876,81558,218
10,CLINTON STREET,11201,4077438.52,Multifamily Housing,78.71,472260,118438,7,89567,18809,61667,165
40,CLINTON STREET,11201,1431858.3,Multifamily Housing,1.72,14620,3526,13,1810,380,1246,3
75,CLINTON STREET,11201,714055.22,Multifamily Housing,11.11,77770,17148,8,12235,2569,8424,22
9,COLLEGE PLACE,11201,1117787.76,Multifamily Housing,38.75,251875,53272,7,41724,8762,28727,77
29,COLUMBIA HEIGHTS,11201,3008428.03,Office,69.49,416940,99767,7,80775,16963,55614,148
97,COLUMBIA HEIGHTS,11201,703649.4,Residence Hall/Dormitory,19.18,134260,29604,7,22060,4633,15189,41
107,COLUMBIA HEIGHTS,11201,1216422.58,Residence Hall/Dormitory,44.52,267120,53691,6,51750,10868,35630,95
128,COLUMBIA HEIGHTS,11201,982953.04,Residence Hall/Dormitory,18,126000,27783,7,20483,4301,14103,38
160,COLUMBIA HEIGHTS,11201,716436.21,Multifamily Housing,17.74,124180,27382,7,20621,4330,14198,38
10,COLUMBIA PLACE,11201,1294973.28,Multifamily Housing,47.36,284160,57116,6,53892,11317,37105,99
110,COLUMBIA STREET,11201,7363836.39,Multifamily Housing,901.5,4958250,1787696,9,1047908,220061,721490,1925
200,CONGRESS STREET,11201,995828.04,Multifamily Housing,70.61,423660,102035,7,82941,17418,57106,152
26,COURT STREET,11201,3763290.81,Office,20.06,130390,27577,6,23318,4897,16054,43
32,COURT STREET,11201,1422290.24,Office,14.33,100310,22118,7,17534,3682,12072,32
44,COURT STREET,11201,3069694.49,Office,19.89,139230,30700,8,21660,4549,14913,40
50,COURT STREET,11201,979866.57,Office,38.32,249080,52680,7,41261,8665,28409,76
110,COURT STREET,11201,2192078.32,Entertainment/Culture,6.03,45225,10325,8,6936,1456,4775,13
125,COURT STREET,11201,4141339.5,Multifamily Housing,74,444000,108900,7,82396,17303,56730,151
80,CRANBERRY STREET,11201,1566450.51,Multifamily Housing,16.28,113960,25128,8,17729,3723,12206,33
74,DE KALB AVENUE,11201,4883966.63,Multifamily Housing,195.64,1124930,338714,8,220231,46249,151630,405
85,DE KALB AVENUE,11201,174672.25,Other,28.07,182455,38589,7,28851,6059,19864,53
248,DUFFIELD STREET,11201,566962.8,Office,172.87,994003,294526,8,203060,42643,139808,373
340,FLATBUSH AVENUE EXT,11201,1135314.51,Office,745.64,4101020,1442661,25+,839365,60000,577907,1542
395,FLATBUSH AVENUE EXT,11201,8875744.53,Office,192.29,1105668,332213,8,214107,44963,147414,393
57,FRONT STREET,11201,694852.96,Multifamily Housing,2.96,25160,6067,12,3441,723,2369,6
75,FRONT STREET,11201,4466587.47,Office,221.65,1219075,370488,8,257647,54106,177391,473
84,FRONT STREET,11201,912361.03,Multifamily Housing,6.29,47175,10770,8,7004,1471,4822,13
380,FULTON STREET,11201,718398.33,Retail,8.18,61350,14006,8,9208,1934,6340,17
422,FULTON STREET,11201,16279925.51,Retail,156.81,901658,263360,8,174602,36666,120214,321
51,FURMAN STREET,11201,3184819.88,Office,118.58,681835,189169,8,132034,27727,90906,243
360,FURMAN STREET,11201,8120903.79,Multifamily Housing,263.16,1447380,447541,8,305898,60000,210613,562
265,GOLD STREET,11201,322426.06,Warehouse (Unrefrigerated),32.55,211575,44748,7,36641,7695,25228,67
277,GOLD STREET,11201,1365940.08,Multifamily Housing,13.86,97020,21393,7,15941,3348,10976,29
2,GRACE COURT,11201,1354586.28,Multifamily Housing,91.62,526815,136850,7,108742,22836,74869,200
75,HENRY STREET,11201,5368652.91,Multifamily Housing,74.31,445860,109528,7,82741,17376,56968,152
160,HENRY STREET,11201,563722,Multifamily Housing,16.19,113330,24989,7,18621,3910,12821,34
245,HENRY STREET,11201,534158.01,Multifamily Housing,47.45,284700,57225,6,55737,11705,38375,102
380,HENRY STREET,11201,4507439.13,Senior Care Facility,151.79,872793,253618,8,178299,37443,122759,328
145,HICKS STREET,11201,998826.32,Multifamily Housing,87.75,504563,129340,7,102001,21420,70228,187
401,HICKS STREET,11201,942387.99,Multifamily Housing,112.6,647450,177564,7,136398,28644,93911,251
414,HICKS STREET,11201,877726.4,Multifamily Housing,39.67,257855,54536,7,44656,9378,30746,82
417,HICKS STREET,11201,4215789.61,Multifamily Housing,60.62,363720,81806,6,71207,14953,49026,131
439,HICKS STREET,11201,3421375.89,Multifamily Housing,39.9,259350,54853,6,48333,10150,33277,89
1,HOYT STREET,11201,2092429.37,Residence Hall/Dormitory,22.73,147745,31248,7,24475,5140,16851,45
65,HOYT STREET,11201,2594399.9,Multifamily Housing,66.82,400920,94361,7,76037,15968,52352,140
20,JAY STREET,11201,2503393.08,Office,232.19,1277045,390053,8,267058,56082,183871,491
50,JAY STREET,11201,1244068.54,Residence Hall/Dormitory,29.88,194220,41078,7,33636,7064,23158,62
68,JAY STREET,11201,1913458.11,Other,132.09,759518,215387,8,143845,30207,99038,264
100,JAY STREET,11201,4381775.64,Multifamily Housing,38.23,248495,52557,7,42568,8939,29308,78
199,JAY STREET,11201,52602.3,,14.56,101920,22473,8,16034,3367,11039,29
327,JAY STREET,11201,5852721.9,College/University (Campus-Level),82.41,473858,118977,8,84702,17787,58318,156
160,JOHN STREET,11201,157608.47,Warehouse (Unrefrigerated),43.23,259380,52135,6,48135,10108,33141,88
142,JORALEMON STREET,11201,835155.14,Multifamily Housing,9.39,70425,16078,8,10455,2196,7199,19
165,JORALEMON STREET,11201,242310.07,Multifamily Housing,40.13,240780,48397,6,45665,9590,31441,84
186,JORALEMON STREET,11201,956034.6,Office,12.57,87990,19402,8,13535,2842,9319,25
191,JORALEMON STREET,11201,1144088.91,Office,11.11,77770,17148,8,12235,2569,8424,22
107,LAWRENCE STREET,11201,5446872.92,Multifamily Housing,8.96,67200,15342,8,9977,2095,6869,18
59,LIVINGSTON STREET,11201,523575.83,Other,6.89,51675,11797,9,7082,1487,4876,13
75,LIVINGSTON STREET,11201,1389705.91,Multifamily Housing,6.39,47925,10941,8,7115,1494,4899,13
77,LIVINGSTON STREET,11201,4059658.23,Multifamily Housing,22.65,147225,31138,7,24388,5122,16792,45
110,LIVINGSTON STREET,11201,4863684.1,Multifamily Housing,50.91,305460,62143,6,58555,12297,40315,108
180,LIVINGSTON STREET,11201,2636001.13,Office,80.08,460460,114455,7,87206,18313,60042,160
1,MAIN STREET,11201,3491835.63,Multifamily Housing,42.88,257280,51713,6,45647,9586,31428,84
30,MAIN STREET,11201,1749764.88,Multifamily Housing,52.69,316140,65747,6,59958,12591,41281,110
25,MONROE PLACE,11201,681581.13,Multifamily Housing,9.82,73650,16814,8,10934,2296,7528,20
57,MONTAGUE STREET,11201,1281370.76,Multifamily Housing,44.09,264540,53173,6,50171,10536,34543,92
74,MONTAGUE STREET,11201,783280.37,Multifamily Housing,19.98,139860,30839,8,22247,4672,15317,41
166,MONTAGUE STREET,11201,448772.98,Multifamily Housing,9.59,71925,16420,8,10678,2242,7352,20
177,MONTAGUE STREET,11201,650892.78,Office,13.26,92820,20467,8,13467,2828,9272,25
182,MONTAGUE STREET,11201,2967708.65,Multifamily Housing,11.8,82600,18213,7,13428,2820,9245,25
195,MONTAGUE STREET,11201,11100318.98,Office,52.44,314640,65241,6,57107,11992,39318,105
2,MONTAGUE TERRACE,11201,447869.09,Multifamily Housing,4.31,34480,8107,9,4852,1019,3340,9
100,MYRTLE AVENUE,11201,15257531.77,Office,39.35,255775,54096,7,39963,8392,27515,73
173,MYRTLE AVENUE,11201,6641326.44,Multifamily Housing,279.86,1539230,478540,8,308189,64720,212190,566
137,PEARL STREET,11201,965316.06,Other,58.81,352860,78140,7,65483,13751,45085,120
175,PEARL STREET,11201,1231281.73,Education,18.94,132580,29234,8,19930,4185,13722,37
375,PEARL STREET,11201,1252181.56,K-12 School,6.37,47775,10907,9,6547,1375,4508,12
55,PIERREPONT STREET,11201,1365080.28,Multifamily Housing,12.2,85400,18831,7,13883,2915,9558,26
66,PIERREPONT STREET,11201,451572.85,Multifamily Housing,12.83,89810,19803,8,14129,2967,9728,26
69,PIERREPONT STREET,11201,553029.58,Multifamily Housing,20.01,130065,27509,7,21791,4576,15003,40
44,PINEAPPLE STREET,11201,4646528.77,Multifamily Housing,29.11,189215,40019,7,32769,6881,22562,60
45,PINEAPPLE STREET,11201,593660.78,Multifamily Housing,6.46,48450,11061,8,7272,1527,5007,13
135,PLYMOUTH STREET,11201,658697.15,Office,67.25,403500,95231,7,71589,15034,49289,132
75,POPLAR STREET,11201,893401.27,Multifamily Housing,54.82,328920,70061,6,63052,13241,43412,116
14,PRINCE STREET,11201,2269835.36,Entertainment/Culture,29.36,190840,40363,7,31613,6639,21766,58
64,PROSPECT STREET,11201,574061.68,Warehouse (Unrefrigerated),62.43,374580,85471,7,70277,14758,48386,129
81,PROSPECT STREET,11201,348242.19,Warehouse (Unrefrigerated),40.99,245940,49434,6,46644,9795,32115,86
60,REMSEN STREET,11201,732706.33,Multifamily Housing,29.54,192010,40610,7,33615,7059,23144,62
68,REMSEN STREET,11201,978477.66,Multifamily Housing,18.71,130970,28879,7,21062,4423,14501,39
172,REMSEN STREET,11201,6089013.35,K-12 School,80.51,462933,115290,7,88660,18619,61043,163
90,SANDS STREET,11201,5485012.89,Residence Hall/Dormitory,28.65,186225,39387,7,32251,6773,22205,59
165,SANDS STREET,11201,1213380.2,Multifamily Housing,75.9,455400,112748,7,85440,17942,58826,157
96,SCHERMERHORN STREET,11201,1143780.26,Multifamily Housing,23.94,155610,32912,7,26656,5598,18353,49
17,SMITH STREET,11201,1798905.92,House of Worship,87.5,503125,128855,7,95287,20010,65605,175
32,SMITH STREET,11201,2601344.46,Office,25.22,163930,34671,7,27464,5768,18909,50
130,ST EDWARD'S STREET,11201,4430056.88,Multifamily Housing,64.24,385440,89136,7,72315,15186,49789,133
140,ST EDWARD'S STREET,11201,2758820.65,Senior Care Facility,36.51,237315,50192,7,41546,8725,28605,76
101,TECH PLACE,11201,1149137.49,Residence Hall/Dormitory,11.8,82600,18213,8,12850,2699,8847,24
194,TILLARY STREET,11201,1077068.38,Lodging,18.51,129570,28570,8,20610,4328,14190,38
318,WARREN STREET,11201,816834.73,Multifamily Housing,85.51,491683,124993,7,101490,21313,69876,186
25,WASHINGTON STREET,11201,1201144.54,Multifamily Housing,41.51,249060,50061,6,43172,9066,29724,79
26,WASHINGTON STREET,11201,240370,Office,8.53,63975,14605,9,8663,1819,5964,16
39,WASHINGTON STREET,11201,2635736.57,Office,147.94,850655,246146,8,166536,34972,114661,306
65,WASHINGTON STREET,11201,1825670.04,Multifamily Housing,5.8,43500,9931,9,6245,1311,4300,11
70,WASHINGTON STREET,11201,3945326.5,Multifamily Housing,96.53,555048,146379,7,109845,23067,75629,202
133,WATER STREET,11201,897237.31,Multifamily Housing,5.6,42000,9589,8,6509,1367,4482,12
220,WATER STREET,11201,1540171.41,Multifamily Housing,270.99,1490445,462075,8,315000,60000,216879,579
80,WILLOUGHBY STREET,11201,520401.17,K-12 School,14.47,101290,22334,8,15581,3272,10727,29
81,WILLOUGHBY STREET,11201,861059.46,Other,30.55,198575,41999,7,34016,7143,23420,62
101,WILLOUGHBY STREET,11201,5254100.72,Multifamily Housing,74.57,447420,110054,7,81206,17053,55911,149
190,WILLOUGHBY STREET,11201,15351536.87,College/University (Campus-Level),415.59,2285745,730489,8,462743,97176,318601,850
191,WILLOUGHBY STREET,11201,2122125.64,Multifamily Housing,53.99,323940,68380,6,62758,13179,43209,115
240,WILLOUGHBY STREET,11201,1328505.59,Medical Office,137.86,792695,226585,8,148441,31173,102203,273
79,WILLOW STREET,11201,4922106.6,Residence Hall/Dormitory,22.02,143130,30272,7,25327,5319,17438,47
135,WILLOW STREET,11201,874529.7,Multifamily Housing,27.99,181935,38479,7,31508,6617,21694,58
647,ALBANY AVENUE,11203,1056521.3,Multifamily Housing,59.68,358080,79902,6,70103,14722,48266,129
4710,AVENUE D,11203,739717.03,Multifamily Housing,31.52,204880,43332,7,36253,7613,24961,67
4411,CHURCH AVENUE,11203,1140539.47,Multifamily Housing,55.8,334800,72045,6,66228,13908,45598,122
209,EAST 34 STREET,11203,690950.78,Multifamily Housing,55.54,333240,71519,6,65240,13700,44918,120
450,EAST 34 STREET,11203,570203.59,Multifamily Housing,36.08,234520,49601,6,42381,8900,29180,78
282,EAST 35 STREET,11203,1286375.25,Multifamily Housing,107.64,618930,167939,7,127755,26829,87960,235
285,EAST 35 STREET,11203,717097.6,Multifamily Housing,41.76,250560,50363,6,48542,10194,33421,89
10,EAST 43 STREET,11203,1344202.5,Multifamily Housing,80.77,464428,115794,7,94876,19924,65322,174
428,EAST 46 STREET,11203,854269.22,Multifamily Housing,40.64,243840,49012,6,48235,10129,33210,89
86,EAST 49 STREET,11203,10504585.86,Senior Care Facility,371.31,2042205,648294,8,422526,88730,290911,776
254,EAST 56 STREET,11203,32430,Office,61.69,370140,83972,6,73218,15376,50411,135
743,FENIMORE STREET,11203,882841.13,Multifamily Housing,44.26,265560,53378,6,51448,10804,35422,95
3505,FOSTER AVENUE,11203,7104969.59,Multifamily Housing,218.38,1201090,364418,8,251174,52746,172934,461
5407,KINGS HIGHWAY,11203,2283151.28,Multifamily Housing,214.76,1181180,357698,8,241755,50768,166449,444
556,LEFFERTS AVENUE,11203,578030,Multifamily Housing,39.01,253565,53629,6,45823,9623,31549,84
570,LEFFERTS AVENUE,11203,627435.6,Multifamily Housing,31.26,203190,42975,6,36719,7711,25281,67
621,LEFFERTS AVENUE,11203,1870886.85,Multifamily Housing,71.47,428820,103777,7,84826,17813,58403,156
750,LEFFERTS AVENUE,11203,542403.3,Multifamily Housing,51.58,309480,63500,6,59957,12591,41281,110
785,LINDEN BOULEVARD,11203,6944649.44,Multifamily Housing,318.96,1754280,551120,8,374663,78679,257957,688
655,NEW YORK AVENUE,11203,1557499.74,Multifamily Housing,73.28,439680,107442,7,86078,18076,59265,158
1151,NEW YORK AVENUE,11203,1225285.16,Multifamily Housing,36.77,239005,50550,6,43192,9070,29738,79
1304,NEW YORK AVENUE,11203,722454.83,Multifamily Housing,46.3,277800,55838,6,54386,11421,37445,100
646,RUTLAND ROAD,11203,312108.42,Multifamily Housing,33.15,215475,45573,6,38534,8092,26531,71
811,RUTLAND ROAD,11203,3896251.6,Multifamily Housing,194.96,1121020,337394,8,231393,48593,159315,425
434,SCHENECTADY AVENUE,11203,723094.17,Multifamily Housing,107.55,618413,167764,7,127649,26806,87887,235
455,SCHENECTADY AVENUE,11203,774197.33,Multifamily Housing,110.14,633305,172790,7,130723,27452,90003,240
459,SCHENECTADY AVENUE,11203,986326.11,Multifamily Housing,66.56,399360,93834,7,78184,16419,53830,144
585,SCHENECTADY AVENUE,11203,16238721.11,Hospital (General Medical and Surgical),119.61,687758,191168,7,141962,29812,97742,261
1487,SCHENECTADY AVENUE,11203,689804.37,Warehouse (Unrefrigerated),390.95,2150225,684751,15,473576,60000,326060,870
3400,SNYDER AVENUE,11203,1587085.78,Multifamily Housing,79.65,477900,120341,7,92586,19443,63746,170
3500,SNYDER AVENUE,11203,1324272.72,Multifamily Housing,91.11,523883,135861,7,107021,22475,73685,197
5301,SNYDER AVENUE,11203,606822.38,Multifamily Housing,77.93,467580,116858,7,94400,19824,64995,173
751,TROY AVENUE,11203,1108197.65,Multifamily Housing,58.38,350280,77270,6,67861,14251,46723,125
885,TROY AVENUE,11203,641831.78,Multifamily Housing,38.23,248495,52557,6,45374,9529,31240,83
6101,16 AVENUE,11204,376086.57,Education,105.4,606050,163592,7,123807,25999,85242,227
4910,17 AVENUE,11204,879578.29,Multifamily Housing,39.18,254670,53863,6,46022,9665,31687,85
5110,19 AVENUE,11204,831010.45,Senior Care Facility,31.78,206570,43690,6,36941,7758,25434,68
5120,19 AVENUE,11204,572760.96,Multifamily Housing,45.64,273840,55042,6,53052,11141,36527,97
6801,19 AVENUE,11204,1186682.22,Multifamily Housing,67.25,403500,95231,6,79817,16762,54955,147
6309,23 AVENUE,11204,608718.35,Multifamily Housing,44.95,269700,54210,6,52250,10973,35974,96
1753,47 STREET,11204,522164.87,Multifamily Housing,32.38,210470,44514,6,37639,7904,25914,69
1840,52 STREET,11204,27006.63,Multifamily Housing,17.05,119350,26317,7,19193,4031,13215,35
1850,52 STREET,11204,630676.39,Multifamily Housing,42.86,257160,51689,6,48772,10242,33580,90
1865,52 STREET,11204,424874.87,Multifamily Housing,14.92,104440,23029,7,16978,3565,11689,31
1824,53 STREET,11204,586407.57,K-12 School,42.63,255780,51412,6,49553,10406,34118,91
1690,60 STREET,11204,956100.74,Education,35.65,231725,49010,7,40567,8519,27931,75
1638,63 STREET,11204,196983.03,Other,188.41,1083358,324683,8,223619,46960,153963,411
2402,63 STREET,11204,521834.17,Multifamily Housing,45.81,274860,55247,6,54371,11418,37435,100
2214,64 STREET,11204,461185.01,Multifamily Housing,30.4,197600,41792,6,35709,7499,24586,66
1827,65 STREET,11204,936832.34,Multifamily Housing,21.01,136565,28883,7,23908,5021,16461,44
2402,65 STREET,11204,998627.91,Multifamily Housing,55.71,334260,71863,6,64758,13599,44586,119
1751,67 STREET,11204,990118.06,Multifamily Housing,59.16,354960,78849,6,68768,14441,47347,126
10,AVENUE P,11204,778253.83,Multifamily Housing,52.01,312060,64370,6,61093,12830,42063,112
80,AVENUE P,11204,1004822.9,Multifamily Housing,88.92,511290,131610,7,103361,21706,71165,190
130,AVENUE P,11204,781340.3,Multifamily Housing,53.65,321900,67691,6,62363,13096,42937,115
135,AVENUE P,11204,685395.13,Multifamily Housing,39.18,254670,53863,6,45543,9564,31357,84
209,AVENUE P,11204,693419.95,Multifamily Housing,45.29,271740,54620,6,53754,11288,37010,99
6224,BAY PARKWAY,11204,617404.56,Multifamily Housing,35.65,231725,49010,6,41440,8702,28531,76
6801,BAY PARKWAY,11204,1419159.67,Multifamily Housing,40.21,241260,48493,6,46740,9815,32181,86
7000,BAY PARKWAY,11204,1122263.14,Multifamily Housing,60.19,361140,80935,6,71438,15002,49185,131
7402,BAY PARKWAY,11204,790820.18,Multifamily Housing,28.93,188045,39772,7,33274,6988,22910,61
2101,BAY RIDGE PARKWAY,11204,392951.94,Multifamily Housing,29.54,192010,40610,7,33976,7135,23393,62
1599,WEST 10 STREET,11204,736630.56,Multifamily Housing,46.89,281340,56549,6,53931,11326,37132,99
1514,WEST 11 STREET,11204,525736.36,Multifamily Housing,23.16,150540,31839,6,26921,5653,18535,49
1402,WEST 4 STREET,11204,811212.94,Multifamily Housing,50.89,305340,62102,6,59777,12553,41157,110
1411,WEST 4 STREET,11204,802041.71,Multifamily Housing,57.07,342420,74617,6,65640,13784,45194,121
1388,WEST 6 STREET,11204,478755.85,Multifamily Housing,24.54,159510,33736,6,28525,5990,19640,52
1315,WEST 7 STREET,11204,642890,Multifamily Housing,30.83,200395,42384,6,35837,7526,24674,66
1590,WEST 8 STREET,11204,640288.55,Multifamily Housing,41.85,251100,50471,6,49159,10323,33846,90
1,CARLTON AVENUE,11205,208248.65,Other,119.71,688333,191362,7,140616,29529,96815,258
167,CLERMONT AVENUE,11205,1076186.53,Multifamily Housing,108.76,625370,170112,7,127754,26828,87959,235
181,CLERMONT AVENUE,11205,781891.46,Multifamily Housing,41.68,250080,50266,6,47429,9960,32655,87
165,CLINTON AVENUE,11205,1158992.16,Multifamily Housing,48.48,290880,58467,6,55760,11710,38391,102
185,CLINTON AVENUE,11205,8471394.69,Multifamily Housing,152.59,877393,255170,8,177371,37248,122121,326
196,CLINTON AVENUE,11205,807906.01,Multifamily Housing,58.64,351840,77796,7,65293,13712,44955,120
210,CLINTON AVENUE,11205,2241153.22,Multifamily Housing,37.03,240695,50907,6,43497,9134,29948,80
295,CLINTON AVENUE,11205,848382.88,Multifamily Housing,59.85,359100,80246,6,69570,14610,47899,128
325,CLINTON AVENUE,11205,1502516.45,Multifamily Housing,33.07,214955,45463,6,38845,8158,26745,71
372,DE KALB AVENUE,11205,646549.68,Multifamily Housing,58.21,349260,76925,6,66239,13910,45606,122
585,DE KALB AVENUE,11205,2887592.66,Retail,652.9,3590950,1237357,25,782900,60000,539031,1438
600,DE KALB AVENUE,11205,2408991.14,Senior Care Facility,116.27,668553,184687,7,136575,28681,94033,251
39,HALL STREET,11205,392070.09,Office,439.99,2419945,775781,8,506063,106273,348427,930
185,HALL STREET,11205,2738009.02,Multifamily Housing,87.06,500595,128001,7,103329,21699,71143,190
918,KENT AVENUE,11205,836191.31,Multifamily Housing,110.47,635203,173431,7,132466,27818,91203,243
277,MYRTLE AVENUE,11205,7551471.82,Multifamily Housing,157.24,904130,264194,8,180853,37979,124518,332
692,MYRTLE AVENUE,11205,233667.95,Other,185.05,1064038,318163,8,215103,45172,148099,395
37,NORTH ELLIOTT PLACE,11205,2033169.12,Multifamily Housing,40.13,240780,48397,6,46156,9693,31779,85
121,NORTH PORTLAND AVE,11205,7551471.82,Multifamily Housing,524.93,2887115,954064,8,603758,126789,415690,1109
235,PARK AVENUE,11205,378533.7,Warehouse (Unrefrigerated),137.94,793155,226740,8,156966,32963,108072,288
348,PARK AVENUE,11205,283977.44,Warehouse (Unrefrigerated),46.5,279000,56079,6,52345,10992,36040,96
544,PARK AVENUE,11205,2225544.49,Warehouse (Unrefrigerated),215.02,1182610,358181,8,247309,51935,170274,454
255,RYERSON STREET,11205,4908327.71,K-12 School,171.88,988310,292605,8,193485,40632,133215,355
72,SKILLMAN STREET,11205,530586.53,Multifamily Housing,45.81,274860,55247,6,52129,10947,35891,96
118,ST EDWARD'S STREET,11205,6641326.44,Multifamily Housing,279.52,1537360,477909,8,318075,66796,218996,584
21,ST JAMES PLACE,11205,2721165.7,Multifamily Housing,74.06,444360,109022,7,88806,18649,61144,163
111,STEUBEN STREET,11205,771816.33,Multifamily Housing,27.13,176345,37297,7,31204,6553,21484,57
225,STEUBEN STREET,11205,3342825.19,K-12 School,415.36,2284480,730062,8,482816,101391,332421,887
213,TAAFFE PLACE,11205,1036988.34,Multifamily Housing,87.92,505540,129670,7,100047,21010,68883,184
226,TAAFFE PLACE,11205,1603069.29,Multifamily Housing,123.74,711505,199183,7,145350,30523,100074,267
227,TAAFFE PLACE,11205,1666121.5,Multifamily Housing,68.29,409740,97337,7,79381,16670,54654,146
18,WARSOFF PLACE,11205,207388.85,Other,256.61,1411355,435382,8,310844,60000,214018,571
54,WASHINGTON AVENUE,11205,287725.3,K-12 School,92.05,529288,137685,7,105873,22233,72894,194
266,WASHINGTON AVENUE,11205,1323479.05,Multifamily Housing,86.11,495133,126157,7,103256,21684,71092,190
277,WASHINGTON AVENUE,11205,450338.26,Multifamily Housing,36.77,239005,50550,7,42292,8881,29118,78
295,WASHINGTON AVENUE,11205,781097.79,Multifamily Housing,29.54,192010,40610,7,33976,7135,23393,62
39,WAVERLY AVENUE,11205,1741012.53,Multifamily Housing,127.88,735310,207217,7,150213,31545,103422,276
215,WILLOUGHBY AVENUE,11205,3128072.9,Residence Hall/Dormitory,146.39,841743,243138,8,168373,35358,115926,309
382,WILLOUGHBY AVENUE,11205,301482.14,Multifamily Housing,31.61,205465,43456,6,36744,7716,25298,68
102,BARTLETT STREET,11206,397140.72,K-12 School,79.83,478980,120706,7,91818,19282,63217,169
54,BOERUM STREET,11206,3423558.47,Multifamily Housing,189.09,1087268,326003,8,222113,46644,152926,408
91,BOERUM STREET,11206,1821613.53,Multifamily Housing,69.15,414900,99079,7,81226,17058,55925,149
72,BOGART STREET,11206,556005.82,Other,123.31,709033,198349,7,150880,31685,103882,277
533,BUSHWICK AVENUE,11206,1014413.01,Multifamily Housing,110.91,637733,174285,7,131636,27644,90632,242
43,CENTRAL AVENUE,11206,880879.01,Multifamily Housing,56.32,337920,73098,6,66845,14037,46023,123
63,CENTRAL AVENUE,11206,690818.5,Multifamily Housing,25.92,168480,35634,7,29178,6127,20089,54
80,EVERGREEN AVENUE,11206,871884.15,Warehouse (Unrefrigerated),535.44,2944920,977330,8,642052,134831,442056,1180
95,EVERGREEN AVENUE,11206,724130.35,Other,121.5,698625,194836,7,142719,29971,98263,262
105,EVERGREEN AVENUE,11206,274872.35,Warehouse (Unrefrigerated),390.08,2145440,683136,15,477295,60000,328620,877
930,FLUSHING AVENUE,11206,1407805.87,Warehouse (Unrefrigerated),1528.22,7641100,2867543,25+,1851206,60000,1274564,3401
10,FORREST STREET,11206,1158617.37,Multifamily Housing,58.99,353940,78505,6,68570,14400,47211,126
10,GRAHAM AVENUE,11206,239686.57,Retail,152.42,876415,254840,8,173444,36423,119417,319
84,HUMBOLDT STREET,11206,1091354.34,Multifamily Housing,57.61,345660,75710,6,69786,14655,48048,128
29,LEONARD STREET,11206,7182792.77,Multifamily Housing,150.87,867503,251832,8,179064,37603,123286,329
95,LEWIS AVENUE,11206,1713609.07,Multifamily Housing,35.99,233935,49477,6,43596,9155,30016,80
391,LORIMER STREET,11206,1102642,Multifamily Housing,102.64,590180,158236,7,120565,25319,83010,221
33,MARCUS GARVEY BLVD,11206,9822266.18,Multifamily Housing,266.77,1467235,454242,8,310095,65120,213502,570
475,MARCY AVENUE,11206,2936380.96,Other,269.96,1484780,460163,8,297287,62430,204683,546
248,MC KIBBIN STREET,11206,1204760.12,Multifamily Housing,153.81,884408,257538,7,186317,39127,128280,342
255,MC KIBBIN STREET,11206,5884644.84,Multifamily Housing,123.91,712483,199513,7,151614,31839,104387,279
30,MONTROSE AVENUE,11206,10303083.35,Multifamily Housing,140.53,808048,231766,7,165072,34665,113653,303
130,MOORE STREET,11206,7093218.96,Multifamily Housing,385.52,2120360,674672,8,462282,97079,318283,849
756,MYRTLE AVENUE,11206,992609.29,Multifamily Housing,30.78,200070,42315,7,34649,7276,23856,64
21,NOSTRAND AVENUE,11206,14630647.33,Multifamily Housing,461.56,2538580,815821,8,536519,112669,369396,986
111,NOSTRAND AVENUE,11206,14630647.33,Multifamily Housing,371.05,2040775,647812,8,431310,90575,296959,792
808,PARK AVENUE,11206,9822266.18,Multifamily Housing,228.8,1258400,383760,8,265958,55851,183113,489
250,PULASKI STREET,11206,863771.14,Multifamily Housing,56.49,338940,73442,6,66355,13935,45686,122
24,ROCK STREET,11206,6430200.75,Office,175.67,1010103,299960,8,202050,42431,139112,371
25,ROCK STREET,11206,2581635.13,Warehouse (Refrigerated),274.09,1507495,467830,8,321957,67611,221669,591
315,SEIGEL STREET,11206,35758.98,Multifamily Housing,99.2,570400,151560,7,117738,24725,81063,216
95,THROOP AVENUE,11206,770361.28,Multifamily Housing,49.51,297060,59709,6,58762,12340,40458,108
78,TROUTMAN STREET,11206,711387.63,Multifamily Housing,56.75,340500,73969,6,68744,14436,47331,126
1,VERNON AVENUE,11206,672718.55,Multifamily Housing,43.23,259380,52135,6,52367,10997,36055,96
157,WALLABOUT STREET,11206,544497.69,Multifamily Housing,79.65,477900,120341,7,93560,19648,64417,172
341,WALLABOUT STREET,11206,254170.94,Multifamily Housing,11.88,83160,18337,8,13228,2778,9107,24
9,WHITE STREET,11206,200091.55,Storage/Shipping/Non-Refrigerated Warehouse,75.61,453660,112160,7,87889,18457,60512,161
2887,ATLANTIC AVENUE,11207,186996.09,Self-Storage,139.95,804713,230641,7,167816,35241,115542,308
2941,ATLANTIC AVENUE,11207,155492.03,Self-Storage,73.37,440220,107624,7,87979,18476,60574,162
443,BARBEY STREET,11207,1082227.2,Multifamily Housing,189.56,1089970,326915,8,222665,46760,153306,409
380,BELMONT AVENUE,11207,810331.09,Multifamily Housing,57.18,343080,74840,6,69965,14693,48171,129
515,BLAKE AVENUE,11207,1905675.79,Multifamily Housing,248.86,1368730,420996,8,292321,61387,201264,537
579,BLAKE AVENUE,11207,4208205.7,Multifamily Housing,123.4,709550,198523,7,143441,30123,98760,264
766,BLAKE AVENUE,11207,8528957.39,Multifamily Housing,314.13,1727715,542154,8,349772,73452,240819,643
575,CENTRAL AVENUE,11207,562928.34,Multifamily Housing,60.11,360660,80773,6,72814,15291,50133,134
148,COZINE AVENUE,11207,1408070.42,Multifamily Housing,148.2,852150,246651,8,163202,34272,112365,300
190,COZINE AVENUE,11207,6332998.94,Multifamily Housing,246.02,1353110,415725,8,291995,61319,201040,536
195,COZINE AVENUE,11207,4980940.63,Multifamily Housing,279.43,1536865,477742,8,331649,69646,228342,609
338,DE WITT AVENUE,11207,682440.93,Other,362.53,1993915,631996,14,439150,60000,302357,807
563,DUMONT AVENUE,11207,1024488.13,Multifamily Housing,42.19,253140,50881,6,49042,10299,33766,90
751,EVERGREEN AVENUE,11207,490308.07,Multifamily Housing,67.84,407040,96426,7,78027,16386,53722,143
24,FURMAN AVENUE,11207,756626.48,Multifamily Housing,27.13,176345,37297,6,31868,6692,21941,59
213,GEORGIA AVENUE,11207,166206.5,Warehouse (Unrefrigerated),716.34,3939870,1377798,25+,876502,60000,603476,1610
311,GEORGIA AVENUE,11207,639814.56,Multifamily Housing,91.02,523365,135686,7,109143,22920,75146,201
340,GEORGIA AVENUE,11207,639814.56,Multifamily Housing,47.02,282120,56706,6,55807,11719,38423,103
391,GEORGIA AVENUE,11207,1272566.97,Multifamily Housing,61.74,370440,84074,6,71767,15071,49412,132
802,GEORGIA AVENUE,11207,227120.22,Warehouse (Unrefrigerated),629.56,3462580,1185688,24,770319,60000,530369,1415
975,GEORGIA AVENUE,11207,616236.11,Warehouse (Unrefrigerated),468.62,2577410,829408,18,561928,60000,386890,1032
353,HENDRIX STREET,11207,502477.59,Multifamily Housing,54.08,324480,68562,6,65510,13757,45104,120
200,HIGHLAND BOULEVARD,11207,989963.74,Multifamily Housing,49.61,297660,59830,6,57667,12110,39704,106
220,HIGHLAND BOULEVARD,11207,1350110.89,Multifamily Housing,53.04,318240,66456,6,61654,12947,42449,113
224,HIGHLAND BOULEVARD,11207,1675711.61,Multifamily Housing,85.96,494270,125866,7,96765,20321,66623,178
971,JEROME STREET,11207,6617990.5,Multifamily Housing,415.83,2287065,730934,8,488451,102575,336301,897
1000,PENNSYLVANIA AVENUE,11207,2945750.61,Warehouse (Unrefrigerated),1599,7995000,3009988,25+,1936945,60000,1333596,3558
1266,PENNSYLVANIA AVENUE,11207,13001141.46,Multifamily Housing,149.58,860085,249329,8,164721,34591,113411,303
1279,PENNSYLVANIA AVENUE,11207,13001141.46,Multifamily Housing,146.13,840248,242634,8,160922,33794,110796,296
2016,PITKIN AVENUE,11207,650473.9,Warehouse (Unrefrigerated),429.01,2359555,755400,16,519680,60000,357802,955
2060,PITKIN AVENUE,11207,2878289.15,Multifamily Housing,69.06,414360,98897,7,81966,17213,56434,151
155,SCHROEDERS AVENUE,11207,13001141.46,Multifamily Housing,183.59,1055643,315330,8,206667,43400,142291,380
360,SNEDIKER AVENUE,11207,441034.76,Multifamily Housing,34.19,222235,47003,6,40161,8434,27651,74
379,SNEDIKER AVENUE,11207,1248235.28,Multifamily Housing,276.59,1521245,472470,8,321509,60000,221361,591
464,STANLEY AVENUE,11207,246851.59,Self-Storage,314.95,1732225,543676,12,381514,60000,262674,701
626,SUTTER AVENUE,11207,1382320.43,Multifamily Housing,58.81,352860,78140,6,67641,14205,46571,124
60,WILLIAMS AVENUE,11207,395354.97,K-12 School,58.9,353400,78323,6,70628,14832,48628,130
360,WILLIAMS AVENUE,11207,1272566.97,Multifamily Housing,128.13,736748,207702,8,147371,30948,101466,271
371,WILLIAMS AVENUE,11207,1272566.97,Multifamily Housing,190.22,1093765,328196,8,216458,45456,149032,398
405,WILLIAMS AVENUE,11207,1403683.22,Multifamily Housing,62.26,373560,85127,6,73133,15358,50353,134
1,WORTMAN AVENUE,11207,1450597.59,Office,679.68,3738240,1296642,25+,831645,60000,572592,1528
25,WORTMAN AVENUE,11207,327033.72,Other,669.17,3680435,1273375,25+,818785,60000,563738,1504
215,WORTMAN AVENUE,11207,4980940.63,Multifamily Housing,353.75,1945625,615698,8,419857,88170,289074,771
270,WORTMAN AVENUE,11207,4980940.63,Multifamily Housing,153.28,881360,256509,7,183800,38598,126547,338
3329,ATLANTIC AVENUE,11208,272954.33,Warehouse (Unrefrigerated),73.63,441780,108151,7,89192,18730,61409,164
554,COZINE AVENUE,11208,577787.5,Warehouse (Unrefrigerated),482.4,2653200,859913,18,596159,60000,410459,1095
783,ELDERT LANE,11208,3251840.41,Multifamily Housing,69.74,418440,100274,7,76799,16128,52877,141
646,EMERALD STREET,11208,420112.89,Multifamily Housing,178.43,1025973,305316,8,203041,42639,139795,373
735,LINCOLN AVENUE,11208,17854268.57,Multifamily Housing,609.15,3350325,1140506,8,708079,148697,487516,1301
714,MONTAUK AVENUE,11208,1228151.17,Warehouse (Unrefrigerated),438.31,2410705,772663,17,547035,60000,376636,1005
2830,PITKIN AVENUE,11208,714341.82,Senior Care Facility,40.04,240240,48288,6,46543,9774,32045,86
845,STANLEY AVENUE,11208,6944649.44,Multifamily Housing,427.28,2350040,752189,8,507128,106497,349160,932
625,WORTMAN AVENUE,11208,472450.63,Office,412.13,2266715,724066,16,514361,60000,354140,945
317,100 STREET,11209,756560.34,Multifamily Housing,44.09,264540,53173,6,51790,10876,35658,95
302,101 STREET,11209,408913.4,Multifamily Housing,104.19,599093,161244,7,118561,24898,81630,218
343,101 STREET,11209,747785.95,Multifamily Housing,71.52,429120,103878,7,81385,17091,56034,150
9902,3 AVENUE,11209,1882152.47,Multifamily Housing,110.83,637273,174130,7,132898,27908,91501,244
6925,4 AVENUE,11209,917255.29,Multifamily Housing,28.33,184145,38947,6,32931,6915,22673,60
7101,4 AVENUE,11209,922347.97,Multifamily Housing,37.63,244595,51732,6,43741,9186,30116,80
7201,4 AVENUE,11209,715664.59,Multifamily Housing,62.69,376140,85997,6,75172,15786,51757,138
7401,4 AVENUE,11209,653273.77,Multifamily Housing,42.28,253680,50990,6,50698,10647,34906,93
7501,4 AVENUE,11209,482658.03,Multifamily Housing,41.42,248520,49953,6,48654,10217,33498,89
7609,4 AVENUE,11209,597011.81,Multifamily Housing,53.39,320340,67165,6,63367,13307,43629,116
7825,4 AVENUE,11209,649437.73,Multifamily Housing,39.96,259740,54935,6,46939,9857,32317,86
7914,4 AVENUE,11209,682837.76,Multifamily Housing,24.54,159510,33736,7,28225,5927,19433,52
8002,4 AVENUE,11209,745515.19,Multifamily Housing,35.39,230035,48652,6,41571,8730,28622,76
8024,4 AVENUE,11209,201436.37,Multifamily Housing,32.89,213785,45216,6,38634,8113,26600,71
8105,4 AVENUE,11209,670932.8,Multifamily Housing,35.31,229515,48542,6,41477,8710,28557,76
8201,4 AVENUE,11209,598180.26,Multifamily Housing,35.05,227825,48185,6,41171,8646,28347,76
8215,4 AVENUE,11209,597717.28,Multifamily Housing,38.84,252460,53395,6,46574,9780,32066,86
8415,4 AVENUE,11209,1231965.17,Multifamily Housing,62.52,375120,85653,6,73439,15422,50563,135
9602,4 AVENUE,11209,1165848.53,Multifamily Housing,59.5,357000,79538,6,70619,14830,48622,130
9921,4 AVENUE,11209,772830.46,Multifamily Housing,53.39,320340,67165,6,63367,13307,43629,116
10015,4 AVENUE,11209,660835.63,Multifamily Housing,89.9,516925,133512,7,104500,21945,71949,192
138,71 STREET,11209,648974.76,Multifamily Housing,41.94,251640,50580,6,48751,10238,33565,90
130,72 STREET,11209,1468190.48,Multifamily Housing,90.93,522848,135511,7,105697,22196,72773,194
145,72 STREET,11209,608564.03,Multifamily Housing,44.35,266100,53486,6,51553,10826,35494,95
190,72 STREET,11209,3606520.1,Multifamily Housing,135.37,778378,221753,7,159011,33392,109480,292
1,74 STREET,11209,1125173.25,Multifamily Housing,85.42,491165,124818,7,100338,21071,69083,184
141,74 STREET,11209,831363.19,Multifamily Housing,48.74,292440,58780,6,57848,12148,39829,106
252,74 STREET,11209,818862.98,Multifamily Housing,54.94,329640,70304,6,65879,13835,45358,121
243,78 STREET,11209,603802.04,Multifamily Housing,43.4,260400,52340,6,50448,10594,34734,93
255,79 STREET,11209,582373.11,Multifamily Housing,38.06,247390,52323,6,44707,9388,30781,82
601,79 STREET,11209,1425773.54,Multifamily Housing,105.14,604555,163087,7,124788,26206,85917,229
301,81 STREET,11209,543439.48,Multifamily Housing,27.73,180245,38122,6,32233,6769,22193,59
461,84 STREET,11209,509929.21,Multifamily Housing,37.72,245180,51856,6,43846,9208,30188,81
580,84 STREET,11209,716524.4,Multifamily Housing,57.35,344100,75184,6,66664,13999,45898,122
565,85 STREET,11209,553801.2,Multifamily Housing,56.23,337380,72916,6,66050,13871,45476,121
345,86 STREET,11209,1436333.68,Multifamily Housing,53.65,321900,67691,6,63676,13372,43841,117
364,93 STREET,11209,501397.32,Multifamily Housing,31.17,202605,42851,6,36995,7769,25471,68
450,95 STREET,11209,632263.72,Multifamily Housing,53.04,318240,66456,6,62303,13084,42896,114
120,96 STREET,11209,821596.71,Multifamily Housing,60.45,362700,81461,6,70267,14756,48379,129
302,96 STREET,11209,867452.86,Multifamily Housing,111.17,639228,174789,7,131945,27708,90845,242
303,99 STREET,11209,543285.15,Multifamily Housing,32.72,212680,44982,6,38034,7987,26187,70
130,BAY RIDGE PARKWAY,11209,720691.13,Multifamily Housing,38.75,251875,53272,6,45043,9459,31012,83
238,BAY RIDGE PARKWAY,11209,820560.54,Multifamily Housing,99.37,571378,151890,7,120372,25278,82876,221
7040,COLONIAL ROAD,11209,867871.74,Multifamily Housing,44.95,269700,54210,6,53350,11204,36732,98
7101,COLONIAL ROAD,11209,1044770.66,Multifamily Housing,87.32,502090,128505,7,102570,21540,70620,188
9108,COLONIAL ROAD,11209,897303.45,Multifamily Housing,51.41,308460,63155,6,61017,12814,42011,112
8502,FT HAMILTON PARKWAY,11209,610504.1,Multifamily Housing,49.43,296580,59613,6,59272,12447,40809,109
8523,FT HAMILTON PARKWAY,11209,966815.2,Multifamily Housing,47.45,284700,57225,6,56317,11827,38775,103
8602,FT HAMILTON PARKWAY,11209,724968.1,Multifamily Housing,46.67,280020,56284,6,55392,11632,38137,102
9031,FT HAMILTON PARKWAY,11209,820913.28,Multifamily Housing,43.57,261420,52545,6,52245,10972,35971,96
9040,FT HAMILTON PARKWAY,11209,820626.68,Multifamily Housing,45.21,271260,54523,6,53105,11152,36563,98
15,MACKAY PLACE,11209,511847.23,Multifamily Housing,43.66,261960,52654,6,52353,10994,36045,96
28,MARINE AVENUE,11209,38250.2,Multifamily Housing,40.73,244380,49120,6,47345,9942,32597,87
185,MARINE AVENUE,11209,615971.56,Multifamily Housing,28.07,182455,38589,7,31942,6708,21992,59
351,MARINE AVENUE,11209,789541.5,Multifamily Housing,92.23,530323,138034,7,110594,23225,76145,203
8901,NARROWS AVENUE,11209,667052.67,Multifamily Housing,42.98,257880,51834,6,48382,10160,33312,89
61,OLIVER STREET,11209,1056851.99,Multifamily Housing,96.62,555565,146553,7,113494,23834,78141,208
315,OVINGTON AVENUE,11209,823007.67,Multifamily Housing,62.69,376140,85997,6,74405,15625,51228,137
321,OVINGTON AVENUE,11209,1154097.9,Multifamily Housing,70.35,422100,101509,7,82636,17354,56895,152
359,OVINGTON AVENUE,11209,731163.09,Multifamily Housing,53.91,323460,68218,6,63984,13437,44054,118
414,OVINGTON AVENUE,11209,799815.04,Multifamily Housing,29.36,190840,40363,6,34128,7167,23497,63
555,OVINGTON AVENUE,11209,782795.35,Multifamily Housing,81.81,470408,117813,7,95096,19970,65474,175
602,OVINGTON AVENUE,11209,558276.59,Multifamily Housing,31.78,206570,43690,6,37719,7921,25970,69
7002,RIDGE BOULEVARD,11209,240215.68,Multifamily Housing,55.97,335820,72389,6,66429,13950,45737,122
7102,RIDGE BOULEVARD,11209,478623.57,Multifamily Housing,32.55,211575,44748,6,38235,8029,26325,70
7401,RIDGE BOULEVARD,11209,466939.07,Other,37.46,243490,51498,6,44002,9240,30296,81
7410,RIDGE BOULEVARD,11209,937945.67,Multifamily Housing,70.53,423180,101873,7,83710,17579,57635,154
7420,RIDGE BOULEVARD,11209,937945.67,Multifamily Housing,71.9,431400,104648,7,85336,17921,58755,157
7423,RIDGE BOULEVARD,11209,745956.11,Multifamily Housing,31.09,202085,42741,6,36520,7669,25144,67
7502,RIDGE BOULEVARD,11209,610063.17,Multifamily Housing,41.08,246480,49542,6,48757,10239,33569,90
8301,RIDGE BOULEVARD,11209,530917.22,Multifamily Housing,38.06,247390,52323,6,45173,9486,31101,83
8708,RIDGE BOULEVARD,11209,661452.92,Multifamily Housing,45.64,273840,55042,6,53611,11258,36911,98
9480,RIDGE BOULEVARD,11209,519761.83,Multifamily Housing,51.58,309480,63500,6,61219,12856,42150,112
7005,SHORE ROAD,11209,985334.03,Multifamily Housing,64.93,389580,90533,6,76269,16017,52512,140
7101,SHORE ROAD,11209,1123762.29,Multifamily Housing,36.94,240110,50783,7,42035,8827,28941,77
7119,SHORE ROAD,11209,207675.45,Multifamily Housing,63.23,379380,87091,6,73499,15435,50604,135
7259,SHORE ROAD,11209,1188820.7,Multifamily Housing,81.55,468913,117308,7,95792,20116,65953,176
7401,SHORE ROAD,11209,593859.2,Multifamily Housing,63.72,382320,88083,6,74848,15718,51533,138
8701,SHORE ROAD,11209,3260284.12,Multifamily Housing,175.24,1007630,299125,8,207988,43678,143201,382
8801,SHORE ROAD,11209,1883276.83,Multifamily Housing,137.69,791718,226255,8,160051,33611,110196,294
8901,SHORE ROAD,11209,1707237.71,Multifamily Housing,5.09,38175,8715,8,5730,1203,3945,11
9000,SHORE ROAD,11209,5331571.16,Multifamily Housing,128.48,738760,208382,7,149346,31363,102825,274
9201,SHORE ROAD,11209,3124214.81,Multifamily Housing,212.35,1167925,353225,8,249435,52381,171737,458
9255,SHORE ROAD,11209,1047173.7,Multifamily Housing,184.45,1060588,316998,8,218919,45973,150727,402
9269,SHORE ROAD,11209,716127.57,Multifamily Housing,53.39,320340,67165,6,63367,13307,43629,116
9281,SHORE ROAD,11209,974134.55,Multifamily Housing,103.16,593170,159245,7,122438,25712,84299,225
9303,SHORE ROAD,11209,891284.83,Multifamily Housing,57.01,342060,74495,6,66966,14063,46107,123
9323,SHORE ROAD,11209,633696.73,Multifamily Housing,55.28,331680,70992,6,65611,13778,45173,121
9411,SHORE ROAD,11209,793157.08,Multifamily Housing,81.81,470408,117813,7,97098,20391,66853,178
9425,SHORE ROAD,11209,629948.87,Multifamily Housing,48.14,288840,58057,6,57136,11999,39339,105
9437,SHORE ROAD,11209,751732.22,Multifamily Housing,56.58,339480,73625,6,66461,13957,45759,122
9601,SHORE ROAD,11209,757067.41,Multifamily Housing,48.74,292440,58780,6,58445,12273,40239,107
9701,SHORE ROAD,11209,1689490.5,Multifamily Housing,80.51,462933,115290,7,94570,19860,65112,174
9801,SHORE ROAD,11209,1079647.79,Multifamily Housing,76.38,458280,113720,7,89719,18841,61772,165
135,AMERSFORT PLACE,11210,471414.45,Multifamily Housing,29.11,189215,40019,6,34194,7181,23543,63
3210,AVENUE H,11210,218698.56,Office,60.36,362160,81279,6,70163,14734,48307,129
3215,AVENUE H,11210,2686310.62,Multifamily Housing,92.24,530380,138053,7,107220,22516,73822,197
3220,AVENUE H,11210,331553.2,Multifamily Housing,55.8,334800,72045,6,64179,13478,44188,118
3413,AVENUE H,11210,4431.29,Office,38.84,252460,53395,6,46098,9681,31739,85
2901,AVENUE I,11210,523686.06,Multifamily Housing,36.17,235105,49725,6,42044,8829,28948,77
3021,AVENUE I,11210,870892.07,Multifamily Housing,85.68,492660,125323,7,100643,21135,69293,185
3101,AVENUE I,11210,242643807.9,Multifamily Housing,75.86,455160,112667,7,89108,18713,61351,164
3115,AVENUE I,11210,777371.98,Multifamily Housing,78.45,470700,117911,7,92151,19352,63446,169
3401,AVENUE J,11210,1043183.33,Multifamily Housing,41.42,248520,49953,6,48654,10217,33498,89
4200,AVENUE K,11210,1120565.59,Multifamily Housing,65.88,395280,92457,7,77385,16251,53280,142
4211,AVENUE K,11210,1288623.97,Multifamily Housing,42.15,252900,50833,6,47964,10072,33023,88
2005,AVENUE L,11210,456533.25,Multifamily Housing,45.94,275640,55404,6,53963,11332,37154,99
2607,AVENUE O,11210,720779.32,Multifamily Housing,37.2,241800,51141,7,42331,8890,29145,78
3620,BEDFORD AVENUE,11210,615662.91,Multifamily Housing,46.41,278460,55970,6,55083,11567,37925,101
1402,BROOKLYN AVENUE,11210,5239550.21,Multifamily Housing,194.96,1121020,337394,8,226622,47591,156031,416
1405,BROOKLYN AVENUE,11210,1709728.93,Multifamily Housing,67.77,406620,96284,7,78776,16543,54238,145
645,EAST 26 STREET,11210,783456.74,Multifamily Housing,55.37,332220,71174,6,63685,13374,43847,117
657,EAST 26 STREET,11210,985554.5,Multifamily Housing,95.5,549125,144380,7,113347,23803,78040,208
712,EAST 27 STREET,11210,1228966.88,Multifamily Housing,40.3,241800,48602,6,46845,9837,32253,86
616,EAST 29 STREET,11210,509796.93,Multifamily Housing,25.14,163410,34561,7,28915,6072,19908,53
909,EAST 29 STREET,11210,751247.2,Multifamily Housing,40.64,243840,49012,6,47240,9920,32525,87
745,EAST 31 STREET,11210,1075988.12,Multifamily Housing,55.11,330660,70648,6,64734,13594,44570,119
777,EAST 31 STREET,11210,1426545.16,Multifamily Housing,79.14,474840,119309,7,92961,19522,64004,171
850,EAST 31 STREET,11210,1364903.91,Multifamily Housing,50.12,300720,60543,6,58873,12363,40534,108
1149,EAST 35 STREET,11210,915910.47,Multifamily Housing,57.95,347700,76399,6,69489,14593,47843,128
1655,FLATBUSH AVENUE,11210,8967831.62,Multifamily Housing,138.38,795685,227594,7,162547,34135,111914,299
2720,FOSTER AVENUE,11210,618220.28,Multifamily Housing,28.89,187785,39717,7,32875,6904,22635,60
3101,FOSTER AVENUE,11210,2317168.6,Multifamily Housing,80.86,464945,115969,7,93992,19738,64714,173
3202,FOSTER AVENUE,11210,4654046.54,Multifamily Housing,162.66,935295,274712,8,189077,39706,130180,347
2420,GLENWOOD ROAD,11210,612400.07,Multifamily Housing,48.66,291960,58684,6,55967,11753,38534,103
2515,GLENWOOD ROAD,11210,168146.57,Multifamily Housing,40.64,243840,49012,6,47737,10025,32867,88
2601,GLENWOOD ROAD,11210,376703.87,Multifamily Housing,68.54,411240,97844,7,80510,16907,55431,148
3111,GLENWOOD ROAD,11210,847258.52,Multifamily Housing,48.66,291960,58684,6,58349,12253,40173,107
50,KENILWORTH PLACE,11210,1315454.22,Multifamily Housing,42.02,252120,50676,6,49358,10365,33983,91
120,KENILWORTH PLACE,11210,1132294.18,Multifamily Housing,49.6,297600,59818,6,57655,12108,39696,106
1368,NEW YORK AVENUE,11210,6150478.23,Multifamily Housing,239.65,1318075,403900,8,278570,58500,191797,512
1401,NEW YORK AVENUE,11210,4945916.52,Multifamily Housing,196.59,1130393,340558,8,228517,47989,157335,420
2047,NOSTRAND AVENUE,11210,512949.54,Multifamily Housing,37.2,241800,51141,6,44152,9272,30399,81
2400,NOSTRAND AVENUE,11210,1606817.15,Multifamily Housing,96.53,555048,146379,7,114569,24060,78881,210
2425,NOSTRAND AVENUE,11210,2364413.67,Multifamily Housing,124.86,717945,201356,7,148193,31121,102032,272
2501,NOSTRAND AVENUE,11210,1222044.36,Multifamily Housing,83.1,477825,120316,7,98629,20712,67907,181
2525,NOSTRAND AVENUE,11210,930857.81,Multifamily Housing,78.88,473280,118782,7,92656,19458,63794,170
20,BAYARD STREET,11211,884516.64,Multifamily Housing,8.64,64800,14794,8,9832,2065,6769,18
50,BAYARD STREET,11211,632219.63,Multifamily Housing,11.84,82880,18275,7,13618,2860,9376,25
138,BROADWAY,11211,569674.49,Multifamily Housing,33.39,217035,45903,6,39221,8236,27004,72
75,BUSHWICK AVENUE,11211,1730628.76,Multifamily Housing,36.94,240110,50783,7,42487,8922,29253,78
916,GRAND STREET,11211,157211.64,Self-Storage,2.07,17595,4243,13,2128,447,1465,4
61,HARRISON AVENUE,11211,846354.62,Multifamily Housing,56.75,340500,73969,6,65272,13707,44940,120
227,MARCY AVENUE,11211,650077.07,K-12 School,115.13,661998,182474,7,133828,28104,92141,246
318,MARCY AVENUE,11211,631315.73,Multifamily Housing,39.18,254670,53863,6,46502,9765,32017,85
94,MASPETH AVENUE,11211,1104185.24,Multifamily Housing,29.84,193960,41023,7,33956,7131,23379,62
1101,METROPOLITAN AVENUE,11211,1147770.63,Warehouse (Refrigerated),500.91,2755005,900890,19,619034,60000,426208,1137
270,MORGAN AVENUE,11211,88052.63,Multifamily Housing,287.84,1583120,493353,8,334586,70263,230364,615
193,NORTH 9 STREET,11211,999730.22,Other,100.29,576668,153675,7,119032,24997,81954,219
143,ROEBLING STREET,11211,93608.28,Other,91.62,526815,136850,7,107621,22600,74097,198
185,SOUTH 4 STREET,11211,569233.56,Multifamily Housing,15.75,110250,24310,7,18308,3845,12605,34
156,SOUTH 9 STREET,11211,738438.35,Multifamily Housing,41.16,246960,49639,6,48852,10259,33635,90
166,SOUTH 9 STREET,11211,561098.5,Multifamily Housing,28.33,184145,38947,6,33278,6988,22912,61
330,UNION AVENUE,11211,628802.46,Multifamily Housing,44,264000,53064,6,51146,10741,35214,94
350,BRISTOL STREET,11212,754818.69,Multifamily Housing,70.96,425760,102744,7,85089,17869,58584,156
355,CHESTER STREET,11212,1087187.6,Multifamily Housing,159.84,919080,269240,8,185799,39018,127923,341
376,CHESTER STREET,11212,1840264.64,Multifamily Housing,161.8,930350,273043,8,186097,39080,128129,342
1027,CLARKSON AVENUE,11212,1160094.47,Multifamily Housing,80.28,461610,114843,6,96265,20216,66279,177
100,EAST 92 STREET,11212,938904.68,Multifamily Housing,48.74,292440,58780,6,57252,12023,39418,105
333,EAST 93 STREET,11212,1307032.57,Multifamily Housing,93.86,539695,141197,7,112549,23635,77490,207
425,EAST 96 STREET,11212,908458.84,Multifamily Housing,87.74,504505,129320,7,105210,22094,72438,193
577,EAST 96 STREET,11212,835199.23,Multifamily Housing,53.13,318780,66638,6,62409,13106,42969,115
1064,EAST NEW YORK AVENUE,11212,593771.01,Multifamily Housing,52.44,314640,65241,6,61598,12936,42411,113
1355,EAST NEW YORK AVENUE,11212,792561.83,Multifamily Housing,39.96,259740,54935,6,46939,9857,32317,86
187,HEGEMAN AVENUE,11212,5418499.43,Multifamily Housing,247.83,1363065,419084,8,285046,59860,196256,524
530,HERZL STREET,11212,542226.93,Multifamily Housing,49.77,298620,60023,6,56026,11765,38574,103
663,HOWARD AVENUE,11212,1285802.05,Multifamily Housing,76.29,457740,113537,7,91480,19211,62985,168
1,JUNIUS STREET,11212,4085165.71,Multifamily Housing,84.56,486220,123149,7,98293,20642,67675,181
73,JUNIUS STREET,11212,2412562.63,Residence Hall/Dormitory,72.59,435540,106045,7,82603,17347,56872,152
9201,KINGS HIGHWAY,11212,853343.28,Multifamily Housing,41.59,249540,50158,6,48344,10152,33285,89
9302,KINGS HIGHWAY,11212,628361.54,Multifamily Housing,44,264000,53064,6,52223,10967,35955,96
1087,LENOX ROAD,11212,1152290.1,Multifamily Housing,65.53,393180,91748,7,76172,15996,52445,140
1371,LINDEN BOULEVARD,11212,3090748.64,Multifamily Housing,95.07,546653,143545,7,111673,23451,76887,205
1407,LINDEN BOULEVARD,11212,4160365.39,Multifamily Housing,204.36,1123980,338393,8,240049,50410,165275,441
280,LIVONIA AVENUE,11212,5099997.6,Multifamily Housing,177.3,1019475,303123,8,206094,43280,141897,379
436,LIVONIA AVENUE,11212,1507476.86,Multifamily Housing,132.78,763485,216726,7,155969,32753,107385,287
165,LOTT AVENUE,11212,1267283.22,Multifamily Housing,207.56,1141580,344333,8,243808,51200,167863,448
369,MOTHER GASTON BLVD,11212,1961518.88,Multifamily Housing,46.5,279000,56079,6,54052,11351,37215,99
373,MOTHER GASTON BLVD,11212,8528957.39,Multifamily Housing,252.74,1390070,428199,8,290694,61046,200144,534
167,RIVERDALE AVENUE,11212,909208.41,Multifamily Housing,41.59,249540,50158,6,48344,10152,33285,89
170,RIVERDALE AVENUE,11212,682529.12,Multifamily Housing,97.99,563443,149212,7,117501,24675,80900,216
619,ROCKAWAY AVENUE,11212,7830433.74,Multifamily Housing,362.87,1995785,632627,8,426242,89511,293470,783
774,ROCKAWAY AVENUE,11212,480387.27,Multifamily Housing,1.12,9520,2296,9,1343,282,925,2
165,ROCKAWAY PARKWAY,11212,352430.97,Multifamily Housing,50.2,301200,60705,6,59581,12512,41022,109
178,ROCKAWAY PARKWAY,11212,1960262.25,Multifamily Housing,39.27,255255,53986,6,45648,9586,31429,84
181,ROCKAWAY PARKWAY,11212,341143.3,Multifamily Housing,44.18,265080,53281,6,51896,10898,35730,95
196,ROCKAWAY PARKWAY,11212,584776.15,Multifamily Housing,43.14,258840,52027,6,50674,10642,34889,93
205,ROCKAWAY PARKWAY,11212,797147.45,K-12 School,37.06,240890,50948,6,43532,9142,29972,80
214,ROCKAWAY PARKWAY,11212,549876.97,Multifamily Housing,40.73,244380,49120,6,47843,10047,32940,88
275,ROCKAWAY PARKWAY,11212,697432.37,Multifamily Housing,46.53,279180,56115,6,53517,11239,36847,98
450,ROCKAWAY PARKWAY,11212,1051649.08,Multifamily Housing,66.31,397860,93328,6,79513,16698,54745,146
950,RUTLAND ROAD,11212,1806467.77,Multifamily Housing,132.09,759518,215387,7,158391,33262,109053,291
465,THATFORD AVENUE,11212,1635146.55,Multifamily Housing,221.06,1215830,369393,8,259666,54530,178781,477
463,WATKINS STREET,11212,1687021.32,Multifamily Housing,117.93,678098,187908,7,137082,28787,94382,252
1115,WILLMOHR STREET,11212,628868.6,Multifamily Housing,41.76,250560,50363,6,49564,10408,34125,91
440,ALBANY AVENUE,11213,847897.86,Multifamily Housing,39.87,259155,54811,6,46833,9835,32245,86
1730,CARROLL STREET,11213,899309.66,Multifamily Housing,77.59,465540,116170,7,92090,19339,63404,169
565,CROWN STREET,11213,659182.16,Multifamily Housing,81.89,470868,117968,7,97193,20411,66918,179
580,CROWN STREET,11213,1044462.01,Multifamily Housing,93.26,536245,140033,7,108406,22765,74638,199
712,CROWN STREET,11213,898824.64,Multifamily Housing,102.04,586730,157071,7,122357,25695,84244,225
826,CROWN STREET,11213,821155.79,Multifamily Housing,41.76,250560,50363,6,49053,10301,33773,90
706,EASTERN PARKWAY,11213,348991.76,Multifamily Housing,60.27,361620,81097,6,70796,14867,48743,130
866,EASTERN PARKWAY,11213,387572.66,Multifamily Housing,21.19,137735,29131,7,23854,5009,16423,44
961,EASTERN PARKWAY,11213,1037296.99,Multifamily Housing,48.83,292980,58889,6,57358,12045,39491,105
1196,EASTERN PARKWAY,11213,69225.15,Multifamily Housing,57.26,343560,75002,6,67961,14272,46791,125
1245,EASTERN PARKWAY,11213,769148.74,Multifamily Housing,58.99,353940,78505,6,70736,14854,48702,130
675,EMPIRE BOULEVARD,11213,771154.95,Multifamily Housing,52.53,315180,65423,6,61704,12958,42483,113
701,EMPIRE BOULEVARD,11213,924288.03,Multifamily Housing,39.44,256360,54220,7,44880,9425,30900,82
740,EMPIRE BOULEVARD,11213,1034364.84,Multifamily Housing,55.71,334260,71863,6,64758,13599,44586,119
770,EMPIRE BOULEVARD,11213,891042.32,Multifamily Housing,61.31,367860,83203,6,71267,14966,49068,131
853,EMPIRE BOULEVARD,11213,44489.28,Multifamily Housing,83.61,480758,121306,7,98212,20624,67619,180
889,EMPIRE BOULEVARD,11213,542932.41,Multifamily Housing,47.62,285720,57430,6,55936,11747,38512,103
1660,FULTON STREET,11213,1990465.58,Multifamily Housing,166.37,956628,281912,8,197461,41467,135953,363
400,HERKIMER STREET,11213,1636667.74,Multifamily Housing,112.55,647163,177468,7,133583,28052,91972,245
230,KINGSTON AVENUE,11213,1570396.78,Multifamily Housing,73.54,441240,107969,7,87283,18329,60095,160
243,KINGSTON AVENUE,11213,826843.71,Multifamily Housing,38.84,252460,53395,7,44673,9381,30757,82
1010,LINCOLN PLACE,11213,1609264.28,Multifamily Housing,23.68,153920,32554,6,28685,6024,19750,53
760,MONTGOMERY STREET,11213,604022.51,Multifamily Housing,42.02,252120,50676,6,50387,10581,34691,93
874,MONTGOMERY STREET,11213,1036194.68,Multifamily Housing,94.38,542685,142206,7,113172,23766,77920,208
899,MONTGOMERY STREET,11213,848537.2,Multifamily Housing,75.52,453120,111978,7,87785,18435,60440,161
921,MONTGOMERY STREET,11213,433539.04,Multifamily Housing,69.66,417960,100112,7,82678,17362,56924,152
947,MONTGOMERY STREET,11213,936435.5,Multifamily Housing,73.02,438120,106916,7,85772,18012,59055,158
1004,MONTGOMERY STREET,11213,975280.95,Multifamily Housing,69.27,415620,99322,7,81367,17087,56022,149
1024,MONTGOMERY STREET,11213,726224.74,Multifamily Housing,95.93,551598,145214,7,113857,23910,78391,209
1049,MONTGOMERY STREET,11213,721749.35,Multifamily Housing,38.75,251875,53272,6,45991,9658,31665,84
363,NEW YORK AVENUE,11213,705964.26,Multifamily Housing,43.4,260400,52340,6,52572,11040,36196,97
913,PARK PLACE,11213,827703.52,Multifamily Housing,77.33,463980,115643,7,92727,19473,63843,170
1030,PARK PLACE,11213,637378.45,Multifamily Housing,40.64,243840,49012,6,48732,10234,33552,90
1745,PRESIDENT STREET,11213,731604.02,Multifamily Housing,43.4,260400,52340,6,52041,10929,35831,96
925,PROSPECT PLACE,11213,971841.74,Multifamily Housing,58.3,349800,77108,6,68482,14381,47150,126
401,SCHENECTADY AVENUE,11213,837381.81,Multifamily Housing,43.92,263520,52968,6,52128,10947,35890,96
1025,ST JOHN'S PLACE,11213,541014.39,Multifamily Housing,45.64,273840,55042,6,53052,11141,36527,97
1045,ST JOHN'S PLACE,11213,2874034.23,Multifamily Housing,42.45,254700,51195,6,49344,10362,33974,91
1062,ST JOHN'S PLACE,11213,206462.91,Warehouse (Unrefrigerated),55.89,335340,72227,6,66335,13930,45672,122
769,ST MARK'S AVENUE,11213,1844916.39,Multifamily Housing,109.45,629338,171452,7,125886,26436,86673,231
780,ST MARK'S AVENUE,11213,752790.44,Multifamily Housing,110.05,632788,172616,7,134655,28278,92711,247
800,ST MARK'S AVENUE,11213,1474142.96,Senior Care Facility,150.87,867503,251832,8,175372,36828,120744,322
805,ST MARK'S AVENUE,11213,2392787.16,Multifamily Housing,43.23,259380,52135,6,50251,10553,34598,92
959,ST MARK'S AVENUE,11213,454659.32,Multifamily Housing,66.31,397860,93328,7,77890,16357,53628,143
960,STERLING PLACE,11213,339886.67,Multifamily Housing,64.84,389040,90351,7,75370,15828,51893,138
1752,UNION STREET,11213,575141.95,Multifamily Housing,39.61,257465,54454,6,47012,9873,32368,86
1776,UNION STREET,11213,450338.26,Multifamily Housing,57.09,342540,74657,6,68457,14376,47133,126
8023,19 AVENUE,11214,872236.89,Multifamily Housing,37.89,246285,52089,6,44971,9444,30963,83
8201,19 AVENUE,11214,628471.77,Multifamily Housing,35.13,228345,48295,6,41265,8666,28411,76
8800,20 AVENUE,11214,1137166.39,Multifamily Housing,44.09,264540,53173,6,51790,10876,35658,95
8831,20 AVENUE,11214,2612962.82,Multifamily Housing,235.51,1295305,396215,8,279521,58699,192452,514
8635,21 AVENUE,11214,1041529.86,Multifamily Housing,79.31,475860,119653,7,92190,19360,63473,169
8700,25 AVENUE,11214,1344533.2,Multifamily Housing,113.41,652108,179136,7,135991,28558,93631,250
8797,25 AVENUE,11214,813968.72,Multifamily Housing,37.77,245505,51924,7,42980,9026,29592,79
2160,78 STREET,11214,638590.99,Multifamily Housing,12.06,84420,18615,8,13281,2789,9144,24
1855,82 STREET,11214,207631.36,Multifamily Housing,52.22,313320,64796,6,61340,12881,42233,113
2121,82 STREET,11214,536494.91,Multifamily Housing,34.1,221650,46879,6,40055,8412,27578,74
2155,82 STREET,11214,996445.33,Multifamily Housing,53.82,322920,68036,6,61902,12999,42620,114
1869,83 STREET,11214,774087.09,Multifamily Housing,88.09,506518,130000,7,104552,21956,71985,192
1935,83 STREET,11214,540551.42,Multifamily Housing,37.29,242385,51264,6,43802,9198,30158,80
2250,83 STREET,11214,921752.72,Multifamily Housing,57.44,344640,75366,6,65363,13726,45003,120
2000,84 STREET,11214,1113422.61,Multifamily Housing,43.06,258360,51930,6,50053,10511,34462,92
2160,84 STREET,11214,522164.87,Multifamily Housing,37.29,242385,51264,6,43802,9198,30158,80
2263,84 STREET,11214,578294.56,Multifamily Housing,30.83,200395,42384,7,35460,7447,24414,65
1864,85 STREET,11214,849948.16,Multifamily Housing,50.12,300720,60543,6,58873,12363,40534,108
8847,BAY 16 STREET,11214,2261876.67,Multifamily Housing,187.21,1076458,322355,8,210742,44256,145097,387
65,BAY 19 STREET,11214,812866.41,Multifamily Housing,52.87,317220,66112,6,62750,13178,43204,115
38,BAY 26 STREET,11214,691501.93,Multifamily Housing,31.14,202410,42810,7,35435,7441,24397,65
30,BAY 29 STREET,11214,1024311.76,Multifamily Housing,75.09,450540,111107,7,89123,18716,61361,164
69,BAY 29 STREET,11214,1039700.03,Multifamily Housing,38.06,247390,52323,6,44707,9388,30781,82
275,BAY 37 STREET,11214,1075216.5,Multifamily Housing,58.04,348240,76581,6,66756,14019,45962,123
268,BAY 38 STREET,11214,1643413.89,Multifamily Housing,106.26,610995,165261,7,124817,26212,85937,229
7701,BAY PARKWAY,11214,574105.78,Multifamily Housing,40.47,242820,48807,6,47538,9983,32730,87
7705,BAY PARKWAY,11214,786984.14,Multifamily Housing,47.88,287280,57743,6,56828,11934,39126,104
8100,BAY PARKWAY,11214,1925649.67,Multifamily Housing,51.49,308940,63317,6,59222,12437,40775,109
8301,BAY PARKWAY,11214,912691.72,Multifamily Housing,77.5,465000,115988,7,89138,18719,61372,164
8313,BAY PARKWAY,11214,713900.9,Multifamily Housing,52.36,314160,65079,6,61504,12916,42346,113
8645,BAY PARKWAY,11214,998980.65,Multifamily Housing,66.91,401460,94543,7,75320,15817,51858,138
8646,BAY PARKWAY,11214,532879.33,Multifamily Housing,30.74,199810,42260,7,35356,7425,24343,65
8721,BAY PARKWAY,11214,691854.67,Multifamily Housing,39.7,258050,54578,7,45662,9589,31438,84
8735,BAY PARKWAY,11214,1014831.88,Multifamily Housing,56.83,340980,74131,6,67450,14165,46440,124
8814,BAY PARKWAY,11214,709976.67,Multifamily Housing,42.45,254700,51195,6,49344,10362,33974,91
8855,BAY PARKWAY,11214,1563694.73,Multifamily Housing,64.76,388560,90189,7,74485,15642,51283,137
2126,BENSON AVENUE,11214,738438.35,Multifamily Housing,62,372000,84600,6,72828,15294,50142,134
2225,BENSON AVENUE,11214,724681.5,Multifamily Housing,41.08,246480,49542,6,48254,10133,33223,89
2250,BENSON AVENUE,11214,761829.39,Multifamily Housing,61.48,368880,83547,6,72969,15324,50240,134
2255,BENSON AVENUE,11214,702988.01,Multifamily Housing,45.55,273300,54933,6,54062,11353,37222,99
2064,CROPSEY AVENUE,11214,3101110.36,Multifamily Housing,224.92,1237060,376558,8,266952,56060,183798,490
2230,CROPSEY AVENUE,11214,3628456.09,Senior Care Facility,31.95,207675,43923,7,35184,7389,24224,65
2340,CROPSEY AVENUE,11214,3343773.17,Senior Care Facility,51.98,311880,64310,6,57878,12154,39849,106
2400,CROPSEY AVENUE,11214,164729.4,Self-Storage,127.88,735310,207217,7,158037,33188,108809,290
2424,CROPSEY AVENUE,11214,1687021.32,Multifamily Housing,41.59,249540,50158,6,44782,9404,30833,82
2629,CROPSEY AVENUE,11214,552698.89,Multifamily Housing,51.58,309480,63500,6,61850,12989,42584,114
2630,CROPSEY AVENUE,11214,4504529.03,Multifamily Housing,127.1,730825,205703,7,150852,31679,103862,277
2650,CROPSEY AVENUE,11214,3053446.42,Multifamily Housing,59.5,357000,79538,6,69891,14677,48120,128
2740,CROPSEY AVENUE,11214,5433182.22,Multifamily Housing,114.87,660503,181970,7,136336,28631,93868,250
2970,CROPSEY AVENUE,11214,2223692.61,Retail,1022.92,5114600,1850627,25+,1239112,60000,853135,2276
1429,SHORE PARKWAY,11214,2435843.44,Multifamily Housing,173.17,995728,295108,8,205531,43162,141509,378
1483,SHORE PARKWAY,11214,3523317.64,Multifamily Housing,239.3,1316150,403251,8,284019,59644,195549,522
1608,SHORE PARKWAY,11214,1843615.67,Retail,1309.06,6545300,2426483,8,1585727,333003,1091781,2913
2475,WEST 16 STREET,11214,2679983.35,Multifamily Housing,121.33,697648,194506,7,145488,30553,100169,267
1,12 ST EXTENSION,11215,3364298.21,Other,391.72,2154460,686180,15,445751,60000,306902,819
420,12 STREET,11215,671483.96,Multifamily Housing,136.57,785278,224081,7,160421,33688,110450,295
438,12 STREET,11215,514117.99,Multifamily Housing,18.23,127610,28138,7,21414,4497,14743,39
444,12 STREET,11215,655147.7,Multifamily Housing,52.33,313980,65018,6,58267,12236,40117,107
58,2 AVENUE,11215,1183705.98,Warehouse (Unrefrigerated),2046.52,10232600,3910622,25+,2428966,60000,1672355,4462
259,21 STREET,11215,526618.21,Multifamily Housing,50.81,304860,61940,6,59062,12403,40664,109
312,3 AVENUE,11215,123767.51,Self-Storage,133.13,765498,217406,7,159638,33524,109911,293
343,4 AVENUE,11215,2468273.44,Multifamily Housing,52.45,314700,65261,6,60968,12803,41977,112
501,6 STREET,11215,1331768.43,Medical Office,37.65,244725,51759,7,43304,9094,29815,80
269,7 AVENUE,11215,36520433.5,Hospital (General Medical and Surgical),205.89,1132395,341233,8,234289,49201,161309,430
168,7 STREET,11215,547495.98,Other,136.06,782345,223091,7,161486,33912,111184,297
90,8 AVENUE,11215,411889.64,Multifamily Housing,22.73,147745,31248,7,25865,5432,17808,48
140,8 AVENUE,11215,782222.15,Multifamily Housing,68.8,412800,98370,7,79973,16794,55062,147
1601,8 AVENUE,11215,1690901.46,Multifamily Housing,105.66,607545,164096,7,125405,26335,86342,230
124,9 STREET,11215,815754.46,Other,90.68,521410,135026,7,97640,20504,67226,179
288,9 STREET,11215,2740434.1,Multifamily Housing,117.11,673383,186317,8,131830,27684,90766,242
357,9 STREET,11215,1276829.24,Residence Hall/Dormitory,33.39,217035,45903,7,38404,8065,26441,71
530,PRESIDENT STREET,11215,397383.23,Other,246.75,1357125,417080,8,292862,61501,201637,538
263,PROSPECT AVENUE,11215,677877.36,Social/Meeting,112.01,644058,176420,7,132942,27918,91531,244
1,PROSPECT PARK SW,11215,644763.93,Multifamily Housing,60.03,360180,80611,6,69779,14654,48043,128
1,PROSPECT PARK WEST,11215,2161059.28,Senior Care Facility,48.66,291960,58684,6,55372,11628,38124,102
9,PROSPECT PARK WEST,11215,1571521.14,Multifamily Housing,14.21,99470,21933,7,16344,3432,11253,30
40,PROSPECT PARK WEST,11215,965712.89,Multifamily Housing,51.75,310500,63844,6,60154,12632,41417,111
44,PROSPECT PARK WEST,11215,172688.09,Multifamily Housing,44.69,268140,53896,6,52495,11024,36143,96
97,BROOKLYN AVENUE,11216,917233.24,Multifamily Housing,61.91,371460,84418,6,72722,15272,50069,134
1320,FULTON STREET,11216,621681.53,Multifamily Housing,38.15,247975,52447,6,44346,9313,30532,81
372,GATES AVENUE,11216,3014204.14,Multifamily Housing,110,632500,172519,7,123827,26004,85255,227
550,GREENE AVENUE,11216,1704812.63,Multifamily Housing,79.48,476880,119997,7,93360,19606,64279,172
572,GREENE AVENUE,11216,982798.72,Multifamily Housing,49.94,299640,60228,6,58050,12191,39968,107
254,HERKIMER STREET,11216,1059519.58,Multifamily Housing,148.8,855600,247815,8,172966,36323,119088,318
210,KOSCIUSZKO STREET,11216,1584087.49,Multifamily Housing,89.99,517443,133687,7,107908,22661,74295,198
110,NEW YORK AVENUE,11216,1287168.92,Multifamily Housing,55.46,332760,71357,6,64467,13538,44386,118
300,PUTNAM AVENUE,11216,712357.66,Multifamily Housing,37.37,242905,51374,6,43439,9122,29908,80
130,ROGERS AVENUE,11216,743090.1,Multifamily Housing,48.05,288300,57948,6,58205,12223,40075,107
720,ST MARK'S AVENUE,11216,294758.04,Multifamily Housing,84.07,483403,122199,7,96695,20306,66575,178
770,ST MARK'S AVENUE,11216,430893.49,Multifamily Housing,77.59,465540,116170,7,93039,19538,64058,171
796,STERLING PLACE,11216,438014.42,Multifamily Housing,31.09,202085,42741,6,36139,7589,24882,66
30,3 AVENUE,11217,1735346.65,Multifamily Housing,38.23,248495,52557,7,43971,9234,30274,81
131,3 AVENUE,11217,2916451.17,Multifamily Housing,179.97,1034828,308304,8,211400,44394,145550,388
26,7 AVENUE,11217,2006272.72,Other,1.21,10285,2480,12,1377,289,948,3
230,ASHLAND PLACE,11217,3046634.14,Multifamily Housing,15.98,111860,24665,7,17989,3778,12385,33
423,ATLANTIC AVENUE,11217,1015206.67,Multifamily Housing,76.38,458280,113720,7,87850,18448,60485,161
625,ATLANTIC AVENUE,11217,8330673.63,Retail,832.44,4578420,1634814,25+,947261,60000,652194,1740
728,ATLANTIC AVENUE,11217,174275.42,Self-Storage,62.09,372540,84782,6,72933,15316,50215,134
491,BERGEN STREET,11217,500140.69,Warehouse (Unrefrigerated),68.11,408660,96973,7,79171,16626,54510,145
117,DE KALB AVENUE,11217,11833245.77,Hospital (General Medical and Surgical),241.71,1329405,407724,8,269135,56518,185301,494
155,DEAN STREET,11217,2899277.16,Senior Care Facility,113.06,650095,178457,7,132805,27889,91437,244
37,FLATBUSH AVENUE,11217,304480.43,Self-Storage,112.96,649520,178263,7,128541,26994,88501,236
38,FLATBUSH AVENUE,11217,5449253.91,Office,144.75,832313,239956,8,168258,35334,115846,309
139,FLATBUSH AVENUE,11217,19673412.92,Office,383.54,2109470,670996,15,427057,60000,294031,785
1,HANSON PLACE,11217,4595557.9,Multifamily Housing,13.62,95340,21022,8,15165,3185,10441,28
67,HANSON PLACE,11217,624084.57,Multifamily Housing,3.91,31280,7355,9,4497,944,3096,8
93,LAFAYETTE AVENUE,11217,580940.11,Multifamily Housing,9.83,73725,16831,8,10825,2273,7453,20
101,LAFAYETTE AVENUE,11217,1574629.66,Multifamily Housing,26.4,171600,36293,7,30364,6377,20906,56
209,LINCOLN PLACE,11217,619300.54,Multifamily Housing,16.69,116830,25761,7,19196,4031,13217,35
700,PACIFIC STREET,11217,2580598.96,Multifamily Housing,187.2,1076400,322335,8,210730,44253,145089,387
145,PARK PLACE,11217,409552.74,Multifamily Housing,30.31,197015,41669,7,34120,7165,23492,63
25,PLAZA ST WEST,11217,701929.8,Multifamily Housing,59.44,356640,79416,6,67639,14204,46570,124
39,PLAZA ST WEST,11217,491013.55,Multifamily Housing,6.04,45300,10342,8,6725,1412,4630,12
47,PLAZA ST WEST,11217,861368.1,Multifamily Housing,11.02,77140,17009,7,12810,2690,8820,24
173,SOUTH ELLIOTT PLACE,11217,3510596.97,Multifamily Housing,89.73,515948,133182,7,105400,22134,72569,194
556,STATE STREET,11217,1079846.21,Multifamily Housing,26.69,173485,36692,7,30698,6447,21136,56
560,STATE STREET,11217,561010.32,Multifamily Housing,78.19,469140,117385,7,88018,18484,60601,162
3611,14 AVENUE,11218,4267620.28,Other,363.56,1999580,633908,8,431501,90615,297090,793
1365,38 STREET,11218,502609.86,Warehouse (Unrefrigerated),109.4,629050,171354,7,128506,26986,88477,236
102,ALBEMARLE ROAD,11218,549744.7,Multifamily Housing,34.1,221650,46879,6,40055,8412,27578,74
114,ALBEMARLE ROAD,11218,650495.95,Multifamily Housing,35.91,233415,49367,6,41742,8766,28740,77
414,ALBEMARLE ROAD,11218,451418.53,Multifamily Housing,26.01,169065,35757,6,30871,6483,21255,57
415,ALBEMARLE ROAD,11218,781141.89,Multifamily Housing,41.08,246480,49542,6,48254,10133,33223,89
385,ARGYLE ROAD,11218,1268451.67,Multifamily Housing,34.79,226135,47828,6,40440,8492,27843,74
400,ARGYLE ROAD,11218,1486687.26,Multifamily Housing,106.95,614963,166600,7,125628,26382,86495,231
415,ARGYLE ROAD,11218,295639.89,Multifamily Housing,103.25,593688,159420,7,122545,25734,84373,225
615,AVENUE C,11218,1093250.31,Senior Care Facility,43.34,260040,52268,6,51439,10802,35416,94
420,AVENUE F,11218,1223036.44,Multifamily Housing,38.84,252460,53395,7,44673,9381,30757,82
302,BEVERLY ROAD,11218,876271.35,Multifamily Housing,59.24,355440,79011,6,69586,14613,47910,128
303,BEVERLY ROAD,11218,2439481.07,Multifamily Housing,71.56,429360,103959,7,84933,17836,58477,156
415,BEVERLY ROAD,11218,1199733.58,Multifamily Housing,90.85,522388,135356,7,107828,22644,74240,198
707,BEVERLY ROAD,11218,235078.91,Multifamily Housing,37.8,245700,51966,6,45326,9519,31207,83
441,CATON AVENUE,11218,1527583.01,Multifamily Housing,78.62,471720,118256,7,91388,19192,62921,168
800,CORTELYOU ROAD,11218,1153238.09,Multifamily Housing,62.69,376140,85997,6,72871,15303,50172,134
811,CORTELYOU ROAD,11218,1258332.45,Multifamily Housing,102.64,590180,158236,7,119309,25055,82145,219
36,DAHILL ROAD,11218,699019.69,Multifamily Housing,61.45,368700,83486,6,71430,15000,49180,131
70,DAHILL ROAD,11218,841151.71,Multifamily Housing,90.22,518765,134133,7,104872,22023,72205,193
1002,DITMAS AVENUE,11218,341077.17,Multifamily Housing,58.49,350940,77492,6,67989,14278,46811,125
170,EAST 4 STREET,11218,674548.38,Multifamily Housing,67.77,406620,96284,7,79605,16717,54809,146
82,EAST 7 STREET,11218,801711.02,Multifamily Housing,58.3,349800,77108,6,69195,14531,47641,127
217,EAST 7 STREET,11218,457106.45,Multifamily Housing,102.99,592193,158915,7,120976,25405,83293,222
465,EAST 7 STREET,11218,4070813.62,Multifamily Housing,81.2,466900,116629,7,96374,20239,66354,177
495,EAST 7 STREET,11218,698093.75,Multifamily Housing,51.41,308460,63155,6,61017,12814,42011,112
515,EAST 7 STREET,11218,322999.26,Multifamily Housing,103.08,592710,159090,7,122343,25692,84234,225
599,EAST 7 STREET,11218,454527.05,Multifamily Housing,89.3,513475,132348,7,105988,22257,72973,195
70,EAST 8 STREET,11218,389159.98,Multifamily Housing,47.62,285720,57430,6,57102,11991,39315,105
214,EAST 8 STREET,11218,730788.31,Multifamily Housing,57.78,346680,76055,6,68578,14401,47216,126
430,EAST 8 STREET,11218,928168.17,Multifamily Housing,67.08,402480,94887,6,81257,17064,55946,149
499,EAST 8 STREET,11218,722829.62,Multifamily Housing,54.59,327540,69595,6,64124,13466,44149,118
425,EAST 9 STREET,11218,1983080.09,K-12 School,53.13,318780,66638,6,63709,13379,43864,117
800,GREENWOOD AVENUE,11218,686629.71,Multifamily Housing,59.85,359100,80246,6,71035,14917,48908,130
829,GREENWOOD AVENUE,11218,922546.38,Multifamily Housing,67.86,407160,96467,6,82202,17262,56597,151
2,HINCKLEY PLACE,11218,203773.27,Multifamily Housing,41.51,249060,50061,6,49267,10346,33921,91
221,MC DONALD AVENUE,11218,1413956.76,Multifamily Housing,121.33,697648,194506,7,142519,29929,98125,262
10,OCEAN PARKWAY,11218,790291.07,Multifamily Housing,93.52,537740,140537,7,108708,22829,74846,200
31,OCEAN PARKWAY,11218,1551172.48,Multifamily Housing,72.76,436560,106389,7,82796,17387,57005,152
71,OCEAN PARKWAY,11218,938706.27,Multifamily Housing,65.53,393180,91748,6,76974,16165,52997,141
100,OCEAN PARKWAY,11218,1929044.79,Multifamily Housing,93.69,538718,140867,7,108906,22870,74982,200
101,OCEAN PARKWAY,11218,734183.42,Multifamily Housing,62.78,376680,86180,6,74512,15648,51302,137
120,OCEAN PARKWAY,11218,540815.97,Multifamily Housing,40.56,243360,48915,6,48140,10109,33144,88
125,OCEAN PARKWAY,11218,939257.42,Multifamily Housing,69.41,416460,99605,7,77285,16230,53211,142
135,OCEAN PARKWAY,11218,3862410.65,Multifamily Housing,134.33,772398,219734,7,157789,33136,108639,290
160,OCEAN PARKWAY,11218,738217.88,Multifamily Housing,26.95,175175,37050,7,30667,6440,21115,56
178,OCEAN PARKWAY,11218,262724.88,Multifamily Housing,46.24,277440,55765,6,53184,11169,36617,98
205,OCEAN PARKWAY,11218,574326.24,Multifamily Housing,37.2,241800,51141,6,43241,9081,29772,79
225,OCEAN PARKWAY,11218,578779.58,Multifamily Housing,47.71,286260,57538,6,56626,11891,38987,104
240,OCEAN PARKWAY,11218,658035.76,Multifamily Housing,30.91,200915,42494,7,35552,7466,24478,65
250,OCEAN PARKWAY,11218,790687.9,Multifamily Housing,43.14,258840,52027,6,50674,10642,34889,93
260,OCEAN PARKWAY,11218,1100084.64,Multifamily Housing,55.11,330660,70648,6,64734,13594,44570,119
269,OCEAN PARKWAY,11218,388674.97,Multifamily Housing,29.62,192530,40720,6,34430,7230,23706,63
279,OCEAN PARKWAY,11218,949134.13,Multifamily Housing,64.33,385980,89318,7,74777,15703,51485,137
280,OCEAN PARKWAY,11218,1159697.64,Multifamily Housing,82.58,474835,119307,7,95991,20158,66091,176
300,OCEAN PARKWAY,11218,1018160.86,Multifamily Housing,66.99,401940,94705,7,78689,16525,54178,145
305,OCEAN PARKWAY,11218,610305.68,Multifamily Housing,37.63,244595,51732,6,44202,9282,30433,81
315,OCEAN PARKWAY,11218,799682.76,Multifamily Housing,62.6,375600,85815,6,73532,15442,50627,135
320,OCEAN PARKWAY,11218,906298.31,Multifamily Housing,34.62,225030,47594,6,40666,8540,27999,75
330,OCEAN PARKWAY,11218,609004.95,Multifamily Housing,29.28,190320,40253,7,33677,7072,23187,62
340,OCEAN PARKWAY,11218,804753.39,Multifamily Housing,71.56,429360,103959,7,83182,17468,57271,153
370,OCEAN PARKWAY,11218,1810127.45,Multifamily Housing,97.68,561660,148610,7,111153,23342,76530,204
387,OCEAN PARKWAY,11218,660064.01,Multifamily Housing,36.25,235625,49835,6,42137,8849,29012,77
399,OCEAN PARKWAY,11218,890425.03,Multifamily Housing,49.6,297600,59818,6,58262,12235,40114,107
415,OCEAN PARKWAY,11218,648599.97,Multifamily Housing,34.96,227240,48061,7,39782,8354,27390,73
430,OCEAN PARKWAY,11218,1042610.13,Multifamily Housing,61.23,367380,83041,6,71174,14947,49004,131
435,OCEAN PARKWAY,11218,676400.27,Multifamily Housing,42.54,255240,51303,6,47887,10056,32971,88
438,OCEAN PARKWAY,11218,458892.2,Multifamily Housing,38.32,249080,52680,6,44543,9354,30668,82
450,OCEAN PARKWAY,11218,765312.7,Multifamily Housing,52.44,314640,65241,6,62240,13070,42852,114
455,OCEAN PARKWAY,11218,731030.81,Multifamily Housing,9.83,73725,16831,8,11186,2349,7702,21
465,OCEAN PARKWAY,11218,276173.08,Multifamily Housing,62.26,373560,85127,6,71609,15038,49303,132
470,OCEAN PARKWAY,11218,151589.85,Multifamily Housing,36.08,234520,49601,7,41057,8622,28268,75
514,OCEAN PARKWAY,11218,810926.34,Multifamily Housing,48.39,290340,58358,6,57433,12061,39543,106
525,OCEAN PARKWAY,11218,843863.4,Multifamily Housing,50.2,301200,60705,6,59581,12512,41022,109
540,OCEAN PARKWAY,11218,1509174.41,Multifamily Housing,93.17,535728,139858,7,109441,22983,75351,201
545,OCEAN PARKWAY,11218,1792666.84,Multifamily Housing,61.74,370440,84074,6,72522,15230,49932,133
602,OCEAN PARKWAY,11218,1126584.21,Multifamily Housing,41.25,247500,49748,6,47949,10069,33013,88
135,PROSPECT PARK SW,11218,619587.14,Multifamily Housing,103.16,593170,159245,7,121176,25447,83430,223
180,PROSPECT PARK SW,11218,541719.87,Multifamily Housing,42.97,257820,51822,6,50474,10600,34752,93
166,SEELEY STREET,11218,680589.05,Multifamily Housing,35.13,228345,48295,7,40405,8485,27819,74
10,STRATFORD ROAD,11218,358493.68,Multifamily Housing,27.56,179140,37888,7,31361,6586,21592,58
415,STRATFORD ROAD,11218,1057557.47,Multifamily Housing,56.4,338400,73260,6,65560,13768,45138,120
470,STRATFORD ROAD,11218,716590.54,Multifamily Housing,40.64,243840,49012,6,46743,9816,32183,86
40,TEHAMA STREET,11218,894393.35,Multifamily Housing,41.85,251100,50471,6,49159,10323,33846,90
39,TURNER PLACE,11218,817341.79,Multifamily Housing,37.77,245505,51924,6,43904,9220,30228,81
60,TURNER PLACE,11218,1353726.47,Multifamily Housing,70.7,424200,102218,7,82182,17258,56583,151
651,VANDERBILT STREET,11218,488412.1,Multifamily Housing,134.33,772398,219734,7,159433,33481,109770,293
50,WESTMINSTER ROAD,11218,47950.54,Multifamily Housing,37.8,245700,51966,6,44401,9324,30571,82
405,WESTMINSTER ROAD,11218,1683163.23,Multifamily Housing,119.95,689713,191828,7,142366,29897,98020,262
4723,10 AVENUE,11219,5162256.14,Other,208.39,1146145,345874,8,242233,50869,166779,445
4801,10 AVENUE,11219,22060379.88,Hospital (General Medical and Surgical),170.59,980893,290101,8,202469,42519,139401,372
4915,10 AVENUE,11219,7185636.74,Hospital (General Medical and Surgical),103.25,593688,159420,7,120018,25204,82633,220
4802,10 AVENUE,11219,3592344.37,Office,108.41,623358,169433,7,122037,25628,84023,224
4520,12 AVENUE,11219,566103,Multifamily Housing,32.03,208195,44033,6,37624,7901,25904,69
4611,12 AVENUE,11219,736718.74,Multifamily Housing,43.74,262440,52750,6,50844,10677,35006,93
4711,12 AVENUE,11219,692075.13,Multifamily Housing,49.86,299160,60131,6,58568,12299,40324,108
4600,14 AVENUE,11219,497054.22,Multifamily Housing,40.04,240240,48288,6,47523,9980,32719,87
4800,14 AVENUE,11219,155249.52,Multifamily Housing,40.64,243840,49012,6,48235,10129,33210,89
4812,14 AVENUE,11219,999090.88,Multifamily Housing,49.34,296040,59504,6,57957,12171,39904,106
5000,14 AVENUE,11219,534444.62,K-12 School,41.32,247920,49832,6,46008,9662,31677,85
5001,14 AVENUE,11219,738835.18,Multifamily Housing,39.35,255775,54096,6,46222,9707,31824,85
5301,14 AVENUE,11219,1206810.42,K-12 School,90.42,519915,134521,7,103998,21840,71603,191
5502,14 AVENUE,11219,645667.83,Multifamily Housing,72.59,435540,106045,7,86155,18093,59318,158
5601,14 AVENUE,11219,646924.46,Multifamily Housing,43.66,261960,52654,6,51285,10770,35310,94
4701,15 AVENUE,11219,673820.86,Multifamily Housing,52.01,312060,64370,6,61729,12963,42501,113
4910,15 AVENUE,11219,277914.73,Multifamily Housing,73.97,443820,108839,7,86888,18247,59823,160
5000,15 AVENUE,11219,285234.07,Multifamily Housing,57.09,342540,74657,6,67060,14083,46171,123
5001,15 AVENUE,11219,825895.73,Multifamily Housing,37.54,244010,51608,6,44096,9260,30360,81
5100,15 AVENUE,11219,959804.5,Multifamily Housing,86.71,498583,127322,7,102914,21612,70857,189
5201,15 AVENUE,11219,883700.93,Multifamily Housing,56.83,340980,74131,6,67450,14165,46440,124
5501,15 AVENUE,11219,670844.62,Multifamily Housing,36.94,240110,50783,6,43391,9112,29875,80
5512,15 AVENUE,11219,617073.87,Multifamily Housing,39.7,258050,54578,6,46633,9793,32107,86
5619,15 AVENUE,11219,512244.07,Multifamily Housing,39.18,254670,53863,6,46981,9866,32347,86
5624,15 AVENUE,11219,603493.4,Multifamily Housing,33.76,219440,46412,7,38830,8154,26734,71
5715,15 AVENUE,11219,724461.04,Multifamily Housing,46.93,281580,56598,6,55700,11697,38350,102
6201,15 AVENUE,11219,1960813.4,Office,190.05,1092788,327866,8,225566,47369,155303,414
970,41 STREET,11219,705148.55,Multifamily Housing,38.66,251290,53148,6,46831,9834,32243,86
920,48 STREET,11219,4670470.97,Medical Office,18.77,131390,28971,8,20900,4389,14390,38
1347,48 STREET,11219,606623.96,Multifamily Housing,33.24,216060,45697,6,39045,8199,26883,72
1360,48 STREET,11219,559731.64,Multifamily Housing,44.69,268140,53896,6,53588,11254,36896,98
1442,48 STREET,11219,152515.79,Multifamily Housing,33.93,220545,46645,6,39856,8370,27441,73
1521,48 STREET,11219,786256.61,Education,77.5,465000,115988,7,88190,18520,60719,162
926,49 STREET,11219,1130177.74,Multifamily Housing,31.69,205985,43566,6,37224,7817,25629,68
984,49 STREET,11219,1145808.51,Multifamily Housing,48.31,289860,58262,6,56747,11917,39070,104
1455,49 STREET,11219,20458.9,Multifamily Housing,33.67,218855,46288,6,39550,8306,27230,73
1528,49 STREET,11219,1047460.3,Multifamily Housing,41.25,247500,49748,6,47949,10069,33013,88
1042,50 STREET,11219,504946.76,Multifamily Housing,29.45,191425,40486,6,34233,7189,23569,63
1329,50 STREET,11219,648247.24,Multifamily Housing,36.6,237900,50316,6,42992,9028,29600,79
1037,51 STREET,11219,499523.39,Multifamily Housing,23.33,151645,32073,7,26263,5515,18082,48
1320,51 STREET,11219,828607.41,Multifamily Housing,60.03,360180,80611,6,69045,14499,47538,127
1347,51 STREET,11219,1158066.22,Multifamily Housing,40.04,240240,48288,6,47033,9877,32382,86
1364,51 STREET,11219,1399516.49,Multifamily Housing,46.84,281040,56489,6,55593,11675,38276,102
1425,51 STREET,11219,341650.37,Multifamily Housing,33.41,217165,45930,6,39245,8241,27020,72
1451,52 STREET,11219,489029.39,Multifamily Housing,50.29,301740,60887,6,59073,12405,40672,109
920,53 STREET,11219,778364.06,Multifamily Housing,45.64,273840,55042,6,54169,11375,37296,100
1440,54 STREET,11219,638128.02,Multifamily Housing,55.37,332220,71174,6,65717,13801,45247,121
1462,62 STREET,11219,137281.85,Multifamily Housing,170.59,980893,290101,8,204556,42957,140838,376
4112,FT HAMILTON PARKWAY,11219,614847.2,Multifamily Housing,34.57,224705,47525,7,39761,8350,27376,73
5301,1 AVENUE,11220,68387.39,Warehouse (Unrefrigerated),330.58,1818190,572689,13,388313,60000,267355,713
5706,1 AVENUE,11220,835838.57,Warehouse (Unrefrigerated),318.15,1749825,549616,8,377605,79297,259983,694
5605,2 AVENUE,11220,804114.05,Multifamily Housing,35.65,231725,49010,6,42312,8886,29132,78
5801,2 AVENUE,11220,1313602.34,Warehouse (Unrefrigerated),858.1,4719550,1691619,25+,1028958,60000,708443,1890
6301,2 AVENUE,11220,205647.2,Self-Storage,90.07,517903,133842,7,101392,21292,69809,186
4502,4 AVENUE,11220,1151187.79,Multifamily Housing,99.1,569825,151366,7,115194,24191,79312,212
405,44 STREET,11220,736277.82,Multifamily Housing,36.94,240110,50783,6,43391,9112,29875,80
702,44 STREET,11220,425448.07,Multifamily Housing,38.41,249665,52804,6,45588,9573,31388,84
201,46 STREET,11220,8311.43,Warehouse (Unrefrigerated),77.5,465000,115988,7,91983,19316,63331,169
864,49 STREET,11220,1113775.35,Multifamily Housing,50.55,303300,61414,6,59378,12469,40882,109
701,64 STREET,11220,1603488.17,Office,213.81,1175955,355935,7,258998,54390,178322,476
260,65 STREET,11220,4825015.02,Multifamily Housing,337.13,1854215,584848,13,371256,60000,255612,682
350,65 STREET,11220,4324543.64,Multifamily Housing,287.01,1578555,491812,9,319574,60000,220029,587
880,68 STREET,11220,627523.78,Multifamily Housing,53.48,320880,67347,6,64129,13467,44153,118
6300,8 AVENUE,11220,1898069.84,Hospital (General Medical and Surgical),139.76,803620,230272,7,164168,34475,113030,302
4600,9 AVENUE,11220,1742886.46,Multifamily Housing,61.21,367260,83000,6,70402,14784,48472,129
5313,9 AVENUE,11220,935575.7,Multifamily Housing,65.19,391140,91060,6,78968,16583,54370,145
877,BAY RIDGE AVENUE,11220,577544.99,Multifamily Housing,47.62,285720,57430,6,56519,11869,38914,104
6665,COLONIAL ROAD,11220,484443.77,Multifamily Housing,31.78,206570,43690,6,37330,7839,25702,69
6701,COLONIAL ROAD,11220,638943.73,Multifamily Housing,47.02,282120,56706,6,56382,11840,38819,104
6623,RIDGE BOULEVARD,11220,916571.85,Multifamily Housing,73.41,440460,107705,7,86230,18108,59370,158
6735,RIDGE BOULEVARD,11220,1265828.17,Multifamily Housing,70.7,424200,102218,7,83047,17440,57178,153
6802,RIDGE BOULEVARD,11220,635923.39,Multifamily Housing,52.44,314640,65241,6,61598,12936,42411,113
6801,SHORE ROAD,11220,920474.04,Multifamily Housing,83.18,478285,120471,7,98724,20732,67972,181
1338,BROADWAY,11221,101170.13,House of Worship,128.7,740025,208808,7,154326,32408,106254,284
761,BUSHWICK AVENUE,11221,1060114.83,Multifamily Housing,41.8,250800,50411,6,47566,9989,32749,87
1041,BUSHWICK AVENUE,11221,612157.56,Multifamily Housing,32.81,213265,45106,6,38540,8093,26535,71
229,EVERGREEN AVENUE,11221,2517789.26,Senior Care Facility,42.86,257160,51689,6,48772,10242,33580,90
588,GATES AVENUE,11221,2171939.09,Multifamily Housing,93.89,539868,141255,7,107989,22678,74351,198
969,GATES AVENUE,11221,2376098.17,Multifamily Housing,96.19,553093,145719,7,116520,24469,80224,214
1103,GATES AVENUE,11221,866637.15,Multifamily Housing,69.92,419520,100638,7,82986,17427,57137,152
1255,GATES AVENUE,11221,832002.53,Multifamily Housing,51.32,307920,62973,6,60910,12791,41937,112
1349,GATES AVENUE,11221,565838.44,Multifamily Housing,45.04,270240,54318,6,53457,11226,36805,98
43,GOODWIN PLACE,11221,593528.5,Multifamily Housing,56.49,338940,73442,6,69811,14660,48066,128
146,MALCOLM X BOULEVARD,11221,1387964.26,Multifamily Housing,75.61,453660,112160,7,89740,18845,61786,165
281,MARCUS GARVEY BLVD,11221,2171939.09,Multifamily Housing,143.98,827885,238461,8,167363,35146,115230,307
510,QUINCY STREET,11221,2287097.55,Multifamily Housing,240.83,1324565,406091,8,285835,60025,196799,525
625,QUINCY STREET,11221,690487.8,Multifamily Housing,63.46,380760,87557,6,77649,16306,53461,143
383,THROOP AVENUE,11221,736366,Multifamily Housing,94.98,546135,143371,7,111567,23429,76815,205
349,WILSON AVENUE,11221,3528145.76,Multifamily Housing,190.91,1097733,329535,8,228922,48074,157614,421
100,APOLLO STREET,11222,827527.15,Warehouse (Unrefrigerated),655.74,3606570,1243644,25,818400,60000,563472,1503
49,ASH STREET,11222,103507.03,Warehouse (Unrefrigerated),329.2,1810600,570128,13,394748,60000,271786,725
42,BRIDGEWATER STREET,11222,628824.51,Warehouse (Unrefrigerated),460.09,2530495,813092,17,557329,60000,383724,1024
44,BRIDGEWATER STREET,11222,589339.72,Warehouse (Unrefrigerated),652.9,3590950,1237357,25,814855,60000,561032,1497
80,DUPONT STREET,11222,664627.58,Multifamily Housing,72.94,437640,106754,7,87463,18367,60219,161
180,FRANKLIN STREET,11222,913286.97,Multifamily Housing,29.62,192530,40720,7,33343,7002,22957,61
230,FRANKLIN STREET,11222,573532.57,Multifamily Housing,343.84,1891120,597303,13,408095,60000,280976,750
110,GREEN STREET,11222,1761493.47,Multifamily Housing,76.9,461400,114773,7,90330,18969,62193,166
37,GREENPOINT AVENUE,11222,760550.71,Other,44.09,264540,53173,6,51250,10763,35286,94
61,GREENPOINT AVENUE,11222,881055.38,Other,137.09,788268,225090,8,155999,32760,107406,287
236,GREENPOINT AVENUE,11222,1458688.56,Warehouse (Unrefrigerated),641.01,3525555,1211036,8,760799,159768,523814,1398
425,GREENPOINT AVENUE,11222,99252.11,Warehouse (Unrefrigerated),109.05,627038,170675,8,120089,25219,82682,221
415,LEONARD STREET,11222,692626.29,Multifamily Housing,23.09,150085,31743,7,26557,5577,18285,49
927,MEEKER AVENUE,11222,2963145.08,Warehouse (Unrefrigerated),1548.11,7740550,2907571,25+,1894242,60000,1304195,3480
488,MORGAN AVENUE,11222,1286904.36,Other,48.9,293400,58973,6,55645,11685,38312,102
231,NORMAN AVENUE,11222,483760.34,Office,48.65,291900,58672,6,57146,12001,39345,105
295,NORMAN AVENUE,11222,82386.75,Office,363.05,1996775,632962,14,439780,60000,302791,808
306,NORTH HENRY STREET,11222,90565.9,Warehouse (Unrefrigerated),286.84,1577620,491497,9,350973,60000,241646,645
367,AVENUE S,11223,1178370.79,Multifamily Housing,80,480000,121050,7,92992,19528,64026,171
388,AVENUE S,11223,585459.58,Multifamily Housing,31.43,204295,43208,6,36534,7672,25154,67
225,AVENUE T,11223,1760677.76,Multifamily Housing,54.08,324480,68562,6,63525,13340,43737,117
602,AVENUE T,11223,833479.63,Multifamily Housing,61.23,367380,83041,6,73422,15419,50551,135
380,AVENUE U,11223,626906.49,Multifamily Housing,29.13,189345,40046,7,31722,6662,21841,58
735,AVENUE W,11223,949751.42,Multifamily Housing,66.48,398880,93672,7,77277,16228,53205,142
388,AVENUE X,11223,816305.62,Multifamily Housing,52.53,315180,65423,6,61704,12958,42483,113
444,AVENUE X,11223,1409040.46,Multifamily Housing,36.08,234520,49601,7,41498,8715,28572,76
557,AVENUE Z,11223,1301939.89,Multifamily Housing,84.73,487198,123479,7,102637,21554,70666,189
621,AVENUE Z,11223,434663.4,Multifamily Housing,38.32,249080,52680,6,45481,9551,31314,84
675,AVENUE Z,11223,405981.26,Multifamily Housing,38.66,251290,53148,6,46358,9735,31917,85
2361,CONEY ISLAND AVENUE,11223,245330.41,Multifamily Housing,57.52,345120,75528,6,65454,13745,45065,120
2375,EAST 3 STREET,11223,1409040.46,Multifamily Housing,75.86,455160,112667,7,89108,18713,61351,164
2400,EAST 3 STREET,11223,1770510.38,Multifamily Housing,115.65,664988,183483,7,137262,28825,94506,252
2411,EAST 3 STREET,11223,1409040.46,Multifamily Housing,46.5,279000,56079,6,55190,11590,37998,101
2250,EAST 4 STREET,11223,1289064.89,Multifamily Housing,94.29,542168,142032,7,113064,23743,77845,208
1890,EAST 5 STREET,11223,1165076.92,Multifamily Housing,70.09,420540,100982,7,83188,17470,57275,153
2001,EAST 9 STREET,11223,675033.4,Multifamily Housing,45.38,272280,54728,6,53305,11194,36701,98
815,GRAVESEND NECK ROAD,11223,1219464.96,Multifamily Housing,82.67,475353,119482,7,94073,19755,64770,173
9,MURDOCK COURT,11223,1266687.97,Multifamily Housing,118.14,679305,188315,7,140218,29446,96540,258
9,NIXON COURT,11223,419627.87,Multifamily Housing,76.04,456240,113031,7,89320,18757,61497,164
1628,OCEAN PARKWAY,11223,1309788.34,Multifamily Housing,88.61,509508,131009,7,105169,22086,72409,193
1648,OCEAN PARKWAY,11223,902197.71,Multifamily Housing,59.24,355440,79011,6,69586,14613,47910,128
1750,OCEAN PARKWAY,11223,967123.85,Multifamily Housing,57.95,347700,76399,6,68779,14444,47355,126
1755,OCEAN PARKWAY,11223,1208022.96,Multifamily Housing,65.27,391620,91222,6,76669,16100,52787,141
1777,OCEAN PARKWAY,11223,790864.27,Multifamily Housing,47.71,286260,57538,6,56042,11769,38585,103
1800,OCEAN PARKWAY,11223,1355005.15,Multifamily Housing,56.23,337380,72916,6,66050,13871,45476,121
1802,OCEAN PARKWAY,11223,1098563.45,Multifamily Housing,75.18,451080,111290,7,89229,18738,61435,164
1811,OCEAN PARKWAY,11223,994505.26,Multifamily Housing,57.69,346140,75872,6,67059,14082,46171,123
1850,OCEAN PARKWAY,11223,731890.62,Multifamily Housing,52.53,315180,65423,6,61061,12823,42041,112
1860,OCEAN PARKWAY,11223,549810.84,Multifamily Housing,41.76,250560,50363,6,48542,10194,33421,89
1901,OCEAN PARKWAY,11223,2032529.78,Other,79.21,475260,119450,7,92074,19336,63393,169
2245,OCEAN PARKWAY,11223,736476.23,Multifamily Housing,52.81,316860,65990,6,59448,12484,40930,109
2265,OCEAN PARKWAY,11223,226480.88,Multifamily Housing,47.71,286260,57538,6,54875,11524,37781,101
2310,OCEAN PARKWAY,11223,618639.15,Multifamily Housing,45.47,272820,54837,6,52298,10983,36008,96
2373,OCEAN PARKWAY,11223,696682.79,Multifamily Housing,46.76,280560,56393,6,54926,11534,37817,101
206,QUENTIN ROAD,11223,477785.81,Multifamily Housing,23.77,154505,32678,7,27340,5741,18823,50
254,QUENTIN ROAD,11223,464712.4,Office,32.46,210990,44624,6,38129,8007,26252,70
2775,SHORE PARKWAY,11223,869018.14,Multifamily Housing,82.15,472363,118473,7,97502,20475,67131,179
1650,WEST 10 STREET,11223,674790.89,Multifamily Housing,28.16,183040,38713,6,32733,6874,22537,60
1684,WEST 10 STREET,11223,816481.99,Multifamily Housing,36.51,237315,50192,6,42886,9006,29527,79
2525,WEST 2 STREET,11223,2032331.36,Multifamily Housing,145.61,837258,241625,8,169258,35544,116535,311
2611,WEST 2 STREET,11223,810573.6,Multifamily Housing,77.24,463440,115461,7,92619,19450,63769,170
2612,WEST 2 STREET,11223,1754262.31,Multifamily Housing,174.03,1000673,296777,8,206552,43376,142212,379
2661,WEST 2 STREET,11223,838638.44,Multifamily Housing,77.5,465000,115988,7,91983,19316,63331,169
1780,WEST 3 STREET,11223,994086.39,Multifamily Housing,50.46,302760,61232,6,59890,12577,41234,110
1776,WEST 6 STREET,11223,593241.9,Multifamily Housing,26.26,170690,36101,6,30846,6478,21238,57
2612,WEST STREET,11223,1716982.14,Multifamily Housing,163.01,937308,275391,8,193473,40629,133207,355
23,WHITNEY PLACE,11223,778937.26,Multifamily Housing,99.98,574885,153074,7,112547,23635,77489,207
2301,BOARDWALK WEST,11224,1844012.5,Senior Care Facility,103.16,593170,159245,7,121176,25447,83430,223
3528,MERMAID AVENUE,11224,2991981.54,Multifamily Housing,47.62,285720,57430,6,55354,11624,38111,102
440,NEPTUNE AVENUE,11224,1909357.51,Residence Hall/Dormitory,166.45,957088,282067,7,201629,42342,138822,370
486,NEPTUNE AVENUE,11224,1472202.89,Retail,396.8,2182400,695610,15,432111,60000,297511,794
3521,NEPTUNE AVENUE,11224,6350371.36,Multifamily Housing,169.55,974913,288083,8,188787,39645,129981,347
3601,NEPTUNE AVENUE,11224,4535856.72,Multifamily Housing,164.73,947198,278729,8,183420,38518,126286,337
2955,SHELL ROAD,11224,1368232.89,Multifamily Housing,89.73,515948,133182,7,105400,22134,72569,194
501,SURF AVENUE,11224,10724430.83,Multifamily Housing,216.14,1188770,360260,7,261821,54982,180265,481
3601,SURF AVENUE,11224,2057464.06,Multifamily Housing,45.29,271740,54620,6,53199,11172,36628,98
2885,WEST 12 STREET,11224,23059316.43,Multifamily Housing,452.51,2488805,799022,8,548147,115111,377402,1007
2920,WEST 21 STREET,11224,3025998.87,Multifamily Housing,100.92,580290,154898,7,114840,24116,79068,211
2950,WEST 24 STREET,11224,3763048.3,Multifamily Housing,77.07,462420,115117,7,88643,18615,61031,163
2828,WEST 28 STREET,11224,1375882.93,Multifamily Housing,46.41,278460,55970,6,54515,11448,37534,100
2914,WEST 28 STREET,11224,2287847.12,Multifamily Housing,67.77,406620,96284,7,77118,16195,53096,142
3020,WEST 28 STREET,11224,872457.36,Multifamily Housing,21.1,137150,29007,7,23494,4934,16176,43
2730,WEST 33 STREET,11224,2859197.12,Multifamily Housing,310.52,1707860,535453,8,360950,75799,248516,663
2659,WEST 36 STREET,11224,1306481.41,Multifamily Housing,87.49,503068,128835,7,100628,21132,69283,185
2915,WEST 5 STREET,11224,1733869.55,Residence Hall/Dormitory,138.73,797698,228273,7,169748,35647,116872,312
2928,WEST 5 STREET,11224,7448956.86,Multifamily Housing,157.5,905625,264698,7,190787,40065,131358,350
2940,WEST 5 STREET,11224,7566485.29,Multifamily Housing,146.65,843238,243643,7,174055,36552,119838,320
1720,BEDFORD AVENUE,11225,19825421.65,Multifamily Housing,233.1,1282050,391742,8,268104,56302,184591,493
2100,BEEKMAN PLACE,11225,970408.74,Multifamily Housing,40.47,242820,48807,6,44071,9255,30343,81
440,BROOKLYN AVENUE,11225,652810.8,Multifamily Housing,47.01,282060,56694,6,54069,11355,37227,99
456,BROOKLYN AVENUE,11225,646880.37,Multifamily Housing,39.78,258570,54688,6,46240,9710,31837,85
474,BROOKLYN AVENUE,11225,530145.6,Multifamily Housing,38.41,249665,52804,6,45588,9573,31388,84
916,CARROLL STREET,11225,706339.04,Multifamily Housing,39.35,255775,54096,6,46222,9707,31824,85
926,CARROLL STREET,11225,699548.8,Multifamily Housing,37.29,242385,51264,6,43346,9103,29844,80
991,CARROLL STREET,11225,956960.54,Multifamily Housing,52.96,317760,66294,6,60913,12792,41939,112
859,CLASSON AVENUE,11225,1212013.33,K-12 School,208.15,1144825,345428,8,241954,50810,166587,444
12,CROWN STREET,11225,1219685.42,Multifamily Housing,72.85,437100,106571,7,86464,18157,59531,159
15,CROWN STREET,11225,597629.1,Multifamily Housing,35.82,232830,49244,7,41199,8652,28366,76
27,CROWN STREET,11225,701775.47,Multifamily Housing,34.27,222755,47113,7,38158,8013,26272,70
49,CROWN STREET,11225,5497954.03,Multifamily Housing,47.45,284700,57225,6,53414,11217,36776,98
132,CROWN STREET,11225,1564289.98,Multifamily Housing,93.69,538718,140867,7,110052,23111,75771,202
201,CROWN STREET,11225,568814.68,Multifamily Housing,47.02,282120,56706,6,56382,11840,38819,104
240,CROWN STREET,11225,1445725.38,Multifamily Housing,167.14,961055,283406,8,198374,41659,136582,364
250,CROWN STREET,11225,1778226.56,Multifamily Housing,133.21,765958,217561,7,156474,32860,107733,287
272,CROWN STREET,11225,571151.58,Multifamily Housing,59.59,357540,79720,6,70726,14852,48695,130
282,CROWN STREET,11225,52073.19,Multifamily Housing,67.25,403500,95231,7,78172,16416,53822,144
284,EASTERN PARKWAY,11225,764320.62,Multifamily Housing,59.33,355980,79193,6,71143,14940,48983,131
320,EASTERN PARKWAY,11225,854666.05,Multifamily Housing,44.35,266100,53486,6,53181,11168,36615,98
410,EASTERN PARKWAY,11225,875014.72,Multifamily Housing,30.83,200395,42384,6,36214,7605,24934,67
426,EASTERN PARKWAY,11225,671285.54,Multifamily Housing,52.7,316200,65768,6,63193,13271,43509,116
436,EASTERN PARKWAY,11225,798690.68,Multifamily Housing,47.02,282120,56706,6,55807,11719,38423,103
576,EASTERN PARKWAY,11225,413939.94,Multifamily Housing,45.55,273300,54933,6,55734,11704,38373,102
270,EMPIRE BOULEVARD,11225,207873.87,Multifamily Housing,49,294000,59094,6,58157,12213,40041,107
289,EMPIRE BOULEVARD,11225,1052442.75,Multifamily Housing,54.68,328080,69777,6,64898,13629,44683,119
290,EMPIRE BOULEVARD,11225,203442.58,Multifamily Housing,48.65,291900,58672,6,57146,12001,39345,105
320,EMPIRE BOULEVARD,11225,720514.76,Multifamily Housing,53.82,322920,68036,6,63878,13414,43980,117
580,EMPIRE BOULEVARD,11225,571504.32,Multifamily Housing,47.79,286740,57635,6,56721,11911,39053,104
130,FENIMORE STREET,11225,834471.71,Multifamily Housing,58.56,351360,77634,6,68787,14445,47360,126
479,FLATBUSH AVENUE,11225,637422.54,Retail,207.87,1143285,344909,8,236542,49674,162860,435
552,FLATBUSH AVENUE,11225,593109.62,Multifamily Housing,42.37,254220,51098,6,49770,10452,34267,91
580,FLATBUSH AVENUE,11225,2526210.92,Multifamily Housing,92,529000,137588,7,109193,22930,75180,201
590,FLATBUSH AVENUE,11225,3434383.16,Multifamily Housing,128.35,738013,208129,7,152336,31990,104884,280
620,FLATBUSH AVENUE,11225,608453.8,Multifamily Housing,34.62,225030,47594,6,41090,8629,28290,75
125,HAWTHORNE STREET,11225,752569.98,Multifamily Housing,56.83,340980,74131,6,67450,14165,46440,124
135,HAWTHORNE STREET,11225,694742.73,Multifamily Housing,49.34,296040,59504,6,57957,12171,39904,106
150,HAWTHORNE STREET,11225,827637.38,Multifamily Housing,64.15,384900,88954,6,74568,15659,51341,137
170,HAWTHORNE STREET,11225,1091310.24,Multifamily Housing,64.93,389580,90533,7,75475,15850,51965,139
175,HAWTHORNE STREET,11225,1335053.32,Multifamily Housing,81.11,466383,116454,7,96268,20216,66281,177
181,HAWTHORNE STREET,11225,413873.8,Multifamily Housing,47.6,285600,57406,6,55330,11619,38095,102
265,HAWTHORNE STREET,11225,659733.32,Multifamily Housing,43.49,260940,52449,6,51085,10728,35172,94
271,HAWTHORNE STREET,11225,965316.06,Multifamily Housing,69.58,417480,99950,6,84286,17700,58031,155
451,KINGSTON AVENUE,11225,1161549.52,Multifamily Housing,118.66,682295,189325,7,140835,29575,96965,259
100,LEFFERTS AVENUE,11225,492292.23,Multifamily Housing,60.74,364440,82049,6,72091,15139,49635,132
350,LEFFERTS AVENUE,11225,888396.78,Multifamily Housing,46.59,279540,56188,6,54726,11493,37679,101
355,LEFFERTS AVENUE,11225,810309.04,Multifamily Housing,38.58,250770,53038,6,45318,9517,31201,83
415,LEFFERTS AVENUE,11225,821486.48,Multifamily Housing,63.89,383340,88427,6,75048,15760,51671,138
501,LEFFERTS AVENUE,11225,470973.53,Multifamily Housing,38.84,252460,53395,6,45148,9481,31084,83
532,LEFFERTS AVENUE,11225,674923.17,Multifamily Housing,49.94,299640,60228,6,59884,12576,41230,110
40,LINCOLN ROAD,11225,1020740.27,Multifamily Housing,64.24,385440,89136,6,76245,16011,52495,140
50,LINCOLN ROAD,11225,469694.85,Multifamily Housing,36.94,240110,50783,6,42939,9017,29564,79
57,LINCOLN ROAD,11225,604287.06,Multifamily Housing,41.16,246960,49639,6,48852,10259,33635,90
101,LINCOLN ROAD,11225,1011172.21,Multifamily Housing,69.92,419520,100638,7,82131,17247,56547,151
105,LINCOLN ROAD,11225,1041992.84,Multifamily Housing,26.61,172965,36582,7,30606,6427,21072,56
10,MIDWOOD STREET,11225,600406.92,Multifamily Housing,30.83,200395,42384,7,35460,7447,24414,65
11,MIDWOOD STREET,11225,421898.63,Multifamily Housing,30.14,195910,41435,7,34666,7280,23868,64
388,MIDWOOD STREET,11225,880195.58,Multifamily Housing,72.59,435540,106045,7,86155,18093,59318,158
345,MONTGOMERY STREET,11225,1188379.78,Multifamily Housing,74.83,448980,110581,7,86983,18266,59888,160
377,MONTGOMERY STREET,11225,1234368.2,Multifamily Housing,76.98,461880,114935,7,89482,18791,61609,164
501,NEW YORK AVENUE,11225,535591.02,Multifamily Housing,56.14,336840,72734,6,65257,13704,44930,120
75,OCEAN AVENUE,11225,1307583.72,Multifamily Housing,57.44,344640,75366,6,67471,14169,46454,124
115,OCEAN AVENUE,11225,1224337.17,Multifamily Housing,72.42,434520,105701,7,85954,18050,59179,158
125,OCEAN AVENUE,11225,323506.32,Multifamily Housing,48.91,293460,58985,6,56853,11939,39144,104
135,OCEAN AVENUE,11225,844127.95,Multifamily Housing,53.48,320880,67347,6,62165,13055,42801,114
231,OCEAN AVENUE,11225,634975.41,Multifamily Housing,56.06,336360,72572,6,65850,13829,45338,121
239,OCEAN AVENUE,11225,199253.79,Multifamily Housing,66.31,397860,93328,6,78702,16527,54187,145
305,OCEAN AVENUE,11225,810794.06,Multifamily Housing,53.04,318240,66456,6,60356,12675,41555,111
990,PRESIDENT STREET,11225,611760.73,Multifamily Housing,45.23,271380,54547,6,52022,10925,35817,96
1000,PRESIDENT STREET,11225,765444.97,Multifamily Housing,53.82,322920,68036,6,61244,12861,42166,113
1238,PRESIDENT STREET,11225,4404020.28,Multifamily Housing,162.66,935295,274712,8,189077,39706,130180,347
332,ROGERS AVENUE,11225,875940.66,Multifamily Housing,58.47,350820,77452,6,69397,14573,47780,127
307,STERLING STREET,11225,29409.67,Multifamily Housing,37.37,242905,51374,6,44354,9314,30538,81
320,STERLING STREET,11225,1679128.77,Multifamily Housing,70.01,420060,100820,7,82237,17270,56620,151
286,SULLIVAN PLACE,11225,968534.81,Multifamily Housing,41.59,249540,50158,6,49871,10473,34336,92
881,WASHINGTON AVENUE,11225,647982.68,Multifamily Housing,71.47,428820,103777,7,85701,17997,59005,157
921,WASHINGTON AVENUE,11225,841636.73,Multifamily Housing,60.28,361680,81117,6,70070,14715,48243,129
941,WASHINGTON AVENUE,11225,769545.57,Multifamily Housing,68.67,412020,98107,7,81503,17116,56115,150
1015,WASHINGTON AVENUE,11225,1112673.04,Multifamily Housing,85.77,493178,125498,7,101798,21378,70089,187
1035,WASHINGTON AVENUE,11225,1402823.42,Multifamily Housing,96.27,553553,145874,7,114261,23995,78669,210
1125,WASHINGTON AVENUE,11225,1352469.84,Office,112.12,644690,176633,7,133073,27945,91621,244
2100,WESTBURY COURT,11225,577126.11,Multifamily Housing,49.94,299640,60228,6,58662,12319,40389,108
2101,WESTBURY COURT,11225,668177.02,Multifamily Housing,37.89,246285,52089,6,44971,9444,30963,83
2110,WESTBURY COURT,11225,712710.4,Multifamily Housing,62.69,376140,85997,6,72871,15303,50172,134
2121,WESTBURY COURT,11225,1384062.08,Multifamily Housing,84.39,485243,122820,7,98095,20600,67539,180
55,WINTHROP STREET,11225,968667.09,Multifamily Housing,48.74,292440,58780,6,56656,11898,39008,104
80,WINTHROP STREET,11225,1445174.22,Multifamily Housing,85.08,489210,124158,7,100979,21206,69525,186
105,WINTHROP STREET,11225,822566.75,Multifamily Housing,66.39,398340,93490,7,77984,16377,53693,143
1700,ALBEMARLE ROAD,11226,949045.95,Multifamily Housing,66.13,396780,92963,6,78488,16483,54039,144
1701,ALBEMARLE ROAD,11226,1315035.35,Multifamily Housing,60.36,362160,81279,6,70163,14734,48307,129
1800,ALBEMARLE ROAD,11226,861654.7,Multifamily Housing,90.5,520375,134677,7,106305,22324,73191,195
1904,ALBEMARLE ROAD,11226,746463.17,Multifamily Housing,42.97,257820,51822,6,50474,10600,34752,93
1911,ALBEMARLE ROAD,11226,1141487.45,Multifamily Housing,43.14,258840,52027,6,49090,10309,33799,90
1916,ALBEMARLE ROAD,11226,1509990.12,Multifamily Housing,100.75,579313,154568,7,119578,25111,82330,220
2005,ALBEMARLE ROAD,11226,615420.4,Multifamily Housing,33.33,216645,45820,6,38743,8136,26675,71
2101,ALBEMARLE ROAD,11226,1099511.44,Multifamily Housing,75.78,454680,112505,7,88087,18498,60648,162
2114,ALBEMARLE ROAD,11226,341077.17,Multifamily Housing,33.84,219960,46522,6,39750,8347,27368,73
2207,ALBEMARLE ROAD,11226,231441.28,Warehouse (Unrefrigerated),182.3,1048225,312826,8,202984,42627,139755,373
2255,BEDFORD AVENUE,11226,601861.98,Multifamily Housing,29.36,190840,40363,7,33769,7091,23250,62
2360,BEDFORD AVENUE,11226,1808584.21,Retail,208.04,1144220,345224,8,241827,50784,166499,444
1601,BEVERLY ROAD,11226,391144.15,Multifamily Housing,84.13,483748,122315,7,99852,20969,68749,183
2102,BEVERLY ROAD,11226,892453.28,Multifamily Housing,30.91,200915,42494,6,35930,7545,24738,66
105,BUCKINGHAM ROAD,11226,633145.57,Multifamily Housing,52.27,313620,64897,6,62038,13028,42713,114
1600,CATON AVENUE,11226,661959.99,Multifamily Housing,61.48,368880,83547,6,72969,15324,50240,134
1745,CATON AVENUE,11226,605543.7,Multifamily Housing,39.09,254085,53739,6,46395,9743,31943,85
1829,CATON AVENUE,11226,977683.99,Multifamily Housing,84.3,484725,122645,7,95928,20145,66047,176
1834,CATON AVENUE,11226,1247375.48,Multifamily Housing,76.47,458820,113902,7,88889,18667,61201,163
2101,CHURCH AVENUE,11226,521547.57,Retail,125.15,719613,201919,7,150069,31514,103323,276
32,CLARKSON AVENUE,11226,318501.83,Multifamily Housing,74.49,446940,109892,7,87499,18375,60243,161
49,CLARKSON AVENUE,11226,415042.25,Multifamily Housing,45.9,275400,55355,6,53916,11322,37121,99
60,CLARKSON AVENUE,11226,249871.93,Multifamily Housing,57.95,347700,76399,6,68779,14444,47355,126
85,CLARKSON AVENUE,11226,1185778.32,Multifamily Housing,35.65,231725,49010,6,41876,8794,28832,77
135,CLARKSON AVENUE,11226,651223.48,Multifamily Housing,36.94,240110,50783,6,43843,9207,30186,81
140,CLARKSON AVENUE,11226,665531.48,Multifamily Housing,59.5,357000,79538,6,71347,14983,49123,131
176,CLARKSON AVENUE,11226,1154164.03,Multifamily Housing,70.53,423180,101873,7,82847,17398,57041,152
181,CLARKSON AVENUE,11226,515639.18,Multifamily Housing,36.77,239005,50550,6,43641,9165,30047,80
184,CLARKSON AVENUE,11226,201987.52,Multifamily Housing,53.04,318240,66456,6,62952,13220,43343,116
250,CLARKSON AVENUE,11226,428887.28,Multifamily Housing,78.88,473280,118782,7,93621,19660,64458,172
270,CLARKSON AVENUE,11226,436405.05,Multifamily Housing,74.49,446940,109892,7,86588,18183,59616,159
1710,CORTELYOU ROAD,11226,1607346.26,Multifamily Housing,113.84,654580,179971,7,132328,27789,91109,243
15,CROOKE AVENUE,11226,642250.66,Multifamily Housing,40.13,240780,48397,6,47138,9899,32455,87
20,CROOKE AVENUE,11226,773690.26,Other,40.3,241800,48602,6,46352,9734,31913,85
33,CROOKE AVENUE,11226,781141.89,Multifamily Housing,51.84,311040,64026,6,60893,12788,41925,112
2107,DITMAS AVENUE,11226,1852632.57,Senior Care Facility,33.33,216645,45820,6,38743,8136,26675,71
2116,DITMAS AVENUE,11226,572871.19,Multifamily Housing,40.56,243360,48915,6,47643,10005,32803,88
2211,DITMAS AVENUE,11226,647299.25,Multifamily Housing,44.43,266580,53583,6,51646,10846,35558,95
2212,DITMAS AVENUE,11226,636276.13,Multifamily Housing,41.59,249540,50158,6,48344,10152,33285,89
1801,DORCHESTER ROAD,11226,1168935.01,Multifamily Housing,107.63,618873,167920,7,125110,26273,86139,230
2015,DORCHESTER ROAD,11226,917299.38,Multifamily Housing,38.06,247390,52323,7,43310,9095,29819,80
221,EAST 18 STREET,11226,1116134.29,Multifamily Housing,51.58,309480,63500,6,60588,12723,41715,111
405,EAST 16 STREET,11226,782949.68,Multifamily Housing,28.33,184145,38947,6,33624,7061,23150,62
415,EAST 16 STREET,11226,558012.03,Multifamily Housing,22.04,143260,30299,7,25350,5323,17453,47
60,EAST 17 STREET,11226,566896.66,Multifamily Housing,85.72,492890,125400,7,99641,20925,68604,183
180,EAST 17 STREET,11226,303797,Multifamily Housing,55.2,331200,70830,6,64840,13616,44643,119
205,EAST 17 STREET,11226,607880.6,Multifamily Housing,42.19,253140,50881,6,49558,10407,34121,91
383,EAST 17 STREET,11226,708257.06,Multifamily Housing,55.46,332760,71357,6,65146,13681,44853,120
400,EAST 17 STREET,11226,748315.06,Multifamily Housing,54.68,328080,69777,6,64229,13488,44222,118
415,EAST 17 STREET,11226,1066199.59,Multifamily Housing,50.89,305340,62102,6,58532,12292,40300,108
578,EAST 17 STREET,11226,1151937.37,Multifamily Housing,77.5,465000,115988,7,91035,19117,62678,167
20,EAST 18 STREET,11226,730964.68,Multifamily Housing,46.67,280020,56284,6,55392,11632,38137,102
50,EAST 18 STREET,11226,545269.31,Multifamily Housing,56.83,340980,74131,6,66755,14019,45961,123
125,EAST 18 STREET,11226,444716.47,Multifamily Housing,65.44,392640,91566,6,77669,16311,53476,143
130,EAST 18 STREET,11226,1069771.08,Multifamily Housing,57.52,345120,75528,6,66158,13893,45550,122
145,EAST 18 STREET,11226,616721.13,Multifamily Housing,37.11,241215,51017,6,43137,9059,29700,79
150,EAST 18 STREET,11226,719169.94,Multifamily Housing,46.84,281040,56489,6,55593,11675,38276,102
220,EAST 18 STREET,11226,780877.33,Multifamily Housing,34.1,221650,46879,6,40055,8412,27578,74
240,EAST 18 STREET,11226,778342.02,Multifamily Housing,40.56,243360,48915,6,47643,10005,32803,88
385,EAST 18 STREET,11226,294581.67,Multifamily Housing,47.53,285180,57321,6,54668,11480,37639,100
600,EAST 18 STREET,11226,204126.01,Multifamily Housing,41.76,250560,50363,6,49053,10301,33773,90
601,EAST 18 STREET,11226,250334.9,Multifamily Housing,52.61,315660,65585,6,61154,12842,42105,112
620,EAST 18 STREET,11226,348484.7,Multifamily Housing,75.52,453120,111978,7,89633,18823,61713,165
49,EAST 19 STREET,11226,648291.33,Multifamily Housing,33.15,215475,45573,7,37317,7837,25693,69
50,EAST 19 STREET,11226,675430.23,Multifamily Housing,72.59,435540,106045,7,85267,17906,58707,157
65,EAST 19 STREET,11226,845516.87,Multifamily Housing,14.21,99470,21933,8,15822,3323,10894,29
68,EAST 19 STREET,11226,633586.49,Multifamily Housing,46.84,281040,56489,6,52728,11073,36303,97
120,EAST 19 STREET,11226,783589.02,Multifamily Housing,42.02,252120,50676,6,48330,10149,33276,89
125,EAST 19 STREET,11226,804378.61,Multifamily Housing,26.87,174655,36940,7,30576,6421,21052,56
141,EAST 19 STREET,11226,838021.15,Multifamily Housing,61.92,371520,84438,6,73491,15433,50599,135
165,EAST 19 STREET,11226,1795576.94,Multifamily Housing,101.61,584258,156237,7,118112,24804,81321,217
201,EAST 19 STREET,11226,612664.63,Multifamily Housing,48.66,291960,58684,6,57158,12003,39354,105
330,EAST 19 STREET,11226,956585.75,Multifamily Housing,46.16,276960,55669,6,53657,11268,36943,99
349,EAST 19 STREET,11226,551398.16,Multifamily Housing,27.81,180765,38232,6,32667,6860,22491,60
601,EAST 19 STREET,11226,1133991.74,Multifamily Housing,82.15,472363,118473,7,96497,20264,66438,177
18,EAST 21 STREET,11226,555079.88,Multifamily Housing,39.44,256360,54220,6,45845,9627,31565,84
50,EAST 21 STREET,11226,998164.94,Multifamily Housing,60.02,360120,80591,6,71236,14960,49047,131
100,EAST 21 STREET,11226,1001295.5,Multifamily Housing,59.33,355980,79193,6,67514,14178,46483,124
115,EAST 21 STREET,11226,956431.43,Multifamily Housing,51.32,307920,62973,6,59655,12527,41072,110
131,EAST 21 STREET,11226,985400.17,Multifamily Housing,50.98,305880,62285,6,58636,12313,40371,108
141,EAST 21 STREET,11226,39881.62,Multifamily Housing,61.31,367860,83203,6,72767,15281,50101,134
312,EAST 21 STREET,11226,828519.23,Multifamily Housing,31,201500,42617,7,35655,7488,24549,66
460,EAST 21 STREET,11226,1150526.41,Multifamily Housing,42.71,256260,51508,6,50169,10535,34542,92
520,EAST 21 STREET,11226,1386465.12,Multifamily Housing,72.59,435540,106045,7,85267,17906,58707,157
525,EAST 21 STREET,11226,349498.82,Multifamily Housing,31.34,203710,43085,6,36430,7650,25082,67
580,EAST 21 STREET,11226,1452096.73,Multifamily Housing,43.92,263520,52968,6,51053,10721,35150,94
585,EAST 21 STREET,11226,605742.11,Multifamily Housing,38.32,249080,52680,6,45012,9453,30991,83
426,EAST 22 STREET,11226,835419.7,Multifamily Housing,33.5,217750,46054,7,38121,8005,26246,70
410,EAST 25 STREET,11226,728693.91,Multifamily Housing,34.27,222755,47113,6,41094,8630,28293,75
411,EAST 26 STREET,11226,775608.28,Multifamily Housing,57.52,345120,75528,6,67565,14189,46519,124
250,EAST 29 STREET,11226,857399.78,Multifamily Housing,44.86,269160,54101,6,51597,10835,35524,95
251,EAST 29 STREET,11226,809074.46,Multifamily Housing,39.09,254085,53739,6,45917,9643,31614,84
185,ERASMUS STREET,11226,873846.27,Multifamily Housing,60.97,365820,82514,6,72364,15196,49823,133
973,FLATBUSH AVENUE,11226,563192.89,House of Worship,162.21,932708,273839,8,194508,40847,133920,357
1007,FLATBUSH AVENUE,11226,5904089.61,Office,599.77,3298735,1119741,23,704514,60000,485061,1294
32,LENOX ROAD,11226,595137.88,Multifamily Housing,55.03,330180,70486,6,65987,13857,45432,121
55,LENOX ROAD,11226,628141.08,Multifamily Housing,55.71,334260,71863,6,66121,13885,45525,121
65,LENOX ROAD,11226,447251.79,Multifamily Housing,52.61,315660,65585,6,62442,13113,42991,115
70,LENOX ROAD,11226,249916.02,Multifamily Housing,61.14,366840,82859,6,71069,14925,48932,131
75,LENOX ROAD,11226,855944.73,Multifamily Housing,47.79,286740,57635,6,56721,11911,39053,104
80,LENOX ROAD,11226,349057.9,Multifamily Housing,46.65,279900,56260,6,54226,11387,37335,100
102,LENOX ROAD,11226,701312.5,Multifamily Housing,47.71,286260,57538,6,56626,11891,38987,104
115,LENOX ROAD,11226,173173.11,Multifamily Housing,49.51,297060,59709,6,58156,12213,40041,107
116,LENOX ROAD,11226,840534.42,Multifamily Housing,61.14,366840,82859,6,72566,15239,49962,133
125,LENOX ROAD,11226,455915.96,Multifamily Housing,52.53,315180,65423,6,63632,13363,43811,117
130,LENOX ROAD,11226,434575.21,Multifamily Housing,40.82,244920,49229,6,48948,10279,33701,90
141,LENOX ROAD,11226,779201.82,Multifamily Housing,59.42,356520,79376,6,70524,14810,48556,130
180,LENOX ROAD,11226,645028.49,Multifamily Housing,79.39,476340,119815,7,95197,19991,65544,175
181,LENOX ROAD,11226,452586.98,Other,43.49,260940,52449,6,51085,10728,35172,94
222,LENOX ROAD,11226,1662682.29,Multifamily Housing,119.18,685285,190334,7,141452,29705,97390,260
223,LENOX ROAD,11226,728407.31,Multifamily Housing,55.11,330660,70648,6,66757,14019,45963,123
245,LENOX ROAD,11226,431466.69,Multifamily Housing,62.17,373020,84944,6,75309,15815,51851,138
260,LENOX ROAD,11226,750762.19,Multifamily Housing,37.72,245180,51856,6,44307,9305,30506,81
261,LENOX ROAD,11226,1388493.37,Multifamily Housing,93,534750,139528,7,110379,23180,75997,203
270,LENOX ROAD,11226,804731.35,Multifamily Housing,57.95,347700,76399,6,70198,14741,48331,129
297,LENOX ROAD,11226,848184.46,Multifamily Housing,59.76,358560,80064,6,70928,14895,48834,130
300,LENOX ROAD,11226,845979.84,Multifamily Housing,48.83,292980,58889,6,57358,12045,39491,105
310,LENOX ROAD,11226,1354916.97,Multifamily Housing,115.48,664010,183153,7,137060,28783,94367,252
330,LENOX ROAD,11226,1026648.66,Multifamily Housing,99.54,572355,152220,7,118142,24810,81341,217
350,LENOX ROAD,11226,982291.65,Multifamily Housing,69.66,417960,100112,7,81825,17183,56337,150
35,LINDEN BOULEVARD,11226,633233.76,Multifamily Housing,45.73,274380,55150,6,54276,11398,37369,100
77,LINDEN BOULEVARD,11226,646968.55,Multifamily Housing,53.56,321360,67509,6,63569,13350,43768,117
93,LINDEN BOULEVARD,11226,1871614.37,Multifamily Housing,101.53,583798,156082,7,120504,25306,82967,221
135,LINDEN BOULEVARD,11226,2218974.71,Senior Care Facility,67.37,404220,95474,7,77487,16272,53350,142
143,LINDEN BOULEVARD,11226,746220.66,Multifamily Housing,45.55,273300,54933,6,54062,11353,37222,99
164,LINDEN BOULEVARD,11226,620468.99,Multifamily Housing,61.91,371460,84418,6,72722,15272,50069,134
179,LINDEN BOULEVARD,11226,210629.65,Multifamily Housing,56.75,340500,73969,6,67355,14145,46374,124
199,LINDEN BOULEVARD,11226,1743724.22,Multifamily Housing,137.61,791258,226100,7,161642,33945,111291,297
223,LINDEN BOULEVARD,11226,2034315.52,Multifamily Housing,141.31,812533,233280,7,169446,35584,116665,311
275,LINDEN BOULEVARD,11226,1172969.46,Multifamily Housing,106.52,612490,165765,7,126426,26549,87045,232
300,LINDEN BOULEVARD,11226,782641.03,Multifamily Housing,37.54,244010,51608,6,43637,9164,30044,80
305,LINDEN BOULEVARD,11226,1271714.51,Multifamily Housing,79.14,474840,119309,7,93929,19725,64671,173
315,LINDEN BOULEVARD,11226,1118118.45,Multifamily Housing,81.29,467418,116804,7,96481,20261,66428,177
22,MARTENSE STREET,11226,518659.52,Multifamily Housing,29.13,189345,40046,7,33504,7036,23068,62
45,MARTENSE STREET,11226,264841.32,Multifamily Housing,62.43,374580,85471,6,74097,15560,51016,136
130,MARTENSE STREET,11226,948186.14,Multifamily Housing,46.93,281580,56598,6,54552,11456,37559,100
1802,NEWKIRK AVENUE,11226,1640525.83,Multifamily Housing,112.98,649635,178302,7,132711,27869,91372,244
2110,NEWKIRK AVENUE,11226,702238.44,Multifamily Housing,45.73,274380,55150,6,54276,11398,37369,100
2215,NEWKIRK AVENUE,11226,1234191.84,Multifamily Housing,92.14,529805,137859,7,108231,22729,74518,199
2401,NEWKIRK AVENUE,11226,602876.1,Multifamily Housing,26.26,170690,36101,6,30846,6478,21238,57
353,OCEAN AVENUE,11226,418305.1,Multifamily Housing,39.87,259155,54811,6,46345,9732,31909,85
354,OCEAN AVENUE,11226,1050326.31,Multifamily Housing,51.75,310500,63844,6,60788,12765,41853,112
395,OCEAN AVENUE,11226,1068470.35,Multifamily Housing,77.24,463440,115461,7,89784,18855,61817,165
416,OCEAN AVENUE,11226,1060026.65,Multifamily Housing,42.02,252120,50676,6,49358,10365,33983,91
417,OCEAN AVENUE,11226,793421.63,Multifamily Housing,47.62,285720,57430,6,54771,11502,37710,101
446,OCEAN AVENUE,11226,781737.13,Multifamily Housing,45.04,270240,54318,6,50701,10647,34908,93
470,OCEAN AVENUE,11226,1632501,Multifamily Housing,90.85,522388,135356,7,106716,22410,73475,196
475,OCEAN AVENUE,11226,560591.44,Multifamily Housing,45.73,274380,55150,6,54276,11398,37369,100
485,OCEAN AVENUE,11226,342245.62,Multifamily Housing,39.7,258050,54578,7,45176,9487,31104,83
500,OCEAN AVENUE,11226,1054294.63,Multifamily Housing,67.08,402480,94887,7,78795,16547,54251,145
522,OCEAN AVENUE,11226,1519007.03,Multifamily Housing,37.89,246285,52089,6,44044,9249,30324,81
550,OCEAN AVENUE,11226,555520.81,Multifamily Housing,42.71,256260,51508,6,50691,10645,34901,93
555,OCEAN AVENUE,11226,1237653.09,Multifamily Housing,81.29,467418,116804,7,95487,20052,65743,175
575,OCEAN AVENUE,11226,957092.82,Multifamily Housing,53.04,318240,66456,6,62303,13084,42896,114
590,OCEAN AVENUE,11226,791327.24,Multifamily Housing,55.11,330660,70648,6,64734,13594,44570,119
591,OCEAN AVENUE,11226,191162.83,Multifamily Housing,46.84,281040,56489,6,53301,11193,36698,98
612,OCEAN AVENUE,11226,953212.68,Multifamily Housing,53.22,319320,66821,6,61212,12855,42145,112
630,OCEAN AVENUE,11226,1267150.94,Multifamily Housing,37.89,246285,52089,7,42653,8957,29367,78
681,OCEAN AVENUE,11226,1005021.31,Multifamily Housing,28.42,184730,39070,7,31992,6718,22027,59
734,OCEAN AVENUE,11226,788483.28,Multifamily Housing,42.97,257820,51822,6,49949,10489,34390,92
750,OCEAN AVENUE,11226,713834.76,Multifamily Housing,37.37,242905,51374,6,43896,9218,30223,81
755,OCEAN AVENUE,11226,1436465.96,Multifamily Housing,84.39,485243,122820,7,98095,20600,67539,180
770,OCEAN AVENUE,11226,928785.46,Multifamily Housing,30.48,198120,41902,6,35803,7519,24651,66
822,OCEAN AVENUE,11226,480607.73,Multifamily Housing,30.83,200395,42384,7,35460,7447,24414,65
832,OCEAN AVENUE,11226,232168.81,Office,61.05,366300,82676,6,71712,15059,49374,132
860,OCEAN AVENUE,11226,604309.11,Multifamily Housing,38.49,250185,52914,7,44270,9297,30480,81
1030,OCEAN AVENUE,11226,168433.17,Multifamily Housing,39.27,255255,53986,6,46128,9687,31759,85
1038,OCEAN AVENUE,11226,210938.29,Multifamily Housing,58.38,350280,77270,6,69290,14551,47706,127
1060,OCEAN AVENUE,11226,965338.11,Multifamily Housing,44.18,265080,53281,6,51896,10898,35730,95
25,PARADE PLACE,11226,764496.99,Multifamily Housing,52.61,315660,65585,6,61798,12978,42548,114
55,PARADE PLACE,11226,764166.29,Multifamily Housing,72.42,434520,105701,7,86840,18236,59790,160
100,PARKSIDE AVENUE,11226,376703.87,Multifamily Housing,80.28,461610,114843,7,92336,19390,63573,170
225,PARKSIDE AVENUE,11226,1448415.02,Multifamily Housing,99.37,571378,151890,7,116724,24512,80365,214
530,PARKSIDE AVENUE,11226,191361.24,Multifamily Housing,73.41,440460,107705,7,87129,18297,59988,160
535,PARKSIDE AVENUE,11226,30974.95,Multifamily Housing,75.09,450540,111107,7,87285,18330,60096,160
400,RUGBY ROAD,11226,681074.07,Multifamily Housing,51.49,308940,63317,6,61742,12966,42510,113
20,ST PAUL'S COURT,11226,744479.01,Multifamily Housing,41.16,246960,49639,6,47845,10047,32941,88
66,ST PAUL'S PLACE,11226,559489.13,Multifamily Housing,43.83,262980,52859,6,52021,10924,35817,96
1,TENNIS COURT,11226,798029.3,Multifamily Housing,47.79,286740,57635,6,55551,11666,38247,102
45,TENNIS COURT,11226,1022548.06,Multifamily Housing,48.31,289860,58262,6,56156,11793,38664,103
40,WOODRUFF AVENUE,11226,607748.32,Multifamily Housing,53.48,320880,67347,6,64129,13467,44153,118
100,WOODRUFF AVENUE,11226,1009011.68,Multifamily Housing,80.34,461955,114960,7,95354,20024,65651,175
9216,7 AVENUE,11228,1907770.18,K-12 School,525.71,2891405,955791,8,623953,131030,429594,1146
901,80 STREET,11228,989500.77,Multifamily Housing,60.39,362340,81340,6,69459,14586,47823,128
675,86 STREET,11228,668485.67,Multifamily Housing,43.57,261420,52545,6,51179,10748,35237,94
691,92 STREET,11228,17310542.49,Senior Care Facility,184.79,1062543,317658,8,217062,45583,149448,399
1610,AVENUE P,11229,1224050.57,Multifamily Housing,79.57,477420,120179,7,93466,19628,64352,172
1901,AVENUE P,11229,801843.29,Multifamily Housing,46.33,277980,55874,6,54421,11428,37469,100
2001,AVENUE P,11229,512177.93,Multifamily Housing,33.24,216060,45697,6,38638,8114,26603,71
1205,AVENUE R,11229,513875.49,Multifamily Housing,40.47,242820,48807,6,47043,9879,32389,86
1225,AVENUE R,11229,548443.97,Multifamily Housing,58.64,351840,77796,6,68881,14465,47425,127
1310,AVENUE R,11229,731185.14,Multifamily Housing,68.11,408660,96973,7,80005,16801,55084,147
1410,AVENUE S,11229,601112.4,Multifamily Housing,23.77,154505,32678,7,27049,5680,18623,50
1716,AVENUE T,11229,637995.74,Multifamily Housing,38.92,252980,53505,6,46193,9701,31804,85
1411,AVENUE V,11229,866769.43,Multifamily Housing,60.97,365820,82514,6,70872,14883,48796,130
2020,AVENUE V,11229,634534.48,Multifamily Housing,37.54,244010,51608,7,43177,9067,29728,79
3004,AVENUE V,11229,245859.52,Multifamily Housing,319.13,1755215,551435,8,370958,77901,255406,681
3105,AVENUE V,11229,2712854.27,Multifamily Housing,92.14,529805,137859,7,108231,22729,74518,199
1900,AVENUE W,11229,624657.77,Multifamily Housing,66.91,401460,94543,7,77776,16333,53549,143
2323,BATCHELDER STREET,11229,245859.52,Multifamily Housing,298.63,1642465,513382,8,347129,72897,239000,638
4190,BEDFORD AVENUE,11229,907003.79,Multifamily Housing,60.97,365820,82514,6,71618,15040,49309,132
2190,BRIGHAM STREET,11229,1381659.04,Multifamily Housing,112.98,649635,178302,7,132711,27869,91372,244
2212,BRIGHAM STREET,11229,4943822.13,Multifamily Housing,235.17,1293435,395584,8,273363,57406,188212,502
2220,BURNETT STREET,11229,3012242.02,Multifamily Housing,201.41,1107755,332917,7,239049,50200,164586,439
1745,EAST 12 STREET,11229,842452.44,Multifamily Housing,59.76,358560,80064,6,70928,14895,48834,130
1773,EAST 12 STREET,11229,552831.17,Multifamily Housing,54.42,326520,69251,6,64590,13564,44470,119
1800,EAST 12 STREET,11229,948428.65,Multifamily Housing,55.2,331200,70830,6,64165,13475,44178,118
1833,EAST 12 STREET,11229,974531.38,Multifamily Housing,58.13,348780,76763,6,68282,14339,47012,125
1855,EAST 12 STREET,11229,1137585.27,Multifamily Housing,57.95,347700,76399,6,67361,14146,46379,124
1877,EAST 12 STREET,11229,563832.24,Multifamily Housing,22.56,146640,31014,7,25672,5391,17675,47
2323,EAST 12 STREET,11229,922347.97,Multifamily Housing,72.85,437100,106571,7,87355,18345,60145,160
2355,EAST 12 STREET,11229,1394666.32,Multifamily Housing,139.01,799308,228816,7,164988,34647,113595,303
1625,EAST 13 STREET,11229,692141.27,Multifamily Housing,49.77,298620,60023,6,58462,12277,40251,107
1648,EAST 13 STREET,11229,532879.33,Multifamily Housing,35.13,228345,48295,6,41695,8756,28707,77
1735,EAST 13 STREET,11229,1122439.51,Multifamily Housing,62.6,375600,85815,6,72767,15281,50100,134
1755,EAST 13 STREET,11229,707287.03,Multifamily Housing,50.46,302760,61232,6,59272,12447,40809,109
1775,EAST 13 STREET,11229,461758.21,Multifamily Housing,31.6,205400,43442,6,36732,7714,25290,67
1776,EAST 13 STREET,11229,546922.78,Multifamily Housing,48.57,291420,58575,6,57052,11981,39281,105
1820,EAST 13 STREET,11229,1174204.05,Multifamily Housing,109.64,630430,171820,7,128788,27045,88671,237
1840,EAST 13 STREET,11229,948781.39,Multifamily Housing,101.01,580808,155073,7,119886,25176,82542,220
2365,EAST 13 STREET,11229,1333179.39,Multifamily Housing,103.51,595183,159924,7,121587,25533,83713,223
1730,EAST 14 STREET,11229,803761.31,Multifamily Housing,52.96,317760,66294,6,61561,12928,42385,113
1750,EAST 14 STREET,11229,708984.59,Multifamily Housing,38.41,249665,52804,6,44648,9376,30740,82
1770,EAST 14 STREET,11229,838903,Multifamily Housing,51.49,308940,63317,6,59852,12569,41209,110
1862,EAST 14 STREET,11229,307522.81,Multifamily Housing,29.71,193115,40844,7,33808,7100,23277,62
1815,EAST 17 STREET,11229,224695.14,Office,55.37,332220,71174,6,64362,13516,44314,118
1675,EAST 18 STREET,11229,604595.71,Multifamily Housing,42.71,256260,51508,6,50691,10645,34901,93
1717,EAST 18 STREET,11229,910972.11,Multifamily Housing,79.05,474300,119126,7,91888,19296,63265,169
1730,EAST 18 STREET,11229,978521.75,Multifamily Housing,30.14,195910,41435,6,35035,7357,24122,64
1745,EAST 18 STREET,11229,579286.64,Multifamily Housing,47.88,287280,57743,6,56828,11934,39126,104
1970,EAST 18 STREET,11229,1181369.08,Multifamily Housing,62.17,373020,84944,6,72267,15176,49756,133
2050,EAST 18 STREET,11229,683366.87,Multifamily Housing,45.38,272280,54728,6,52750,11077,36319,97
2222,EAST 18 STREET,11229,697123.72,Multifamily Housing,34.36,223340,47236,7,39520,8299,27210,73
1656,EAST 19 STREET,11229,620733.54,Multifamily Housing,34.1,221650,46879,6,40055,8412,27578,74
2245,EAST 19 STREET,11229,676929.38,Multifamily Housing,60.97,365820,82514,6,72364,15196,49823,133
2195,EAST 22 STREET,11229,802328.31,Multifamily Housing,56.58,339480,73625,6,67153,14102,46235,123
1525,EAST 26 STREET,11229,1051693.17,Multifamily Housing,69.49,416940,99767,7,82476,17320,56785,152
2265,GERRITSEN AVENUE,11229,1393497.87,Multifamily Housing,82.32,473340,118802,7,95689,20095,65882,176
1200,GRAVESEND NECK ROAD,11229,856892.72,Multifamily Housing,58.21,349260,76925,6,69088,14508,47567,127
1601,GRAVESEND NECK ROAD,11229,232609.73,Other,203.18,1117490,336203,8,236177,49597,162609,434
2134,HOMECREST AVENUE,11229,700937.72,Multifamily Housing,58.85,353100,78221,6,68407,14366,47099,126
2277,HOMECREST AVENUE,11229,1060842.36,Multifamily Housing,84.39,485243,122820,7,99128,20817,68250,182
2000,KINGS HIGHWAY,11229,581226.71,Multifamily Housing,27.99,181935,38479,7,32193,6761,22165,59
2020,KINGS HIGHWAY,11229,553558.69,Multifamily Housing,34.7,225550,47704,6,40335,8470,27771,74
2301,KINGS HIGHWAY,11229,1091861.4,Multifamily Housing,99.89,574368,152899,7,118557,24897,81627,218
2320,KINGS HIGHWAY,11229,608630.17,Multifamily Housing,58.04,348240,76581,6,66046,13870,45473,121
2410,KINGS HIGHWAY,11229,559819.82,Multifamily Housing,38.92,252980,53505,6,45241,9501,31148,83
2520,KINGS HIGHWAY,11229,145020.08,Multifamily Housing,40.73,244380,49120,6,47843,10047,32940,88
2525,KINGS HIGHWAY,11229,3782956.05,Hospital (General Medical and Surgical),27.59,179335,37929,6,32071,6735,22081,59
2626,KINGS HIGHWAY,11229,666876.3,Multifamily Housing,41.44,248640,49977,6,47663,10009,32816,88
2702,KINGS HIGHWAY,11229,1178194.42,Multifamily Housing,82.75,475813,119637,7,97201,20412,66924,179
2705,KINGS HIGHWAY,11229,914719.97,Multifamily Housing,48.14,288840,58057,6,55369,11628,38122,102
2807,KINGS HIGHWAY,11229,656933.45,Multifamily Housing,32.38,210470,44514,7,36846,7738,25369,68
2251,KNAPP STREET,11229,2048777.85,Multifamily Housing,132.87,764003,216901,7,156074,32776,107458,287
3165,NOSTRAND AVENUE,11229,1362280.41,Multifamily Housing,73.88,443280,108657,7,85878,18034,59128,158
3178,NOSTRAND AVENUE,11229,978301.29,Multifamily Housing,62.95,377700,86524,6,73173,15366,50380,134
3202,NOSTRAND AVENUE,11229,1209235.51,Multifamily Housing,64.5,387000,89663,7,74975,15745,51621,138
3203,NOSTRAND AVENUE,11229,1013817.76,Multifamily Housing,66.22,397320,93146,7,76164,15994,52439,140
3280,NOSTRAND AVENUE,11229,2294659.41,Multifamily Housing,157.15,903613,264019,8,182672,38361,125770,336
3301,NOSTRAND AVENUE,11229,1994015.02,Multifamily Housing,153.19,880843,256335,7,183692,38575,126473,337
3395,NOSTRAND AVENUE,11229,974950.26,Multifamily Housing,64.33,385980,89318,6,75565,15869,52027,139
3505,NOSTRAND AVENUE,11229,944195.78,Office,102.04,586730,157071,7,117363,24646,80805,216
3595,NOSTRAND AVENUE,11229,264764.16,Multifamily Housing,269.79,1483845,459848,8,313605,65857,215919,576
3641,NOSTRAND AVENUE,11229,264764.16,Multifamily Housing,262.81,1445455,446891,8,302276,63478,208118,555
2200,OCEAN AVENUE,11229,1304739.76,Multifamily Housing,193.58,1113085,334716,8,220281,46259,151665,405
2234,OCEAN AVENUE,11229,1157669.38,Multifamily Housing,40.9,245400,49325,6,49044,10299,33767,90
2246,OCEAN AVENUE,11229,663525.27,Multifamily Housing,49.49,296940,59685,6,56316,11826,38774,103
2261,OCEAN AVENUE,11229,540948.25,Multifamily Housing,38.75,251875,53272,6,45043,9459,31012,83
2270,OCEAN AVENUE,11229,594652.86,Multifamily Housing,40.21,241260,48493,6,46740,9815,32181,86
2285,OCEAN AVENUE,11229,857069.09,Multifamily Housing,71.13,426780,103088,7,83552,17546,57526,153
2300,OCEAN AVENUE,11229,648666.11,Multifamily Housing,60.11,360660,80773,6,70608,14828,48614,130
2301,OCEAN AVENUE,11229,592448.24,Multifamily Housing,40.64,243840,49012,6,46246,9712,31840,85
2306,OCEAN AVENUE,11229,671439.87,Multifamily Housing,57.18,343080,74840,6,67166,14105,46244,123
2345,OCEAN AVENUE,11229,846156.21,Multifamily Housing,75.52,453120,111978,7,87785,18435,60440,161
2370,OCEAN AVENUE,11229,780634.82,Multifamily Housing,51.15,306900,62629,6,59457,12486,40936,109
2375,OCEAN AVENUE,11229,798933.19,Multifamily Housing,53.56,321360,67509,6,62258,13074,42865,114
2387,OCEAN AVENUE,11229,730611.94,Multifamily Housing,68.67,412020,98107,7,78982,16586,54380,145
2566,OCEAN AVENUE,11229,885795.32,Multifamily Housing,51.15,306900,62629,6,58205,12223,40075,107
2569,OCEAN AVENUE,11229,253994.57,Multifamily Housing,27.99,181935,38479,6,32536,6832,22401,60
2630,OCEAN AVENUE,11229,714121.36,Multifamily Housing,27.38,177970,37641,7,31157,6543,21451,57
2675,OCEAN AVENUE,11229,1036635.6,Multifamily Housing,66.56,399360,93834,7,77370,16248,53269,142
2678,OCEAN AVENUE,11229,591786.85,Multifamily Housing,95.33,548148,144050,7,114311,24005,78704,210
2686,OCEAN AVENUE,11229,612091.42,Multifamily Housing,54.42,326520,69251,6,63924,13424,44012,117
2765,OCEAN AVENUE,11229,646527.63,Multifamily Housing,49.86,299160,60131,6,59178,12427,40744,109
2709A,OCEAN AVENUE,11229,817231.56,Multifamily Housing,55.03,330180,70486,6,64640,13574,44505,119
2781A,OCEAN AVENUE,11229,788240.77,Multifamily Housing,30.31,197015,41669,7,33378,7009,22981,61
2241,PLUMB 1 STREET,11229,1315740.83,Multifamily Housing,78.96,473760,118944,7,89851,18869,61863,165
1718,QUENTIN ROAD,11229,717494.43,Multifamily Housing,42.88,257280,51713,6,49844,10467,34318,92
1811,QUENTIN ROAD,11229,725431.07,Multifamily Housing,51.24,307440,62811,6,60189,12640,41440,111
1925,QUENTIN ROAD,11229,148282.92,Multifamily Housing,29.02,188630,39895,7,33023,6935,22736,61
2000,QUENTIN ROAD,11229,629816.59,Multifamily Housing,39.01,253565,53629,6,45345,9523,31221,83
1075,SHEEPSHEAD BAY ROAD,11229,1267790.28,Multifamily Housing,96.1,552575,145544,7,115235,24199,79340,212
612,ARGYLE ROAD,11230,843709.08,Multifamily Housing,55.2,331200,70830,6,64165,13475,44178,118
646,ARGYLE ROAD,11230,844127.95,Multifamily Housing,66.56,399360,93834,7,77370,16248,53269,142
800,AVENUE H,11230,770780.16,Multifamily Housing,54.51,327060,69433,6,64030,13446,44085,118
900,AVENUE H,11230,824418.63,Multifamily Housing,52.36,314160,65079,6,60863,12781,41905,112
901,AVENUE H,11230,1003125.34,Multifamily Housing,68.2,409200,97155,7,80110,16823,55156,147
1002,AVENUE H,11230,721859.58,Multifamily Housing,49.17,295020,59299,6,57757,12129,39766,106
1601,AVENUE I,11230,1181538.1,Multifamily Housing,122.02,701615,195845,7,143330,30099,98683,263
1602,AVENUE I,11230,1363294.54,Multifamily Housing,110.39,634743,173276,7,131019,27514,90207,241
1013,AVENUE J,11230,1688983.44,Multifamily Housing,86.55,497663,127011,7,103783,21794,71455,191
1014,AVENUE J,11230,1033990.06,Multifamily Housing,33.39,217035,45903,7,38404,8065,26441,71
1102,AVENUE K,11230,591169.56,Multifamily Housing,51.06,306360,62447,6,58728,12333,40434,108
1201,AVENUE K,11230,679596.97,Multifamily Housing,52.53,315180,65423,6,61061,12823,42041,112
1402,AVENUE K,11230,975060.49,Multifamily Housing,58.13,348780,76763,6,67571,14190,46523,124
1417,AVENUE K,11230,256904.67,Multifamily Housing,63.64,381840,87921,6,74754,15698,51469,137
1916,AVENUE K,11230,657043.68,Multifamily Housing,38.92,252980,53505,6,45241,9501,31148,83
1921,AVENUE K,11230,132453.73,Multifamily Housing,34.01,221065,46755,6,39950,8389,27505,73
1122,AVENUE N,11230,896972.76,Multifamily Housing,72.94,437640,106754,7,84786,17805,58375,156
1215,AVENUE N,11230,657859.39,Multifamily Housing,35.31,229515,48542,6,41044,8619,28259,75
1701,AVENUE N,11230,916748.22,Multifamily Housing,72.51,435060,105883,7,85173,17886,58642,156
1801,AVENUE N,11230,627567.88,Multifamily Housing,46.07,276420,55560,6,53552,11246,36871,98
1810,AVENUE N,11230,493570.91,Multifamily Housing,42.97,257820,51822,6,50474,10600,34752,93
1814,AVENUE N,11230,519607.51,Multifamily Housing,42.97,257820,51822,6,51000,10710,35114,94
1901,AVENUE N,11230,1202445.27,Multifamily Housing,44.86,269160,54101,6,52694,11066,36280,97
1219,AVENUE O,11230,1033152.3,Multifamily Housing,58.04,348240,76581,6,68176,14317,46940,125
1415,AVENUE O,11230,713856.8,Multifamily Housing,52.44,314640,65241,6,61598,12936,42411,113
931,CONEY ISLAND AVENUE,11230,340878.75,Multifamily Housing,68.98,413880,98735,6,83559,17547,57531,154
1102,CONEY ISLAND AVENUE,11230,205647.2,Office,46.67,280020,56284,6,56534,11872,38924,104
759,EAST 10 STREET,11230,666854.25,Multifamily Housing,38.58,250770,53038,7,44374,9318,30551,82
820,EAST 10 STREET,11230,642427.03,Multifamily Housing,47.71,286260,57538,6,56042,11769,38585,103
829,EAST 10 STREET,11230,672520.13,Multifamily Housing,47.45,284700,57225,6,55737,11705,38375,102
919,EAST 10 STREET,11230,2840744.43,K-12 School,69.23,415380,99241,7,81320,17077,55989,149
960,EAST 12 STREET,11230,617669.12,Multifamily Housing,27.56,179140,37888,7,31699,6657,21825,58
1280,EAST 12 STREET,11230,780524.59,Multifamily Housing,43.31,259860,52232,6,49814,10461,34297,92
1061,EAST 13 STREET,11230,570424.06,Multifamily Housing,45.73,274380,55150,6,54276,11398,37369,100
1249,EAST 13 STREET,11230,1137034.12,Multifamily Housing,44.95,269700,54210,6,52800,11088,36353,97
1256,EAST 13 STREET,11230,499479.3,Multifamily Housing,36.77,239005,50550,6,43641,9165,30047,80
1550,EAST 13 STREET,11230,694434.08,Multifamily Housing,40.56,243360,48915,6,46651,9797,32119,86
1561,EAST 13 STREET,11230,466696.56,Multifamily Housing,50.55,303300,61414,6,59378,12469,40882,109
1580,EAST 13 STREET,11230,844546.83,Multifamily Housing,58.56,351360,77634,6,68787,14445,47360,126
815,EAST 14 STREET,11230,606381.45,Multifamily Housing,43.57,261420,52545,6,49580,10412,34136,91
918,EAST 14 STREET,11230,929005.93,Multifamily Housing,36.34,236210,49958,6,42686,8964,29390,78
925,EAST 14 STREET,11230,902506.36,Multifamily Housing,75.66,453960,112262,7,89799,18858,61827,165
1262,EAST 14 STREET,11230,919570.14,Other,195.84,1126080,339102,8,230042,48309,158385,423
1440,EAST 14 STREET,11230,706515.41,Multifamily Housing,43.66,261960,52654,6,51819,10882,35678,95
1565,EAST 14 STREET,11230,658917.61,Multifamily Housing,41.76,250560,50363,6,48031,10087,33070,88
1570,EAST 14 STREET,11230,732816.56,Multifamily Housing,43.31,259860,52232,6,49814,10461,34297,92
1585,EAST 14 STREET,11230,549612.42,Multifamily Housing,38.58,250770,53038,6,44846,9418,30876,82
1485,EAST 16 STREET,11230,801446.46,Multifamily Housing,39.61,257465,54454,6,46043,9669,31701,85
915,EAST 17 STREET,11230,1181538.1,Multifamily Housing,104.28,599610,161418,7,121216,25455,83457,223
920,EAST 17 STREET,11230,1181538.1,Multifamily Housing,122.54,704605,196854,7,143940,30227,99104,264
1577,EAST 17 STREET,11230,365702.8,Multifamily Housing,66.31,397860,93328,7,76268,16016,52511,140
1270,EAST 18 STREET,11230,852703.94,Multifamily Housing,60.79,364740,82150,6,71406,14995,49164,131
1333,EAST 18 STREET,11230,678230.1,Multifamily Housing,44.86,269160,54101,6,52694,11066,36280,97
1349,EAST 18 STREET,11230,1091067.73,Multifamily Housing,63.81,382860,88265,6,74173,15576,51068,136
1560,EAST 18 STREET,11230,562421.28,Multifamily Housing,32.12,208780,44157,6,37336,7841,25706,69
855,EAST 19 STREET,11230,945937.43,Multifamily Housing,53.04,318240,66456,6,62952,13220,43343,116
1233,EAST 19 STREET,11230,463830.55,Multifamily Housing,32.12,208780,44157,6,37336,7841,25706,69
1255,EAST 19 STREET,11230,1203701.9,Multifamily Housing,101.71,584833,156431,7,120717,25351,83114,222
1270,EAST 19 STREET,11230,660923.82,Multifamily Housing,72.85,437100,106571,7,85573,17970,58917,157
1289,EAST 19 STREET,11230,506490,Multifamily Housing,46.93,281580,56598,6,55700,11697,38350,102
1290,EAST 19 STREET,11230,500140.69,Multifamily Housing,38.23,248495,52557,6,45374,9529,31240,83
1530,EAST 19 STREET,11230,735836.89,Multifamily Housing,51.49,308940,63317,6,61112,12834,42076,112
1555,EAST 19 STREET,11230,217309.65,Multifamily Housing,56.66,339960,73787,6,67248,14122,46301,124
1558,EAST 19 STREET,11230,627920.61,Multifamily Housing,48.83,292980,58889,6,57358,12045,39491,105
1620,EAST 2 STREET,11230,599635.31,Multifamily Housing,38.32,249080,52680,6,44543,9354,30668,82
1350,EAST 5 STREET,11230,867430.82,Multifamily Housing,52.7,316200,65768,6,61259,12864,42177,113
855,EAST 7 STREET,11230,1141134.71,Multifamily Housing,110.39,634743,173276,7,132370,27798,91137,243
1665,EAST 7 STREET,11230,566301.41,Multifamily Housing,32.38,210470,44514,6,37639,7904,25914,69
840,EAST 8 STREET,11230,2197766.24,Multifamily Housing,126.07,724903,203705,7,146544,30774,100896,269
1530,EAST 8 STREET,11230,924618.73,Multifamily Housing,67.6,405600,95940,7,79406,16675,54671,146
814,EAST 9 STREET,11230,846927.83,Multifamily Housing,54.77,328620,69959,6,63665,13370,43834,117
825,EAST 9 STREET,11230,648644.07,Multifamily Housing,47.79,286740,57635,6,56136,11789,38650,103
1705,ELM AVENUE,11230,1019858.42,Multifamily Housing,70.7,424200,102218,7,83912,17622,57774,154
414,ELMWOOD AVENUE,11230,263187.85,Multifamily Housing,35.13,228345,48295,6,40835,8575,28115,75
505,ELMWOOD AVENUE,11230,672983.1,Multifamily Housing,44.43,266580,53583,6,51102,10731,35184,94
635,FOSTER AVENUE,11230,805502.97,Senior Care Facility,33.5,217750,46054,6,39350,8264,27093,72
1002,FOSTER AVENUE,11230,1287080.73,Multifamily Housing,62.17,373020,84944,6,74549,15655,51327,137
1119,FOSTER AVENUE,11230,683984.17,Multifamily Housing,40.14,240840,48409,6,46168,9695,31787,85
1815,FOSTER AVENUE,11230,676135.71,Multifamily Housing,45.21,271260,54523,6,54212,11384,37325,100
1102,GLENWOOD ROAD,11230,799263.88,Multifamily Housing,18.86,132020,29110,7,21461,4507,14776,39
134,LAWRENCE AVENUE,11230,680236.31,Multifamily Housing,61.48,368880,83547,6,73721,15481,50758,135
1080,MC DONALD AVENUE,11230,10156145.25,Supermarket/Grocery,403.95,2221725,708882,15,484381,60000,333499,890
1212,NEWKIRK AVENUE,11230,1081874.46,Multifamily Housing,55.97,335820,72389,6,65060,13663,44794,120
1111,OCEAN AVENUE,11230,1596234.96,Multifamily Housing,89.3,513475,132348,7,104895,22028,72221,193
1122,OCEAN AVENUE,11230,844789.34,Multifamily Housing,65.01,390060,90695,7,75568,15869,52029,139
1150,OCEAN AVENUE,11230,1280180.26,Multifamily Housing,49.69,298140,59926,6,57760,12130,39768,106
1155,OCEAN AVENUE,11230,220881.14,Multifamily Housing,37.29,242385,51264,7,42434,8911,29216,78
1169,OCEAN AVENUE,11230,751379.48,Multifamily Housing,15.93,111510,24588,7,18322,3848,12615,34
1170,OCEAN AVENUE,11230,649018.85,Multifamily Housing,36.17,235105,49725,7,41602,8736,28643,76
1220,OCEAN AVENUE,11230,516631.26,Multifamily Housing,38.15,247975,52447,6,44813,9411,30854,82
1232,OCEAN AVENUE,11230,933679.73,Multifamily Housing,69.06,414360,98897,7,81966,17213,56434,151
1245,OCEAN AVENUE,11230,416056.38,Multifamily Housing,25.66,166790,35276,7,29199,6132,20104,54
1280,OCEAN AVENUE,11230,1046049.34,Multifamily Housing,52.27,313620,64897,6,62678,13162,43154,115
1290,OCEAN AVENUE,11230,714231.59,Multifamily Housing,41.76,250560,50363,6,49564,10408,34125,91
1299,OCEAN AVENUE,11230,676444.36,Multifamily Housing,35.39,230035,48652,6,41571,8730,28622,76
1355,OCEAN AVENUE,11230,624172.76,Multifamily Housing,41.85,251100,50471,6,49159,10323,33846,90
1363,OCEAN AVENUE,11230,1461841.17,Multifamily Housing,62.86,377160,86342,6,73069,15344,50308,134
1400,OCEAN AVENUE,11230,631425.96,Multifamily Housing,36.35,236275,49972,7,41809,8780,28785,77
1401,OCEAN AVENUE,11230,2212515.17,Multifamily Housing,20.49,133185,28169,7,23316,4896,16053,43
1412,OCEAN AVENUE,11230,564758.18,Multifamily Housing,43.57,261420,52545,6,51179,10748,35237,94
1438,OCEAN AVENUE,11230,468923.23,Multifamily Housing,37.54,244010,51608,7,42718,8971,29412,78
1439,OCEAN AVENUE,11230,832752.1,Multifamily Housing,71.87,431220,104587,7,82663,17359,56914,152
1480,OCEAN AVENUE,11230,98965.51,Multifamily Housing,36.25,235625,49835,6,43024,9035,29622,79
1520,OCEAN AVENUE,11230,629243.39,Multifamily Housing,27.13,176345,37297,6,31868,6692,21941,59
1521,OCEAN AVENUE,11230,789409.22,Multifamily Housing,32.12,208780,44157,6,37336,7841,25706,69
1554,OCEAN AVENUE,11230,883722.98,Multifamily Housing,67.94,407640,96629,7,75649,15886,52084,139
1562,OCEAN AVENUE,11230,854864.47,Multifamily Housing,42.54,255240,51303,6,50490,10603,34762,93
1641,OCEAN AVENUE,11230,1281326.67,Multifamily Housing,59.93,359580,80408,6,71863,15091,49478,132
1650,OCEAN AVENUE,11230,753385.69,Multifamily Housing,43.49,260940,52449,6,51617,10840,35539,95
1685,OCEAN AVENUE,11230,883017.5,Multifamily Housing,69.75,418500,100294,7,81078,17026,55822,149
1801,OCEAN AVENUE,11230,717384.2,Multifamily Housing,66.39,398340,93490,6,79609,16718,54811,146
1818,OCEAN AVENUE,11230,777614.49,Multifamily Housing,66.65,399900,94016,7,77474,16270,53341,142
1833,OCEAN AVENUE,11230,1375001.08,Multifamily Housing,56.58,339480,73625,6,65769,13811,45282,121
1854,OCEAN AVENUE,11230,507746.64,Multifamily Housing,33.33,216645,45820,6,38743,8136,26675,71
1865,OCEAN AVENUE,11230,892254.87,Multifamily Housing,68.54,411240,97844,7,81348,17083,56009,149
1866,OCEAN AVENUE,11230,599458.94,Multifamily Housing,31,201500,42617,7,35276,7408,24288,65
1877,OCEAN AVENUE,11230,766811.84,Multifamily Housing,31.26,203190,42975,7,35572,7470,24491,65
1928,OCEAN AVENUE,11230,636232.04,Multifamily Housing,39.53,256945,54344,6,46434,9751,31970,85
1947,OCEAN AVENUE,11230,1308443.52,Multifamily Housing,48.05,288300,57948,6,55854,11729,38455,103
2011,OCEAN AVENUE,11230,506578.19,Multifamily Housing,47.62,285720,57430,6,56519,11869,38914,104
2026,OCEAN AVENUE,11230,601531.28,Multifamily Housing,43.06,258360,51930,6,50580,10622,34825,93
2055,OCEAN AVENUE,11230,441674.1,Multifamily Housing,37.89,246285,52089,6,44044,9249,30324,81
2060,OCEAN AVENUE,11230,821905.36,Multifamily Housing,56.75,340500,73969,6,65966,13853,45418,121
2065,OCEAN AVENUE,11230,436030.26,Multifamily Housing,29.97,194805,41201,7,34471,7239,23733,63
629,OCEAN PARKWAY,11230,684976.25,Multifamily Housing,40.39,242340,48710,6,47444,9963,32665,87
645,OCEAN PARKWAY,11230,463962.83,Multifamily Housing,34.79,226135,47828,6,41717,8761,28722,77
665,OCEAN PARKWAY,11230,558585.23,Multifamily Housing,47.19,283140,56911,6,56009,11762,38562,103
679,OCEAN PARKWAY,11230,689958.7,Multifamily Housing,44.09,264540,53173,6,51790,10876,35658,95
680,OCEAN PARKWAY,11230,838021.15,Multifamily Housing,26.17,170105,35977,7,29780,6254,20503,55
715,OCEAN PARKWAY,11230,856672.26,Multifamily Housing,64.5,387000,89663,6,76554,16076,52707,141
716,OCEAN PARKWAY,11230,901536.33,Multifamily Housing,39.44,256360,54220,6,45845,9627,31565,84
763,OCEAN PARKWAY,11230,1508490.98,Multifamily Housing,110.31,634283,173121,7,130924,27494,90142,241
785,OCEAN PARKWAY,11230,603868.18,Multifamily Housing,37.2,241800,51141,6,43241,9081,29772,79
800,OCEAN PARKWAY,11230,1101870.39,Multifamily Housing,73.71,442260,108313,7,86583,18182,59613,159
820,OCEAN PARKWAY,11230,1649366.37,Multifamily Housing,110.48,635260,173450,7,129774,27253,89350,238
825,OCEAN PARKWAY,11230,1269267.38,Multifamily Housing,80.69,463968,115639,7,94782,19904,65258,174
870,OCEAN PARKWAY,11230,1567023.71,Multifamily Housing,42.11,252660,50785,6,49464,10387,34056,91
902,OCEAN PARKWAY,11230,650672.32,Multifamily Housing,36.51,237315,50192,6,42439,8912,29220,78
996,OCEAN PARKWAY,11230,165192.37,Office,103.42,594665,159749,7,121481,25511,83640,223
1075,OCEAN PARKWAY,11230,565375.47,Multifamily Housing,27.38,177970,37641,7,31492,6613,21682,58
1119,OCEAN PARKWAY,11230,1062319.46,Multifamily Housing,66.65,399900,94016,7,76659,16098,52780,141
1170,OCEAN PARKWAY,11230,3129285.44,Multifamily Housing,54.25,325500,68906,6,62397,13103,42960,115
1176,OCEAN PARKWAY,11230,1248610.07,Multifamily Housing,75.69,454140,112322,7,87982,18476,60576,162
1185,OCEAN PARKWAY,11230,1079846.21,Multifamily Housing,53.56,321360,67509,6,61603,12937,42414,113
1201,OCEAN PARKWAY,11230,586650.08,Multifamily Housing,45.73,274380,55150,6,53716,11280,36984,99
1235,OCEAN PARKWAY,11230,1244685.84,Multifamily Housing,98.17,564478,149561,7,115314,24216,79395,212
1250,OCEAN PARKWAY,11230,1007666.86,Multifamily Housing,74.31,445860,109528,7,86378,18139,59472,159
1314,OCEAN PARKWAY,11230,720007.7,Multifamily Housing,35.91,233415,49367,6,42621,8950,29345,78
1360,OCEAN PARKWAY,11230,2180151.31,Multifamily Housing,55.71,334260,71863,6,66121,13885,45525,121
1420,OCEAN PARKWAY,11230,747763.9,Multifamily Housing,49.17,295020,59299,6,57757,12129,39766,106
1440,OCEAN PARKWAY,11230,534378.48,Multifamily Housing,36.08,234520,49601,6,42381,8900,29180,78
1500,OCEAN PARKWAY,11230,856275.43,Multifamily Housing,70.61,423660,102035,7,80349,16873,55321,148
1510,OCEAN PARKWAY,11230,843598.85,Multifamily Housing,64.15,384900,88954,6,74568,15659,51341,137
1560,OCEAN PARKWAY,11230,674261.78,Multifamily Housing,47.28,283680,57020,6,55537,11663,38237,102
1600,OCEAN PARKWAY,11230,1078567.52,Multifamily Housing,49.51,297060,59709,6,57551,12086,39624,106
250,PARKVILLE AVENUE,11230,641324.72,Multifamily Housing,45.12,270720,54415,6,53552,11246,36871,98
22,WEBSTER AVENUE,11230,684998.29,Multifamily Housing,33.58,218270,46164,6,39444,8283,27158,72
275,WEBSTER AVENUE,11230,809272.87,Multifamily Housing,57.87,347220,76237,6,67976,14275,46802,125
345,WEBSTER AVENUE,11230,1789756.74,Multifamily Housing,91.62,526815,136850,7,106499,22365,73325,196
570,WESTMINSTER ROAD,11230,1995999.18,Multifamily Housing,166.54,957605,282242,8,197662,41509,136091,363
615,WESTMINSTER ROAD,11230,639296.47,Multifamily Housing,30.74,199810,42260,6,35732,7504,24602,66
344,CARROLL STREET,11231,832112.76,Multifamily Housing,69.23,415380,99241,6,83015,17433,57156,153
505,COURT STREET,11231,1809598.34,Multifamily Housing,71.73,430380,104303,7,83379,17510,57407,153
5,DELEVAN STREET,11231,160915.41,Multifamily Housing,164.3,944725,277895,8,197014,41373,135645,362
653,HICKS STREET,11231,474500.93,Multifamily Housing,34.19,222235,47003,6,39743,8346,27363,73
100,IMLAY STREET,11231,8855329.72,Warehouse (Unrefrigerated),155.6,894700,261011,8,178966,37583,123219,329
183,LORRAINE STREET,11231,762534.87,Self-Storage,315.51,1735305,544715,12,366750,60000,252509,674
61,OTSEGO STREET,11231,143476.84,Warehouse (Unrefrigerated),217.09,1193995,362023,8,255003,53551,175571,468
402,PRESIDENT STREET,11231,112149.15,Multifamily Housing,82.41,473858,118977,7,93777,19693,64566,172
80,RICHARDS STREET,11231,1041066.89,Warehouse (Unrefrigerated),105.83,608523,164427,7,119132,25018,82023,219
628,SMITH STREET,11231,427013.36,Other,28.76,186940,39538,6,35190,7390,24229,65
29,TIFFANY PLACE,11231,955770.04,Multifamily Housing,23.09,150085,31743,7,25992,5458,17896,48
63,TIFFANY PLACE,11231,930923.95,Multifamily Housing,15.41,107870,23785,7,17536,3682,12073,32
472,VAN BRUNT STREET,11231,124406.85,Multifamily Housing,105.66,607545,164096,7,125405,26335,86342,230
480,VAN BRUNT STREET,11231,2792308.87,Multifamily Housing,112.98,649635,178302,7,136858,28740,94227,251
3915,1 AVENUE,11232,1511621.55,Other,525.11,2888105,954462,8,610390,120000,420257,1121
4000,1 AVENUE,11232,906981.75,Warehouse (Unrefrigerated),296.22,1629210,508908,9,347952,60000,239567,639
4473,1 AVENUE,11232,243941.49,Other,442.01,2431055,779531,17,524611,60000,361197,964
62,18 STREET,11232,568638.31,Other,334.37,1839035,579724,13,392764,60000,270420,722
581,2 AVENUE,11232,6227816.39,Other,874.76,4811180,1728500,18,1016825,120000,700089,1868
607,2 AVENUE,11232,5900914.95,Other,556.45,3060475,1023841,9,646820,120000,445339,1188
639,2 AVENUE,11232,2415516.82,Office,579.82,3189010,1075577,9,673985,120000,464042,1238
3913,2 AVENUE,11232,137833.01,Warehouse (Unrefrigerated),162.84,936330,275061,8,193271,40587,133068,355
5112,2 AVENUE,11232,1152841.26,Warehouse (Unrefrigerated),294.16,1617880,505085,9,352731,60000,242857,648
290,24 STREET,11232,709491.65,Storage/Shipping/Non-Refrigerated Warehouse,119.69,688218,191324,7,137664,28909,94782,253
95,29 STREET,11232,1340454.65,Other,839.5,4617250,1650443,25+,1006654,60000,693087,1849
882,3 AVENUE,11232,4870320.01,Other,388.36,2135980,679943,8,441928,92805,304269,812
892,3 AVENUE,11232,6017274.93,Other,641.87,3530285,1212940,25,746112,60000,513702,1371
367,38 STREET,11232,156638.44,Self-Storage,79.45,476700,119936,7,95269,20007,65593,175
341,39 STREET,11232,2820285.53,Other,50.2,301200,60705,6,57124,11996,39330,105
725,4 AVENUE,11232,1768173.48,Multifamily Housing,52.27,313620,64897,6,58840,12356,40512,108
637,41 STREET,11232,412021.92,Multifamily Housing,55.37,332220,71174,6,63007,13232,43381,116
201,42 STREET,11232,311336.81,Warehouse (Unrefrigerated),215.71,1186405,359462,7,256021,53764,176272,470
148,43 STREET,11232,814784.43,Warehouse (Unrefrigerated),577.29,3175095,1069976,22,685172,60000,471744,1259
845,43 STREET,11232,770625.84,Multifamily Housing,31.34,203710,43085,6,36813,7731,25346,68
4114,9 AVENUE,11232,875345.41,Multifamily Housing,38.84,252460,53395,6,45623,9581,31412,84
550,HAMILTON AVENUE,11232,2331256.14,Retail,710.42,3907310,1364692,14,860566,120000,592504,1581
1892,ATLANTIC AVENUE,11233,200157.69,Other,169.81,976408,288588,8,197388,41451,135903,363
88,CHAUNCEY STREET,11233,4475846.89,Multifamily Housing,256.87,1412785,435865,8,301730,63363,207742,554
1775,DEAN STREET,11233,424566.22,Service (Vehicle Repair Service Postal Service),349.44,1921920,607698,13,410466,60000,282608,754
930,HALSEY STREET,11233,2156253.2,Multifamily Housing,20.15,130975,27701,7,23176,4867,15957,43
1495,HERKIMER STREET,11233,605345.28,K-12 School,327.14,1799270,566304,12,388275,60000,267329,713
23,MOTHER GASTON BLVD,11233,2019478.41,Multifamily Housing,43.06,258360,51930,6,50053,10511,34462,92
1880,PACIFIC STREET,11233,5723663.29,Multifamily Housing,377.68,2077240,660119,8,443638,93164,305447,815
1776,PARK PLACE,11233,6202.34,Multifamily Housing,31.17,202605,42851,7,35851,7529,24683,66
1750,PROSPECT PLACE,11233,6202.34,Multifamily Housing,36.25,235625,49835,6,42581,8942,29317,78
1785,PROSPECT PLACE,11233,6202.34,Multifamily Housing,37.2,241800,51141,6,43697,9176,30085,80
599,RALPH AVENUE,11233,760749.13,Lodging,32.44,210860,44597,6,38105,8002,26236,70
284,ROCKAWAY AVENUE,11233,7830433.74,Multifamily Housing,268.06,1474330,456636,8,311594,65435,214534,572
1704,ST JOHN'S PLACE,11233,749924.43,Multifamily Housing,35.91,233415,49367,7,39984,8397,27529,73
1633,STERLING PLACE,11233,713482.02,Multifamily Housing,47.02,282120,56706,6,55232,11599,38027,101
378,SUMPTER STREET,11233,2019478.41,Multifamily Housing,31.73,206245,43621,6,36883,7745,25394,68
214,THOMAS S BOYLAND ST,11233,8084637.75,Multifamily Housing,360.98,1985390,629119,8,419605,88117,288900,771
1920,UNION STREET,11233,134107.19,Multifamily Housing,43.49,260940,52449,6,52149,10951,35905,96
1933,UNION STREET,11233,191427.38,Multifamily Housing,61.14,366840,82859,6,73314,15396,50477,135
53,UTICA AVENUE,11233,568241.48,Multifamily Housing,213.01,1171555,354450,7,255423,53639,175860,469
5120,AVENUE U,11234,1571366.82,Retail,4361.19,21805950,8568895,25+,5229555,60000,3600574,9607
5702,AVENUE U,11234,1183750.07,Retail,524.42,2884310,952935,20,635255,60000,437376,1167
6910,AVENUE U,11234,1426765.62,Multifamily Housing,105.14,604555,163087,7,122215,25665,84146,225
2020,EAST 41 STREET,11234,686299.02,Multifamily Housing,38.92,252980,53505,6,45717,9601,31476,84
3319,KINGS HIGHWAY,11234,497406.96,Multifamily Housing,53.87,323220,68137,6,63278,13288,43567,116
3405,KINGS HIGHWAY,11234,125398.93,Multifamily Housing,27.64,179660,37998,7,31452,6605,21655,58
3502,KINGS HIGHWAY,11234,897964.84,Multifamily Housing,44.35,266100,53486,6,52638,11054,36241,97
3601,KINGS HIGHWAY,11234,613039.41,Multifamily Housing,40.21,241260,48493,6,47232,9919,32520,87
3626,KINGS HIGHWAY,11234,842033.56,Multifamily Housing,68.32,409920,97398,7,79415,16677,54678,146
3715,KINGS HIGHWAY,11234,869635.44,Multifamily Housing,53.91,323460,68218,6,63984,13437,44054,118
3857,KINGS HIGHWAY,11234,1306415.27,Multifamily Housing,47.45,284700,57225,6,55737,11705,38375,102
3900,KINGS HIGHWAY,11234,1050083.8,Multifamily Housing,62,372000,84600,6,72828,15294,50142,134
4011,KINGS HIGHWAY,11234,941131.35,Multifamily Housing,88.92,511290,131610,7,105537,22163,72663,194
2183,RALPH AVENUE,11234,99318.25,Retail (Misc),827.87,4553285,1624697,17,962320,120000,662562,1768
5905,STRICKLAND AVENUE,11234,1395019.06,Multifamily Housing,249.24,1370820,421702,8,292767,60000,201572,538
5923,STRICKLAND AVENUE,11234,501705.97,Medical Office,83.27,478803,120646,7,92718,19471,63837,170
2239,TROY AVENUE,11234,904005.51,Multifamily Housing,72.76,436560,106389,7,87247,18322,60070,160
1230,AVENUE X,11235,1129053.38,Multifamily Housing,102.42,588915,157809,7,116547,24475,80243,214
2711,AVENUE X,11235,789850.15,Multifamily Housing,79.57,477420,120179,7,92493,19423,63682,170
1230,AVENUE Y,11235,1483556.7,Multifamily Housing,128.39,738243,208207,8,147670,31011,101672,271
1702,AVENUE Y,11235,2620061.71,Supermarket/Grocery,370.71,2038905,647180,14,439987,60000,302933,808
3020,AVENUE Y,11235,3643513.67,Multifamily Housing,258.85,1423675,439540,8,310390,65182,213705,570
1213,AVENUE Z,11235,1421386.34,Multifamily Housing,203.31,1118205,336444,7,241304,50674,166139,443
1237,AVENUE Z,11235,1052685.25,Multifamily Housing,96.53,555048,146379,7,114569,24060,78881,210
3021,AVENUE Z,11235,843841.35,Multifamily Housing,49.17,295020,59299,6,58359,12255,40180,107
611,BANNER AVENUE,11235,999421.57,Multifamily Housing,76.37,458220,113699,7,88773,18642,61121,163
2520,BATCHELDER STREET,11235,4826514.16,Multifamily Housing,333.25,1832875,577645,8,395526,83061,272322,727
2555,BATCHELDER STREET,11235,853563.74,Multifamily Housing,75.78,454680,112505,7,89941,18888,61925,165
4750,BEDFORD AVENUE,11235,1467352.72,Multifamily Housing,52.87,317220,66112,6,61456,12906,42313,113
3111,BRIGHTON 1 PLACE,11235,770471.51,Multifamily Housing,54.34,326040,69089,6,61835,12985,42574,114
201,BRIGHTON 1 ROAD,11235,1463693.05,Multifamily Housing,63.21,379260,87050,7,71929,15105,49523,132
40,BRIGHTON 1 STREET,11235,5678159.88,Multifamily Housing,132.96,764520,217076,7,156180,32798,107531,287
79,BRIGHTON 11 STREET,11235,3085611.87,Multifamily Housing,35.48,230620,48776,6,41242,8661,28395,76
125,BRIGHTON 11 STREET,11235,991837.67,Multifamily Housing,88.95,511463,131669,7,103396,21713,71189,190
2906,BRIGHTON 12 STREET,11235,1332760.51,Multifamily Housing,93.09,535268,139703,7,109347,22963,75286,201
3030,BRIGHTON 12 STREET,11235,1587857.4,Multifamily Housing,78.53,471180,118073,7,92244,19371,63511,169
3085,BRIGHTON 13 STREET,11235,569939.04,Multifamily Housing,34.53,224445,47470,6,40138,8429,27635,74
3131,BRIGHTON 13 STREET,11235,4184065.09,Multifamily Housing,108.59,624393,169783,7,127554,26786,87822,234
3033,BRIGHTON 14 STREET,11235,444694.43,Multifamily Housing,44.86,269160,54101,6,53243,11181,36658,98
150,BRIGHTON 15 STREET,11235,565926.63,Multifamily Housing,39.27,255255,53986,6,45648,9586,31429,84
200,BRIGHTON 15 STREET,11235,1018425.42,Multifamily Housing,55.46,332760,71357,6,62431,13111,42984,115
2857,BRIGHTON 3 STREET,11235,3184401,Senior Care Facility,47.12,282720,56827,6,53619,11260,36917,99
3091,BRIGHTON 3 STREET,11235,543615.85,Multifamily Housing,33.76,219440,46412,6,39656,8328,27303,73
3100,BRIGHTON 3 STREET,11235,808677.62,Multifamily Housing,37.72,245180,51856,7,42923,9014,29553,79
3105,BRIGHTON 3 STREET,11235,1028390.31,Multifamily Housing,39.7,258050,54578,6,46147,9691,31773,85
3115,BRIGHTON 4 STREET,11235,1395371.79,Multifamily Housing,87.66,504045,129165,7,101896,21398,70156,187
3145,BRIGHTON 4 STREET,11235,1452405.38,Multifamily Housing,70.61,423660,102035,7,79485,16692,54726,146
2911,BRIGHTON 5 STREET,11235,22487.15,Multifamily Housing,68.54,411240,97844,7,77994,16379,53699,143
3094,BRIGHTON 5 STREET,11235,563170.85,Multifamily Housing,28.59,185835,39304,6,34283,7199,23604,63
3108,BRIGHTON 5 STREET,11235,16049.65,Multifamily Housing,33.5,217750,46054,6,38941,8178,26811,72
3121,BRIGHTON 5 STREET,11235,586319.39,Multifamily Housing,32.81,213265,45106,7,37737,7925,25982,69
3096,BRIGHTON 6 STREET,11235,657242.1,Multifamily Housing,51.32,307920,62973,6,59027,12396,40640,108
3099,BRIGHTON 6 STREET,11235,209152.55,Multifamily Housing,63.38,380280,87395,6,73673,15471,50724,135
3115,BRIGHTON 6 STREET,11235,621306.75,Multifamily Housing,58.81,352860,78140,6,69081,14507,47562,127
3130,BRIGHTON 6 STREET,11235,943931.22,Multifamily Housing,67.08,402480,94887,7,77974,16375,53686,143
3152,BRIGHTON 6 STREET,11235,1568655.13,Multifamily Housing,95.84,551080,145040,7,105541,22164,72666,194
3161,BRIGHTON 6 STREET,11235,1368982.46,Multifamily Housing,50.29,301740,60887,6,57842,12147,39824,106
3109,BRIGHTON 7 STREET,11235,759205.89,Multifamily Housing,40.99,245940,49434,6,46644,9795,32115,86
3111,BRIGHTON 7 STREET,11235,165192.37,Multifamily Housing,42.71,256260,51508,6,49646,10426,34182,91
3133,BRIGHTON 7 STREET,11235,614670.83,Multifamily Housing,55.28,331680,70992,6,64258,13494,44242,118
1120,BRIGHTON BEACH AVE,11235,1748772.8,Multifamily Housing,100.32,576840,153734,8,109247,22942,75217,201
1150,BRIGHTON BEACH AVE,11235,1625953.27,Multifamily Housing,112.89,649118,178127,8,125699,26397,86544,231
1151,BRIGHTON BEACH AVE,11235,781693.04,Multifamily Housing,44.69,268140,53896,6,51401,10794,35390,94
1159,BRIGHTON BEACH AVE,11235,611937.1,Multifamily Housing,37.46,243490,51498,7,43085,9048,29664,79
1311,BRIGHTWATER AVENUE,11235,1884930.29,Multifamily Housing,120.81,694658,193497,8,137474,28869,94651,253
417,BRIGHTWATER COURT,11235,62853.79,Multifamily Housing,40.73,244380,49120,6,46348,9733,31911,85
500,BRIGHTWATER COURT,11235,2076622.23,Multifamily Housing,60.36,362160,81279,7,67947,14269,46782,125
501,BRIGHTWATER COURT,11235,910597.33,Multifamily Housing,70.01,420060,100820,7,78810,16550,54261,145
601,BRIGHTWATER COURT,11235,620468.99,Multifamily Housing,59.85,359100,80246,6,68105,14302,46891,125
3033,CONEY ISLAND AVENUE,11235,276944.69,Multifamily Housing,53.65,321900,67691,6,63676,13372,43841,117
3250,CONEY ISLAND AVENUE,11235,964831.04,Multifamily Housing,62.09,372540,84782,7,70654,14837,48646,130
3260,CONEY ISLAND AVENUE,11235,884957.57,Multifamily Housing,62,372000,84600,7,70552,14816,48575,130
200,CORBIN PLACE,11235,1075745.61,Multifamily Housing,92.31,530783,138189,7,106172,22296,73100,195
1511,CORBIN PLACE,11235,695470.25,Multifamily Housing,88.09,506518,130000,7,102396,21503,70500,188
2790,COYLE STREET,11235,666832.2,Multifamily Housing,57.69,346140,75872,6,67765,14231,46657,124
2800,COYLE STREET,11235,1448767.75,Multifamily Housing,139.07,799653,228933,7,166760,35020,114815,306
2815,COYLE STREET,11235,883789.12,Multifamily Housing,63.12,378720,86868,6,75688,15894,52112,139
2475,EAST 11 STREET,11235,629794.54,Multifamily Housing,52.36,314160,65079,6,61504,12916,42346,113
2546,EAST 13 STREET,11235,1714777.52,Multifamily Housing,113.32,651590,178962,7,135883,28536,93556,250
2611,EAST 13 STREET,11235,1033593.23,Multifamily Housing,43.06,258360,51930,6,50580,10622,34825,93
2625,EAST 13 STREET,11235,1033593.23,Multifamily Housing,56.49,338940,73442,6,67047,14080,46162,123
2740,EAST 13 STREET,11235,698689,Multifamily Housing,48.39,290340,58358,6,56841,11937,39135,104
2775,EAST 16 STREET,11235,909803.66,Multifamily Housing,73.11,438660,107098,7,86773,18222,59743,159
2615,EAST 17 STREET,11235,232565.64,Multifamily Housing,19.89,139230,30700,7,22633,4753,15583,42
2680,EAST 19 STREET,11235,818377.96,Multifamily Housing,72.16,432960,105174,7,83879,17615,57751,154
2600,EAST 21 STREET,11235,487067.28,Multifamily Housing,44.28,265680,53402,6,50929,10695,35065,94
2717,EAST 28 STREET,11235,3492673.39,Multifamily Housing,194.78,1119985,337045,8,224030,47046,154246,412
2427,EAST 29 STREET,11235,2091767.99,Multifamily Housing,135.63,779873,222257,7,160976,33805,110833,296
2440,EAST 29 STREET,11235,367378.31,Multifamily Housing,84.39,485243,122820,7,98095,20600,67539,180
2514,EAST 7 STREET,11235,1216246.21,Multifamily Housing,52.87,317220,66112,6,62750,13178,43204,115
2531,EAST 7 STREET,11235,1850604.32,Multifamily Housing,81.29,467418,116804,7,96481,20261,66428,177
2552,EAST 7 STREET,11235,1075436.96,Multifamily Housing,40.3,241800,48602,6,47338,9941,32592,87
2675,EAST 7 STREET,11235,1253063.4,Multifamily Housing,57.09,342540,74657,6,65663,13789,45209,121
1625,EMMONS AVENUE,11235,1542331.94,Multifamily Housing,149.66,860545,249484,7,177628,37302,122298,326
1725,EMMONS AVENUE,11235,835287.42,Multifamily Housing,45.98,275880,55452,6,54010,11342,37186,99
2211,EMMONS AVENUE,11235,1579788.48,Multifamily Housing,120.73,694198,193342,7,143292,30091,98657,263
3180,EMMONS AVENUE,11235,512442.48,Senior Care Facility,71.56,429360,103959,7,83182,17468,57271,153
3205,EMMONS AVENUE,11235,629287.48,Multifamily Housing,41.68,250080,50266,6,48959,10281,33709,90
3221,EMMONS AVENUE,11235,1520395.94,Multifamily Housing,183.85,1057138,315834,8,220457,46296,151786,405
45,FALMOUTH STREET,11235,689848.46,Multifamily Housing,18,126000,27783,7,20703,4348,14254,38
701,GERALD COURT,11235,963331.9,Multifamily Housing,56.36,338160,73179,6,66203,13903,45581,122
2430,HARING STREET,11235,3868539.5,Multifamily Housing,87.4,502550,128661,7,102664,21559,70684,189
2616,HOMECREST AVENUE,11235,1586248.02,Multifamily Housing,103.59,595643,160080,7,122948,25819,84651,226
2665,HOMECREST AVENUE,11235,1508887.81,Multifamily Housing,126.07,724903,203705,7,149629,31422,103021,275
2685,HOMECREST AVENUE,11235,702723.46,Multifamily Housing,51.86,311160,64067,6,59013,12393,40631,108
2750,HOMECREST AVENUE,11235,1746568.18,Multifamily Housing,148.63,854623,247485,7,176405,37045,121456,324
2775,HOMECREST AVENUE,11235,1933321.76,Multifamily Housing,145.44,836280,241295,7,172619,36250,118849,317
2461,KNAPP STREET,11235,312064.33,Warehouse (Unrefrigerated),123.14,708055,198019,7,146152,30692,100626,268
2840,KNAPP STREET,11235,1665063.28,Senior Care Facility,51.03,306180,62386,6,59317,12457,40840,109
711,MONTAUK COURT,11235,839432.11,Multifamily Housing,47.36,284160,57116,6,55051,11561,37903,101
3861,NOSTRAND AVENUE,11235,1329056.75,Retail,639.46,3517030,1207605,25,751135,60000,517160,1380
3901,NOSTRAND AVENUE,11235,2538777.27,Multifamily Housing,191.68,1102160,331029,8,225155,47283,155020,414
2813,OCEAN AVENUE,11235,788130.54,Multifamily Housing,31,201500,42617,7,35655,7488,24549,66
2820,OCEAN AVENUE,11235,1005197.68,Multifamily Housing,112.96,649520,178263,7,129923,27284,89453,239
2835,OCEAN AVENUE,11235,1355512.22,Multifamily Housing,88.78,510485,131339,7,101026,21215,69557,186
2900,OCEAN AVENUE,11235,1488164.36,Multifamily Housing,59.76,358560,80064,6,68734,14434,47324,126
2940,OCEAN AVENUE,11235,508011.19,Multifamily Housing,60.11,360660,80773,6,70608,14828,48614,130
2950,OCEAN AVENUE,11235,509774.89,Multifamily Housing,58.56,351360,77634,6,69503,14596,47853,128
2951,OCEAN AVENUE,11235,817760.67,Multifamily Housing,51.15,306900,62629,6,60083,12617,41367,110
3025,OCEAN AVENUE,11235,1365587.34,Multifamily Housing,79.65,477900,120341,7,94535,19852,65088,174
3030,OCEAN AVENUE,11235,696440.29,Multifamily Housing,70.27,421620,101347,7,82542,17334,56831,152
3051,OCEAN AVENUE,11235,713305.65,Multifamily Housing,39.53,256945,54344,6,45950,9649,31637,84
2510,OCEAN PARKWAY,11235,590375.89,Multifamily Housing,34.57,224705,47525,7,38069,7995,26211,70
2610,OCEAN PARKWAY,11235,496458.97,Multifamily Housing,40.04,240240,48288,6,47033,9877,32382,86
2620,OCEAN PARKWAY,11235,919724.46,Multifamily Housing,49.6,297600,59818,6,57048,11980,39278,105
2650,OCEAN PARKWAY,11235,2048645.57,Multifamily Housing,80.34,461955,114960,7,94371,19818,64975,173
2785,OCEAN PARKWAY,11235,806935.97,Multifamily Housing,53.56,321360,67509,6,60292,12661,41512,111
2815,OCEAN PARKWAY,11235,529748.77,Multifamily Housing,40.3,241800,48602,6,44872,9423,30895,82
2850,OCEAN PARKWAY,11235,1171668.74,Multifamily Housing,344.53,1894915,598584,8,396268,83216,272832,728
2901,OCEAN PARKWAY,11235,709645.98,Multifamily Housing,32.46,210990,44624,7,36937,7757,25432,68
2940,OCEAN PARKWAY,11235,5024599.51,Multifamily Housing,121.33,697648,194506,7,144004,30241,99147,265
3000,OCEAN PARKWAY,11235,5940708.39,Multifamily Housing,122.97,707078,197689,7,145950,30650,100487,268
3100,OCEAN PARKWAY,11235,2146773.32,Multifamily Housing,139.07,799653,228933,8,159954,33590,110129,294
3101,OCEAN PARKWAY,11235,892739.88,Multifamily Housing,69.32,415920,99423,7,76337,16031,52558,140
3111,OCEAN PARKWAY,11235,719125.85,Multifamily Housing,20.75,134875,28526,7,23104,4852,15907,42
45,OCEANA DRIVE EAST,11235,842386.3,Multifamily Housing,13.52,94640,20868,7,15219,3196,10479,28
65,OCEANA DRIVE EAST,11235,885795.32,Multifamily Housing,12.92,90440,19942,7,14544,3054,10014,27
75,OCEANA DRIVE EAST,11235,809272.87,Multifamily Housing,24.37,158405,33503,7,26539,5573,18272,49
105,OCEANA DRIVE EAST,11235,1528200.31,Multifamily Housing,50.55,303300,61414,6,56285,11820,38753,103
125,OCEANA DRIVE EAST,11235,3430282.57,Multifamily Housing,65.88,395280,92457,7,74161,15574,51060,136
40,OCEANA DRIVE WEST,11235,1030396.52,Multifamily Housing,12.23,85610,18877,7,13917,2923,9582,26
60,OCEANA DRIVE WEST,11235,932379,Multifamily Housing,13.61,95270,21007,7,15321,3217,10548,28
70,OCEANA DRIVE WEST,11235,769148.74,Multifamily Housing,24.28,157820,33379,7,26441,5553,18205,49
120,OCEANA DRIVE WEST,11235,1334458.07,Multifamily Housing,60.28,361680,81117,7,67857,14250,46720,125
150,OCEANA DRIVE WEST,11235,1465346.52,Multifamily Housing,61.05,366300,82676,7,68724,14432,47317,126
301,ORIENTAL BOULEVARD,11235,761851.44,Multifamily Housing,33.03,214695,45408,7,37182,7808,25600,68
1516,ORIENTAL BOULEVARD,11235,4858966.21,Senior Care Facility,372.86,2050730,651171,14,433414,60000,298408,796
2824,PLUMB 3 STREET,11235,32319.77,Other,330.75,1819125,573005,13,392559,60000,270279,721
110,SHORE BOULEVARD,11235,539096.37,Multifamily Housing,51.32,307920,62973,6,60283,12659,41505,111
3255,SHORE PARKWAY,11235,753275.46,Multifamily Housing,43.83,262980,52859,6,50948,10699,35078,94
3845,SHORE PARKWAY,11235,1710853.29,Multifamily Housing,118.75,682813,189499,7,139489,29293,96039,256
3939,SHORE PARKWAY,11235,1039237.06,Entertainment/Culture,341,1875500,592031,13,404725,60000,278655,744
1516,VOORHIES AVENUE,11235,940888.84,Multifamily Housing,64.58,387480,89825,7,75068,15764,51685,138
2330,VOORHIES AVENUE,11235,1090604.76,Multifamily Housing,72.25,433500,105356,7,84868,17822,58432,156
3080,VOORHIES AVENUE,11235,1827786.48,Multifamily Housing,120.73,694198,193342,7,143292,30091,98657,263
34,WEST END AVENUE,11235,883943.44,Other,91.88,528310,137355,7,112423,23609,77404,207
156,WEST END AVENUE,11235,1527847.57,Multifamily Housing,44.35,266100,53486,6,48839,10256,33626,90
160,WEST END AVENUE,11235,2057375.88,Multifamily Housing,44.35,266100,53486,6,49925,10484,34373,92
10203,AVENUE D,11236,1770179.69,Other,1379.5,6897500,2568244,25+,1654175,60000,1138908,3039
633,EAST 104 STREET,11236,1770091.5,Residence Hall/Dormitory,72.94,437640,106754,7,86571,18180,59604,159
1661,EAST 95 STREET,11236,753010.9,Other,119.61,687758,191168,7,139035,29197,95726,255
1177,EAST 98 STREET,11236,981894.82,Multifamily Housing,31.14,202410,42810,7,34292,7201,23610,63
10237,FARRAGUT ROAD,11236,923825.06,Warehouse (Unrefrigerated),1214.69,6073450,2236564,25+,1486275,60000,1023307,2730
10110,FOSTER AVENUE,11236,3526029.33,Warehouse (Unrefrigerated),2660.32,13301600,5145894,25+,3255124,60000,2241169,5980
10300,FOSTER AVENUE,11236,1464949.68,Warehouse (Unrefrigerated),2643.96,13219800,5112970,25+,3267457,60000,2249660,6003
1900,RALPH AVENUE,11236,1838104.11,Other,410.41,2257255,720874,16,487106,60000,335375,895
1250,ROCKAWAY AVENUE,11236,337064.75,Warehouse (Unrefrigerated),739.66,4068130,1429422,8,905036,190058,623122,1663
1555,ROCKAWAY PARKWAY,11236,2380705.83,Senior Care Facility,51.41,308460,63155,6,55985,11757,38546,103
1625,ROCKAWAY PARKWAY,11236,1906535.6,Multifamily Housing,103.51,595183,159924,7,121587,25533,83713,223
415,BLEECKER STREET,11237,1222353.01,Multifamily Housing,112.81,648658,177972,7,135272,28407,93135,249
345,ELDERT STREET,11237,908811.58,Multifamily Housing,91.88,528310,137355,7,106802,22428,73534,196
1300,FLUSHING AVENUE,11237,253818.2,Warehouse (Unrefrigerated),81.12,466440,116474,7,94294,19802,64922,173
358,GROVE STREET,11237,691898.76,Multifamily Housing,1.66,14110,3403,12,1930,405,1329,4
91,INGRAHAM STREET,11237,78396.38,Office,85.94,494155,125827,6,106206,22303,73124,195
119,INGRAHAM STREET,11237,309903.8,Office,95.84,551080,145040,7,117268,24626,80740,215
513,IRVING AVENUE,11237,252297.01,Warehouse (Unrefrigerated),385.69,2121295,674987,15,467205,60000,321673,858
1150,METROPOLITAN AVENUE,11237,105425.05,Warehouse (Unrefrigerated),538.63,2962465,984392,21,665649,60000,458303,1223
134,MORGAN AVENUE,11237,1213931.35,Other,731.34,4022370,1411004,25+,903804,60000,622274,1660
154,MORGAN AVENUE,11237,90565.9,Warehouse (Unrefrigerated),542.85,2985675,993734,21,657580,60000,452747,1208
89,PORTER AVENUE,11237,1653555.15,Residence Hall/Dormitory,86.54,497605,126992,7,103771,21792,71447,191
152,RANDOLPH STREET,11237,251745.86,Warehouse (Unrefrigerated),218.89,1203895,365365,7,262474,55119,180714,482
165,RANDOLPH STREET,11237,494629.13,Warehouse (Unrefrigerated),487.48,2681140,871159,19,602437,60000,414781,1107
154,SCOTT AVENUE,11237,110164.99,Warehouse (Unrefrigerated),115.73,665448,183639,7,135941,28548,93596,250
449,TROUTMAN STREET,11237,470995.58,Multifamily Housing,71.04,426240,102906,7,85185,17889,58650,156
467,TROUTMAN STREET,11237,251922.23,Multifamily Housing,65.1,390600,90878,6,78859,16560,54295,145
41,VARICK AVENUE,11237,140302.18,Multifamily Housing,92.91,534233,139354,7,114820,24112,79054,211
52,WILSON AVENUE,11237,1363029.98,Multifamily Housing,77.93,467580,116858,7,94400,19824,64995,173
297,WILSON AVENUE,11237,720514.76,Multifamily Housing,39.87,259155,54811,6,47321,9937,32581,87
70,WYCKOFF AVENUE,11237,393701.51,Other,72.59,435540,106045,7,85267,17906,58707,157
300,WYCKOFF AVENUE,11237,218764.7,Office,226.9,1247950,380233,7,277631,58303,191150,510
387,ADELPHI STREET,11238,169050.46,Multifamily Housing,43.31,259860,52232,6,49284,10350,33932,91
892,ATLANTIC AVENUE,11238,323572.46,Self-Storage,42.63,255780,51412,6,50075,10516,34477,92
984,ATLANTIC AVENUE,11238,175024.99,Other,119.87,689253,191673,7,142271,29877,97954,261
880,BERGEN STREET,11238,1306393.23,Multifamily Housing,34.27,222755,47113,6,40674,8542,28004,75
44,BUTLER PLACE,11238,623996.39,Multifamily Housing,60.02,360120,80591,6,70502,14805,48541,130
381,CARLTON AVENUE,11238,767451.18,Multifamily Housing,9.47,71025,16215,9,10313,2166,7100,19
415,CARLTON AVENUE,11238,301636.47,Multifamily Housing,34.96,227240,48061,6,40638,8534,27979,75
475,CARLTON AVENUE,11238,4435392.06,Multifamily Housing,172.39,991243,293595,8,204606,42967,140872,376
753,CLASSON AVENUE,11238,3707756.37,Multifamily Housing,38.58,250770,53038,7,44374,9318,30551,82
74,CLIFTON PLACE,11238,1176981.88,Multifamily Housing,79.91,479460,120868,7,92888,19506,63954,171
345,CLINTON AVENUE,11238,6029709,Multifamily Housing,125.89,723868,203355,7,146335,30730,100752,269
360,CLINTON AVENUE,11238,1060092.79,Multifamily Housing,58.9,353400,78323,6,67745,14226,46643,124
313,CUMBERLAND STREET,11238,1057711.79,Multifamily Housing,29.62,192530,40720,7,33343,7002,22957,61
425,CUMBERLAND STREET,11238,907202.21,Multifamily Housing,51.67,310020,63682,6,60061,12613,41353,110
41,EASTERN PARKWAY,11238,1417418.02,Multifamily Housing,22.22,144430,30547,6,26101,5481,17970,48
135,EASTERN PARKWAY,11238,2890568.9,Multifamily Housing,85.68,492660,125323,7,100643,21135,69293,185
159,EASTERN PARKWAY,11238,526177.28,Multifamily Housing,5.43,40725,9298,9,5714,1200,3934,10
175,EASTERN PARKWAY,11238,864476.62,Multifamily Housing,69.06,414360,98897,7,81966,17213,56434,151
201,EASTERN PARKWAY,11238,1897783.24,Multifamily Housing,96.36,554070,146049,7,112009,23522,77119,206
225,EASTERN PARKWAY,11238,971400.82,Multifamily Housing,87.32,502090,128505,7,102570,21540,70620,188
255,EASTERN PARKWAY,11238,1447180.43,Multifamily Housing,96.19,553093,145719,7,115343,24222,79414,212
263,EASTERN PARKWAY,11238,906959.7,Multifamily Housing,61.66,369960,83912,6,73937,15527,50906,136
5,GATES AVENUE,11238,295992.63,Multifamily Housing,36.68,238420,50426,6,42637,8954,29356,78
597,GRAND AVENUE,11238,3275716.47,Multifamily Housing,74.23,445380,109366,7,87194,18311,60033,160
80,GREENE AVENUE,11238,1038796.13,Multifamily Housing,51.75,310500,63844,6,60788,12765,41853,112
28,JEFFERSON AVENUE,11238,723667.38,Multifamily Housing,34.88,226720,47951,6,41398,8694,28503,76
309,LAFAYETTE AVENUE,11238,3982738.95,Multifamily Housing,54.94,329640,70304,6,63862,13411,43970,117
333,LAFAYETTE AVENUE,11238,5447490.22,Multifamily Housing,78.45,470700,117911,7,94070,19755,64768,173
128,LEFFERTS PLACE,11238,1480183.63,Multifamily Housing,68.72,412320,98208,7,80721,16951,55577,148
364,LINCOLN PLACE,11238,437882.14,Multifamily Housing,1.03,8755,2111,14,1033,217,712,2
750,PACIFIC STREET,11238,127118.54,Warehouse (Unrefrigerated),57.26,343560,75002,6,68661,14419,47274,126
225,PARK PLACE,11238,540154.59,Multifamily Housing,44.09,264540,53173,6,53408,11216,36772,98
230,PARK PLACE,11238,1113554.89,Multifamily Housing,73.45,440700,107786,7,87176,18307,60021,160
10,PLAZA ST EAST,11238,2019280,Multifamily Housing,25.83,167895,35510,7,28129,5907,19367,52
20,PLAZA ST EAST,11238,1006542.5,Multifamily Housing,86.89,499618,127671,7,96749,20317,66612,178
34,PLAZA ST EAST,11238,1290431.76,Multifamily Housing,47.62,285720,57430,6,54771,11502,37710,101
36,PLAZA ST EAST,11238,875565.87,Multifamily Housing,14.98,104860,23122,7,17046,3580,11736,31
60,PLAZA ST EAST,11238,815908.79,Multifamily Housing,65.96,395760,92619,7,76672,16101,52789,141
520,PROSPECT PLACE,11238,3760975.96,Senior Care Facility,151.38,870435,252822,8,177817,37342,122428,327
545,PROSPECT PLACE,11238,2079818.93,Multifamily Housing,264.63,1455465,450269,8,297893,60000,205101,547
15,QUINCY STREET,11238,502698.05,Multifamily Housing,18.17,127190,28045,7,21343,4482,14695,39
65,ST JAMES PLACE,11238,1425288.52,K-12 School,93.89,539868,141255,7,113733,23884,78306,209
295,ST JOHN'S PLACE,11238,890402.98,Multifamily Housing,63.55,381300,87739,6,74648,15676,51396,137
315,ST JOHN'S PLACE,11238,674394.06,Multifamily Housing,16.79,117530,25915,7,19722,4142,13579,36
500,ST JOHN'S PLACE,11238,1353329.64,Multifamily Housing,109.1,627325,170772,7,128153,26912,88234,235
555,ST JOHN'S PLACE,11238,638789.4,Multifamily Housing,20.24,131560,27825,6,23527,4941,16199,43
500,ST MARK'S AVENUE,11238,776600.36,Other,264.63,1455465,450269,8,297893,60000,205101,547
475,STERLING PLACE,11238,639957.85,Multifamily Housing,48.65,291900,58672,6,57742,12126,39755,106
35,UNDERHILL AVENUE,11238,270529.24,Multifamily Housing,28.07,182455,38589,6,32972,6924,22701,61
203,UNDERHILL AVENUE,11238,702811.65,Multifamily Housing,27.73,180245,38122,7,31894,6698,21959,59
379,WASHINGTON AVENUE,11238,1301565.1,Multifamily Housing,86.03,494673,126002,7,100002,21000,68852,184
555,WASHINGTON AVENUE,11238,656183.88,Multifamily Housing,21.55,140075,29626,6,25313,5316,17428,47
180,BETHEL LOOP,11239,13001141.46,Multifamily Housing,739.95,4069725,1430064,9,878229,184428,604665,1613
1260,CROTON LOOP,11239,13001141.46,Multifamily Housing,403,2216500,707119,8,488173,102516,336110,897
1426,FREEPORT LOOP,11239,13001141.46,Multifamily Housing,137.35,789763,225595,8,154614,32469,106453,284
339,GATEWAY DRIVE,11239,7575987.22,Retail,878.68,4832740,1737178,25+,1075138,60000,740238,1975
519,GATEWAY DRIVE,11239,7575987.22,Retail,1003.89,5019450,1812329,25+,1216060,60000,837263,2234
579,GATEWAY DRIVE,11239,7575987.22,Retail,952.39,5238145,1900353,25+,1153675,60000,794311,2119
660,LOUISIANA AVENUE,11239,2623434.78,Senior Care Facility,151.2,869400,252473,8,175756,36909,121009,323
671,LOUISIANA AVENUE,11239,492711.11,K-12 School,164.73,947198,278729,8,191483,40211,131837,352
1155,PENNSYLVANIA AVENUE,11239,13001141.46,Multifamily Housing,225.09,1237995,376873,7,272662,57259,187729,501
1170,PENNSYLVANIA AVENUE,11239,1093536.91,Multifamily Housing,39.87,259155,54811,6,46833,9835,32245,86
1180,PENNSYLVANIA AVENUE,11239,947855.45,Multifamily Housing,39.09,254085,53739,6,45438,9542,31285,83
1350,PENNSYLVANIA AVENUE,11239,13001141.46,Multifamily Housing,504.61,2775355,909080,8,586561,120000,403850,1078
1461,PENNSYLVANIA AVENUE,11239,13001141.46,Multifamily Housing,151.38,870435,252822,8,166703,35008,114776,306
1506,PENNSYLVANIA AVENUE,11239,13001141.46,Multifamily Housing,154.57,888778,259013,8,173999,36540,119799,320
1540,VAN SICLEN AVENUE,11239,13001141.46,Multifamily Housing,567.3,3120150,1047860,8,666373,139938,458801,1224
99,VANDALIA AVENUE,11239,1083329.51,Multifamily Housing,35.74,232310,49134,7,41107,8632,28302,76
177,VANDALIA AVENUE,11239,13001141.46,Multifamily Housing,161.54,928855,272539,8,181845,38187,125201,334
186,VANDALIA AVENUE,11239,13001141.46,Multifamily Housing,171.88,988310,292605,8,187175,39307,128871,344
34,BERRY STREET,11211,1303615.4,Multifamily Housing,15.98,111860,24665,8,17402,3654,11981,32
55,BERRY STREET,11211,682176.38,Multifamily Housing,21.08,137020,28980,7,23730,4983,16338,44
315,BERRY STREET,11211,290966.09,Multifamily Housing,44.35,266100,53486,6,51553,10826,35494,95
440,BERRY STREET,11211,1873995.37,Multifamily Housing,39.01,253565,53629,6,46300,9723,31878,85
60,BROADWAY,11211,1610190.22,Multifamily Housing,32.68,212420,44927,7,36388,7641,25053,67
23,HEYWARD STREET,11211,195616.17,Multifamily Housing,31.61,205465,43456,6,36744,7716,25298,68
67,KENT AVENUE,11211,361073.09,Warehouse (Unrefrigerated),235.94,1297670,397014,8,274258,57594,188828,504
151,KENT AVENUE,11211,398419.4,Multifamily Housing,120.3,691725,192507,7,144253,30293,99319,265
184,KENT AVENUE,11211,4502809.42,Multifamily Housing,329.04,1809720,569831,13,382478,60000,263338,703
440,KENT AVENUE,11211,1520373.9,Multifamily Housing,18,126000,27783,7,20703,4348,14254,38
446,KENT AVENUE,11211,946687,Multifamily Housing,41.33,247980,49844,6,48042,10089,33077,88
478,KENT AVENUE,11211,276261.26,Warehouse (Unrefrigerated),334.2,1838100,579409,13,388476,60000,267467,714
525,KENT AVENUE,11211,104190.47,Multifamily Housing,32.09,208585,44116,7,36124,7586,24871,66
80,METROPOLITAN AVENUE,11211,765489.07,Multifamily Housing,93.06,535095,139645,7,107035,22477,73694,197
16,NORTH 11 STREET,11211,458495.37,Warehouse (Unrefrigerated),696.38,3830090,1333611,8,860600,180726,592527,1581
20,NORTH 12 STREET,11211,802372.4,Warehouse (Unrefrigerated),466.29,2564595,824601,18,564839,60000,388895,1038
20,NORTH 5 STREET,11211,1269091.01,Multifamily Housing,81.12,466440,116474,7,91317,19176,62872,168
109,SOUTH 5 STREET,11211,486935,Other,29.01,188565,39881,7,32656,6858,22484,60
102,SOUTH 8 STREET,11211,177582.35,Multifamily Housing,5.51,41325,9434,9,5731,1203,3946,11
44,WALLABOUT STREET,11211,331244.55,Self-Storage,197.02,1132865,341392,8,231428,48600,159339,425
240,WYTHE AVENUE,11211,572099.57,Multifamily Housing,105.14,604555,163087,7,124788,26206,85917,229
330,WYTHE AVENUE,11211,874926.53,Multifamily Housing,37.63,244595,51732,7,43281,9089,29799,80
390,WYTHE AVENUE,11211,762358.5,Multifamily Housing,10.06,70420,15528,7,11448,2404,7882,21
539,WYTHE AVENUE,11211,9512108.85,Multifamily Housing,173.6,998200,295943,8,197545,41484,136011,363
570,WYTHE AVENUE,11211,67461.45,Multifamily Housing,25.1,163150,34506,7,28255,5934,19454,52
615,WYTHE AVENUE,11211,618043.91,K-12 School,59.76,358560,80064,6,68003,14281,46820,125
